{
"type": "FeatureCollection",
"name": "ramps",
"crs": { "type": "name", "properties": { "name": "urn:ogc:def:crs:OGC:1.3:CRS84" } },
"features": [
{ "type": "Feature", "properties": { "kind": "off", "postmile": 0.0, "mainline_node": 257884249, "ramp_terminus_node": 65401713, "lanes": 2, "name": null }, "geometry": { "type": "Point", "coordinates": [ -121.9402897, 37.3156408 ] } },
{ "type": "Feature", "properties": { "kind": "on", "postmile": 0.54846419073974295, "mainline_node": 279690421, "ramp_terminus_node": 3664025652, "lanes": 2, "name": null }, "geometry": { "type": "Point", "coordinates": [ -121.9406454, 37.3235584 ] } },
{ "type": "Feature", "properties": { "kind": "on", "postmile": 0.70992354585216866, "mainline_node": 289649406, "ramp_terminus_node": 65408099, "lanes": 1, "name": null }, "geometry": { "type": "Point", "coordinates": [ -121.940742, 37.3258932 ] } },
{ "type": "Feature", "properties": { "kind": "off", "postmile": 1.2886708816863366, "mainline_node": 206680206, "ramp_terminus_node": 651296352, "lanes": 1, "name": null }, "geometry": { "type": "Point", "coordinates": [ -121.9375952, 37.3334505 ] } },
{ "type": "Feature", "properties": { "kind": "off", "postmile": 1.3861091144788558, "mainline_node": 5261661337, "ramp_terminus_node": 65390685, "lanes": 1, "name": null }, "geometry": { "type": "Point", "coordinates": [ -121.936298, 37.3344119 ] } },
{ "type": "Feature", "properties": { "kind": "on", "postmile": 1.4889808423909392, "mainline_node": 283018947, "ramp_terminus_node": 283018946, "lanes": 1, "name": null }, "geometry": { "type": "Point", "coordinates": [ -121.9349508, 37.335446 ] } },
{ "type": "Feature", "properties": { "kind": "off", "postmile": 2.0478465698327191, "mainline_node": 311577375, "ramp_terminus_node": 652373711, "lanes": 1, "name": null }, "geometry": { "type": "Point", "coordinates": [ -121.9277191, 37.3411323 ] } },
{ "type": "Feature", "properties": { "kind": "on", "postmile": 2.2049023252506088, "mainline_node": 311575955, "ramp_terminus_node": 666730382, "lanes": 1, "name": null }, "geometry": { "type": "Point", "coordinates": [ -121.9256981, 37.342737 ] } },
{ "type": "Feature", "properties": { "kind": "on", "postmile": 2.3650163412508904, "mainline_node": 33102524, "ramp_terminus_node": 652373711, "lanes": 1, "name": null }, "geometry": { "type": "Point", "coordinates": [ -121.9239304, 37.3445757 ] } },
{ "type": "Feature", "properties": { "kind": "off", "postmile": 2.7226541423683619, "mainline_node": 245919614, "ramp_terminus_node": 3668281721, "lanes": 2, "name": null }, "geometry": { "type": "Point", "coordinates": [ -121.9191158, 37.3480601 ] } },
{ "type": "Feature", "properties": { "kind": "on", "postmile": 3.0675305896474665, "mainline_node": 1912088277, "ramp_terminus_node": 3668281720, "lanes": 1, "name": null }, "geometry": { "type": "Point", "coordinates": [ -121.9144735, 37.351421 ] } },
{ "type": "Feature", "properties": { "kind": "off", "postmile": 3.4844032011313408, "mainline_node": 245810016, "ramp_terminus_node": 3971606272, "lanes": 1, "name": null }, "geometry": { "type": "Point", "coordinates": [ -121.9094676, 37.3559439 ] } },
{ "type": "Feature", "properties": { "kind": "on", "postmile": 3.6521035915164513, "mainline_node": 4977823052, "ramp_terminus_node": 245812738, "lanes": 1, "name": null }, "geometry": { "type": "Point", "coordinates": [ -121.9075579, 37.3578378 ] } },
{ "type": "Feature", "properties": { "kind": "on", "postmile": 3.8680442620365594, "mainline_node": 4977823050, "ramp_terminus_node": 1831022619, "lanes": 1, "name": null }, "geometry": { "type": "Point", "coordinates": [ -121.9050911, 37.3602715 ] } },
{ "type": "Feature", "properties": { "kind": "off", "postmile": 4.0393594037716483, "mainline_node": 4977823048, "ramp_terminus_node": 1698569339, "lanes": 1, "name": null }, "geometry": { "type": "Point", "coordinates": [ -121.9031455, 37.3622093 ] } },
{ "type": "Feature", "properties": { "kind": "on", "postmile": 4.1583905333465365, "mainline_node": 65401606, "ramp_terminus_node": 245812719, "lanes": 1, "name": null }, "geometry": { "type": "Point", "coordinates": [ -121.9020063, 37.3636718 ] } },
{ "type": "Feature", "properties": { "kind": "off", "postmile": 4.2191036385660095, "mainline_node": 65394535, "ramp_terminus_node": 25457976, "lanes": 1, "name": null }, "geometry": { "type": "Point", "coordinates": [ -121.9015937, 37.3644868 ] } },
{ "type": "Feature", "properties": { "kind": "on", "postmile": 4.3379835431508482, "mainline_node": 3742063554, "ramp_terminus_node": 1700030864, "lanes": 1, "name": null }, "geometry": { "type": "Point", "coordinates": [ -121.9011043, 37.3661588 ] } },
{ "type": "Feature", "properties": { "kind": "off", "postmile": 4.4440901628479823, "mainline_node": 33102541, "ramp_terminus_node": 1698569510, "lanes": 1, "name": null }, "geometry": { "type": "Point", "coordinates": [ -121.9010237, 37.3676916 ] } },
{ "type": "Feature", "properties": { "kind": "on", "postmile": 4.7042306991758229, "mainline_node": 65405085, "ramp_terminus_node": 1698569553, "lanes": 1, "name": null }, "geometry": { "type": "Point", "coordinates": [ -121.9017775, 37.3714063 ] } },
{ "type": "Feature", "properties": { "kind": "off", "postmile": 5.1823740706761097, "mainline_node": 65410005, "ramp_terminus_node": 312711615, "lanes": 1, "name": null }, "geometry": { "type": "Point", "coordinates": [ -121.903368, 37.3782099 ] } },
{ "type": "Feature", "properties": { "kind": "on", "postmile": 5.4883805353663675, "mainline_node": 312714757, "ramp_terminus_node": 312711624, "lanes": 1, "name": null }, "geometry": { "type": "Point", "coordinates": [ -121.9043626, 37.382567 ] } }
]
}
