{
"type": "FeatureCollection",
"name": "cells",
"crs": { "type": "name", "properties": { "name": "urn:ogc:def:crs:OGC:1.3:CRS84" } },
"features": [
{ "type": "Feature", "properties": { "pm_start": 0.0, "pm_end": 0.548464, "length": 0.548464, "lanes": 3, "on_ramp": false, "off_ramp": false, "on_ramp_name": null, "off_ramp_name": null, "caltrans_pm_start": 0.0, "caltrans_pm_end": 0.399999871, "length_warning": "ok", "fd_vds_id": 429395.0, "vds_id": 408907, "vds_pm": 0.42767264, "vds_lanes": 3, "vds_source": "direct", "vds_distance_mi": 0.0, "vds_n_candidates": 1, "on_ramp_vds_id": null, "off_ramp_vds_id": null, "Notes": null }, "geometry": { "type": "LineString", "coordinates": [ [ -121.9402897, 37.3156408 ], [ -121.9402662, 37.3159991 ], [ -121.9402514, 37.3161873 ], [ -121.9401896, 37.3170526 ], [ -121.9401556, 37.3175843 ], [ -121.9401443, 37.3179021 ], [ -121.9401372, 37.3182939 ], [ -121.9401448, 37.3186758 ], [ -121.9401601, 37.3190777 ], [ -121.9402083, 37.3197232 ], [ -121.940284, 37.3204254 ], [ -121.9404855, 37.3220197 ], [ -121.9406001, 37.3230311 ], [ -121.940645399763355, 37.323558397245428 ] ] } },
{ "type": "Feature", "properties": { "pm_start": 0.548464, "pm_end": 1.288671, "length": 0.740207, "lanes": 4, "on_ramp": true, "off_ramp": true, "on_ramp_name": null, "off_ramp_name": null, "caltrans_pm_start": 0.399999871, "caltrans_pm_end": 1.200000171, "length_warning": "ok", "fd_vds_id": null, "vds_id": 400951, "vds_pm": 0.65860417, "vds_lanes": 4, "vds_source": "nearest_upstream", "vds_distance_mi": -0.34069333, "vds_n_candidates": 1, "on_ramp_vds_id": "408905, 408906, 408908, 408909", "off_ramp_vds_id": "413030;v400000", "Notes": "Add another off-ramp" }, "geometry": { "type": "LineString", "coordinates": [ [ -121.940645399763355, 37.323558397245428 ], [ -121.9406454, 37.3235584 ], [ -121.9407312, 37.3247317 ], [ -121.9407398, 37.325288 ], [ -121.940742, 37.3258932 ], [ -121.9407465, 37.3264624 ], [ -121.9407517, 37.3271092 ], [ -121.9407518, 37.327276 ], [ -121.9407514, 37.3279564 ], [ -121.9407538, 37.328777 ], [ -121.9407481, 37.3289577 ], [ -121.9407371, 37.3291234 ], [ -121.9407097, 37.3293606 ], [ -121.9406728, 37.3295817 ], [ -121.9406271, 37.3297971 ], [ -121.9405707, 37.3299912 ], [ -121.9405115, 37.3301661 ], [ -121.9404511, 37.3303366 ], [ -121.9403975, 37.3304776 ], [ -121.9403048, 37.3306791 ], [ -121.9401551, 37.3309502 ], [ -121.9399904, 37.3312274 ], [ -121.9398496, 37.3314337 ], [ -121.9397083, 37.3316294 ], [ -121.9395626, 37.3318021 ], [ -121.9393265, 37.3320462 ], [ -121.9390315, 37.3323201 ], [ -121.9386078, 37.3326751 ], [ -121.9375952, 37.3334505 ], [ -121.937595198421391, 37.333450501163135 ] ] } },
{ "type": "Feature", "properties": { "pm_start": 1.288671, "pm_end": 1.488981, "length": 0.20031, "lanes": 3, "on_ramp": false, "off_ramp": false, "on_ramp_name": null, "off_ramp_name": null, "caltrans_pm_start": 1.200000171, "caltrans_pm_end": 1.400000121, "length_warning": "ok", "fd_vds_id": null, "vds_id": 400057, "vds_pm": 1.445897461, "vds_lanes": 3, "vds_source": "direct", "vds_distance_mi": 0.0, "vds_n_candidates": 1, "on_ramp_vds_id": null, "off_ramp_vds_id": null, "Notes": "Check lanes" }, "geometry": { "type": "LineString", "coordinates": [ [ -121.937595198421391, 37.333450501163135 ], [ -121.9369565, 37.3339211 ], [ -121.9365878, 37.3342081 ], [ -121.936298, 37.3344119 ], [ -121.9361774, 37.3345036 ], [ -121.9349508, 37.335446 ], [ -121.934950797943287, 37.335446001582412 ] ] } },
{ "type": "Feature", "properties": { "pm_start": 1.488981, "pm_end": 2.047847, "length": 0.558866, "lanes": 4, "on_ramp": true, "off_ramp": true, "on_ramp_name": null, "off_ramp_name": null, "caltrans_pm_start": 1.400000121, "caltrans_pm_end": 1.900000528, "length_warning": "ok", "fd_vds_id": null, "vds_id": 400057, "vds_pm": 1.445897461, "vds_lanes": 3, "vds_source": "nearest_upstream", "vds_distance_mi": -0.322516539, "vds_n_candidates": 0, "on_ramp_vds_id": "413029", "off_ramp_vds_id": "413028", "Notes": null }, "geometry": { "type": "LineString", "coordinates": [ [ -121.934950797943287, 37.335446001582412 ], [ -121.9331061, 37.3368653 ], [ -121.9305938, 37.3389435 ], [ -121.9300064, 37.3394222 ], [ -121.9287699, 37.3403524 ], [ -121.9277191, 37.3411323 ], [ -121.927719094296634, 37.341132304186232 ] ] } },
{ "type": "Feature", "properties": { "pm_start": 2.047847, "pm_end": 2.365016, "length": 0.317169, "lanes": 3, "on_ramp": false, "off_ramp": false, "on_ramp_name": null, "off_ramp_name": null, "caltrans_pm_start": 1.900000528, "caltrans_pm_end": 2.199999837, "length_warning": "ok", "fd_vds_id": null, "vds_id": 400147, "vds_pm": 2.156006149, "vds_lanes": 3, "vds_source": "direct", "vds_distance_mi": 0.0, "vds_n_candidates": 1, "on_ramp_vds_id": null, "off_ramp_vds_id": null, "Notes": null }, "geometry": { "type": "LineString", "coordinates": [ [ -121.927719094296634, 37.341132304186232 ], [ -121.9266586, 37.3419107 ], [ -121.9264065, 37.3421112 ], [ -121.926149, 37.3423265 ], [ -121.9256981, 37.342737 ], [ -121.9252638, 37.3432349 ], [ -121.9248669, 37.3436806 ], [ -121.9246335, 37.3439322 ], [ -121.9243358, 37.3442222 ], [ -121.9241534, 37.3443864 ], [ -121.923930404150155, 37.344575696477015 ] ] } },
{ "type": "Feature", "properties": { "pm_start": 2.365016, "pm_end": 2.722654, "length": 0.357638, "lanes": 4, "on_ramp": true, "off_ramp": true, "on_ramp_name": null, "off_ramp_name": null, "caltrans_pm_start": 2.199999837, "caltrans_pm_end": 2.599999741, "length_warning": "ok", "fd_vds_id": 400147.0, "vds_id": 427921, "vds_pm": 2.311819167, "vds_lanes": 4, "vds_source": "nearest_upstream", "vds_distance_mi": -0.232015833, "vds_n_candidates": 0, "on_ramp_vds_id": "413027, 427922", "off_ramp_vds_id": "403263", "Notes": null }, "geometry": { "type": "LineString", "coordinates": [ [ -121.923930404150155, 37.344575696477015 ], [ -121.9239304, 37.3445757 ], [ -121.9235928, 37.3448327 ], [ -121.9234278, 37.3449511 ], [ -121.9231743, 37.345133 ], [ -121.9222485, 37.345803 ], [ -121.9217506, 37.3461652 ], [ -121.9215532, 37.3463089 ], [ -121.9200549, 37.3473884 ], [ -121.919115801924349, 37.348060098623591 ] ] } },
{ "type": "Feature", "properties": { "pm_start": 2.722654, "pm_end": 3.067531, "length": 0.344877, "lanes": 3, "on_ramp": false, "off_ramp": false, "on_ramp_name": null, "off_ramp_name": null, "caltrans_pm_start": 2.599999741, "caltrans_pm_end": 2.900000592, "length_warning": "ok", "fd_vds_id": null, "vds_id": 400343, "vds_pm": 2.81507069, "vds_lanes": 3, "vds_source": "direct", "vds_distance_mi": 0.0, "vds_n_candidates": 1, "on_ramp_vds_id": null, "off_ramp_vds_id": null, "Notes": null }, "geometry": { "type": "LineString", "coordinates": [ [ -121.919115801924349, 37.348060098623591 ], [ -121.9191158, 37.3480601 ], [ -121.9186495, 37.3483973 ], [ -121.9177403, 37.349054 ], [ -121.9144735, 37.351421 ], [ -121.914473494686192, 37.351421004000215 ] ] } },
{ "type": "Feature", "properties": { "pm_start": 3.067531, "pm_end": 3.484403, "length": 0.416872, "lanes": 3, "on_ramp": true, "off_ramp": true, "on_ramp_name": null, "off_ramp_name": null, "caltrans_pm_start": 2.900000592, "caltrans_pm_end": 3.399999859, "length_warning": "ok", "fd_vds_id": null, "vds_id": 400343, "vds_pm": 2.81507069, "vds_lanes": 3, "vds_source": "nearest_upstream", "vds_distance_mi": -0.46089631, "vds_n_candidates": 0, "on_ramp_vds_id": "402937", "off_ramp_vds_id": "418852", "Notes": null }, "geometry": { "type": "LineString", "coordinates": [ [ -121.914473494686192, 37.351421004000215 ], [ -121.9130791, 37.3524707 ], [ -121.9120183, 37.3534308 ], [ -121.9115788, 37.3538683 ], [ -121.90946760232471, 37.355943897714496 ] ] } },
{ "type": "Feature", "properties": { "pm_start": 3.484403, "pm_end": 3.838044, "length": 0.353641, "lanes": 3, "on_ramp": false, "off_ramp": false, "on_ramp_name": null, "off_ramp_name": null, "caltrans_pm_start": 3.399999859, "caltrans_pm_end": 3.799999586, "length_warning": "ok", "fd_vds_id": null, "vds_id": 401560, "vds_pm": 3.623976503, "vds_lanes": 3, "vds_source": "direct", "vds_distance_mi": 0.0, "vds_n_candidates": 1, "on_ramp_vds_id": null, "off_ramp_vds_id": null, "Notes": "Artificially shortened to lend 0.03 miles to downstream cell" }, "geometry": { "type": "LineString", "coordinates": [ [ -121.90946760232471, 37.355943897714496 ], [ -121.9094676, 37.3559439 ], [ -121.9075579, 37.3578378 ], [ -121.9072049, 37.3581974 ], [ -121.9069659, 37.3584318 ], [ -121.905434725650437, 37.359934307707981 ] ] } },
{ "type": "Feature", "properties": { "pm_start": 3.838044, "pm_end": 4.039359, "length": 0.201315, "lanes": 4, "on_ramp": true, "off_ramp": true, "on_ramp_name": null, "off_ramp_name": null, "caltrans_pm_start": 3.799999586, "caltrans_pm_end": 3.899999864, "length_warning": "ok", "fd_vds_id": null, "vds_id": 422357, "vds_pm": 3.72366026, "vds_lanes": 4, "vds_source": "nearest_upstream", "vds_distance_mi": -0.23004124, "vds_n_candidates": 0, "on_ramp_vds_id": "418852, 422358", "off_ramp_vds_id": "408411, 408404", "Notes": "Artificially lengthened by borrowing 0.03 miles from upstream cell; OR to 101N moved upward into this cell" }, "geometry": { "type": "LineString", "coordinates": [ [ -121.905434725650437, 37.359934307707981 ], [ -121.9050911, 37.3602715 ], [ -121.9047036, 37.360681 ], [ -121.9045457, 37.3608365 ], [ -121.903145504621904, 37.362209295468539 ] ] } },
{ "type": "Feature", "properties": { "pm_start": 4.039359, "pm_end": 4.337984, "length": 0.298625, "lanes": 4, "on_ramp": false, "off_ramp": true, "on_ramp_name": null, "off_ramp_name": null, "caltrans_pm_start": 3.899999864, "caltrans_pm_end": 4.200000241, "length_warning": "ok", "fd_vds_id": null, "vds_id": 400045, "vds_pm": 4.135918476, "vds_lanes": 4, "vds_source": "direct_tiebreak", "vds_distance_mi": 0.0, "vds_n_candidates": 2, "on_ramp_vds_id": null, "off_ramp_vds_id": "418849", "Notes": "FR moved up to fulfill (a), (b), (e)" }, "geometry": { "type": "LineString", "coordinates": [ [ -121.903145504621904, 37.362209295468539 ], [ -121.9031455, 37.3622093 ], [ -121.9030088, 37.3623471 ], [ -121.902779, 37.362612 ], [ -121.9025759, 37.3628598 ], [ -121.9022906, 37.3632532 ], [ -121.902109, 37.3635197 ], [ -121.9020063, 37.3636718 ], [ -121.9019499, 37.3637771 ], [ -121.9017698, 37.3641134 ], [ -121.9015937, 37.3644868 ], [ -121.9015347, 37.3646209 ], [ -121.901502, 37.3646986 ], [ -121.9014106, 37.3649459 ], [ -121.9012848, 37.365304 ], [ -121.9012365, 37.3654916 ], [ -121.9011775, 37.3657496 ], [ -121.9011043, 37.3661588 ], [ -121.901104299069871, 37.366158806553628 ] ] } },
{ "type": "Feature", "properties": { "pm_start": 4.337984, "pm_end": 4.704231, "length": 0.366247, "lanes": 3, "on_ramp": true, "off_ramp": false, "on_ramp_name": null, "off_ramp_name": null, "caltrans_pm_start": 4.200000241, "caltrans_pm_end": 4.600000215, "length_warning": "ok", "fd_vds_id": null, "vds_id": 401541, "vds_pm": 4.619767599, "vds_lanes": 3, "vds_source": "direct", "vds_distance_mi": 0.0, "vds_n_candidates": 1, "on_ramp_vds_id": "408437, 408438", "off_ramp_vds_id": null, "Notes": null }, "geometry": { "type": "LineString", "coordinates": [ [ -121.901104299069871, 37.366158806553628 ], [ -121.9010847, 37.3662969 ], [ -121.9010737, 37.3663742 ], [ -121.9010228, 37.3669246 ], [ -121.9010184, 37.3671512 ], [ -121.9010207, 37.3674586 ], [ -121.9010237, 37.3676916 ], [ -121.9010633, 37.3681154 ], [ -121.9011101, 37.3684367 ], [ -121.9011743, 37.368729 ], [ -121.9017409, 37.3712635 ], [ -121.9017775, 37.3714063 ], [ -121.901777500909105, 37.371406304301097 ] ] } },
{ "type": "Feature", "properties": { "pm_start": 4.704231, "pm_end": 5.182374, "length": 0.478143, "lanes": 3, "on_ramp": true, "off_ramp": true, "on_ramp_name": null, "off_ramp_name": null, "caltrans_pm_start": 4.600000215, "caltrans_pm_end": 5.099999826, "length_warning": "ok", "fd_vds_id": null, "vds_id": 401541, "vds_pm": 4.619767599, "vds_lanes": 3, "vds_source": "nearest_upstream", "vds_distance_mi": -0.323534901, "vds_n_candidates": 0, "on_ramp_vds_id": "418850", "off_ramp_vds_id": "422361", "Notes": null }, "geometry": { "type": "LineString", "coordinates": [ [ -121.901777500909105, 37.371406304301097 ], [ -121.9019047, 37.3720081 ], [ -121.9019946, 37.3724303 ], [ -121.9027059, 37.3753497 ], [ -121.90336799976707, 37.378209898993774 ] ] } },
{ "type": "Feature", "properties": { "pm_start": 5.182374, "pm_end": 5.488381, "length": 0.306007, "lanes": 4, "on_ramp": false, "off_ramp": false, "on_ramp_name": null, "off_ramp_name": null, "caltrans_pm_start": 5.099999826, "caltrans_pm_end": 5.400000568, "length_warning": "ok", "fd_vds_id": null, "vds_id": 422359, "vds_pm": 5.374095996, "vds_lanes": 4, "vds_source": "direct", "vds_distance_mi": 0.0, "vds_n_candidates": 1, "on_ramp_vds_id": null, "off_ramp_vds_id": null, "Notes": null }, "geometry": { "type": "LineString", "coordinates": [ [ -121.90336799976707, 37.378209898993774 ], [ -121.903368, 37.3782099 ], [ -121.9037128, 37.3795544 ], [ -121.9042401, 37.3819101 ], [ -121.9043626, 37.382567 ], [ -121.904362601731108, 37.382567006566937 ] ] } },
{ "type": "Feature", "properties": { "pm_start": 5.488381, "pm_end": 6.48134, "length": 0.992959, "lanes": 4, "on_ramp": true, "off_ramp": true, "on_ramp_name": null, "off_ramp_name": null, "caltrans_pm_start": 5.400000568, "caltrans_pm_end": 6.399999803, "length_warning": "ok", "fd_vds_id": null, "vds_id": 422359, "vds_pm": 5.374095996, "vds_lanes": 4, "vds_source": "nearest_upstream", "vds_distance_mi": -0.610764504, "vds_n_candidates": 0, "on_ramp_vds_id": "422360", "off_ramp_vds_id": "v400001", "Notes": "FR missing VDS" }, "geometry": { "type": "LineString", "coordinates": [ [ -121.904362601731108, 37.382567006566937 ], [ -121.9046168, 37.3835313 ], [ -121.9054418, 37.3870166 ], [ -121.9069223, 37.3932819 ], [ -121.907698799042223, 37.396691395794505 ] ] } },
{ "type": "Feature", "properties": { "pm_start": 6.48134, "pm_end": 7.18709, "length": 0.70575, "lanes": 4, "on_ramp": false, "off_ramp": false, "on_ramp_name": null, "off_ramp_name": null, "caltrans_pm_start": 6.399999803, "caltrans_pm_end": 7.10000009, "length_warning": "ok", "fd_vds_id": null, "vds_id": 423139, "vds_pm": 6.982526671, "vds_lanes": 4, "vds_source": "direct", "vds_distance_mi": 0.0, "vds_n_candidates": 1, "on_ramp_vds_id": null, "off_ramp_vds_id": null, "Notes": null }, "geometry": { "type": "LineString", "coordinates": [ [ -121.907698799042223, 37.396691395794505 ], [ -121.9076988, 37.3966914 ], [ -121.9089823, 37.4020269 ], [ -121.9096938, 37.4050625 ], [ -121.9098942, 37.4059175 ], [ -121.9100861, 37.4067282 ], [ -121.910086100707801, 37.406728202617167 ] ] } },
{ "type": "Feature", "properties": { "pm_start": 7.18709, "pm_end": 7.477911, "length": 0.290821, "lanes": 5, "on_ramp": true, "off_ramp": true, "on_ramp_name": null, "off_ramp_name": null, "caltrans_pm_start": 7.10000009, "caltrans_pm_end": 7.400000193, "length_warning": "ok", "fd_vds_id": null, "vds_id": 423139, "vds_pm": 6.982526671, "vds_lanes": 5, "vds_source": "nearest_upstream", "vds_distance_mi": -0.349973829, "vds_n_candidates": 0, "on_ramp_vds_id": "423140", "off_ramp_vds_id": "402939", "Notes": null }, "geometry": { "type": "LineString", "coordinates": [ [ -121.910086100707801, 37.406728202617167 ], [ -121.9107858, 37.4093154 ], [ -121.911289, 37.4108263 ], [ -121.911289000455128, 37.410826301326637 ] ] } },
{ "type": "Feature", "properties": { "pm_start": 7.477911, "pm_end": 7.8863, "length": 0.408389, "lanes": 4, "on_ramp": false, "off_ramp": false, "on_ramp_name": null, "off_ramp_name": null, "caltrans_pm_start": 7.400000193, "caltrans_pm_end": 7.800000433, "length_warning": "ok", "fd_vds_id": null, "vds_id": 400088, "vds_pm": 7.775269727, "vds_lanes": 4, "vds_source": "direct", "vds_distance_mi": 0.0, "vds_n_candidates": 1, "on_ramp_vds_id": null, "off_ramp_vds_id": null, "Notes": null }, "geometry": { "type": "LineString", "coordinates": [ [ -121.911289000455128, 37.410826301326637 ], [ -121.9124745, 37.4142819 ], [ -121.9132415, 37.4165299 ], [ -121.913241501409644, 37.416529904145406 ] ] } },
{ "type": "Feature", "properties": { "pm_start": 7.8863, "pm_end": 8.251816, "length": 0.365516, "lanes": 5, "on_ramp": true, "off_ramp": true, "on_ramp_name": null, "off_ramp_name": null, "caltrans_pm_start": 7.800000433, "caltrans_pm_end": 8.100000671, "length_warning": "ok", "fd_vds_id": null, "vds_id": 413026, "vds_pm": 8.221996069, "vds_lanes": 5, "vds_source": "direct", "vds_distance_mi": 0.0, "vds_n_candidates": 1, "on_ramp_vds_id": "402940", "off_ramp_vds_id": "403185", "Notes": null }, "geometry": { "type": "LineString", "coordinates": [ [ -121.913241501409644, 37.416529904145406 ], [ -121.9143133, 37.4196818 ], [ -121.914992, 37.4216341 ], [ -121.914992001174795, 37.421634103754172 ] ] } },
{ "type": "Feature", "properties": { "pm_start": 8.251816, "pm_end": 8.618472, "length": 0.366656, "lanes": 4, "on_ramp": false, "off_ramp": false, "on_ramp_name": null, "off_ramp_name": null, "caltrans_pm_start": 8.100000671, "caltrans_pm_end": 8.499999725, "length_warning": "ok", "fd_vds_id": null, "vds_id": 401464, "vds_pm": 8.48008787, "vds_lanes": 4, "vds_source": "direct", "vds_distance_mi": 0.0, "vds_n_candidates": 1, "on_ramp_vds_id": null, "off_ramp_vds_id": null, "Notes": null }, "geometry": { "type": "LineString", "coordinates": [ [ -121.914992001174795, 37.421634103754172 ], [ -121.9150237, 37.4217354 ], [ -121.915882, 37.4242745 ], [ -121.9163165, 37.4255057 ], [ -121.916729598832916, 37.426758096461732 ] ] } },
{ "type": "Feature", "properties": { "pm_start": 8.618472, "pm_end": 8.856621, "length": 0.238149, "lanes": 4, "on_ramp": true, "off_ramp": false, "on_ramp_name": null, "off_ramp_name": null, "caltrans_pm_start": 8.499999725, "caltrans_pm_end": 8.699999755, "length_warning": "ok", "fd_vds_id": null, "vds_id": 401489, "vds_pm": 8.669556815, "vds_lanes": 4, "vds_source": "direct", "vds_distance_mi": 0.0, "vds_n_candidates": 1, "on_ramp_vds_id": "403186", "off_ramp_vds_id": null, "Notes": null }, "geometry": { "type": "LineString", "coordinates": [ [ -121.916729598832916, 37.426758096461732 ], [ -121.9167296, 37.4267581 ], [ -121.9168422, 37.4270607 ], [ -121.9169763, 37.4273802 ], [ -121.9171147, 37.427709 ], [ -121.9173833, 37.4282618 ], [ -121.9177047, 37.4289102 ], [ -121.9179193, 37.4294384 ], [ -121.91811239969482, 37.430021999077688 ] ] } },
{ "type": "Feature", "properties": { "pm_start": 8.856621, "pm_end": 9.127599, "length": 0.270978, "lanes": 4, "on_ramp": true, "off_ramp": false, "on_ramp_name": null, "off_ramp_name": null, "caltrans_pm_start": 8.699999755, "caltrans_pm_end": 9.0000000320000009, "length_warning": "ok", "fd_vds_id": 401489.0, "vds_id": 401538, "vds_pm": 8.890420729000001, "vds_lanes": 6, "vds_source": "direct", "vds_distance_mi": 0.0, "vds_n_candidates": 1, "on_ramp_vds_id": "403187", "off_ramp_vds_id": null, "Notes": null }, "geometry": { "type": "LineString", "coordinates": [ [ -121.91811239969482, 37.430021999077688 ], [ -121.9181124, 37.430022 ], [ -121.9182895, 37.4306439 ], [ -121.9184128, 37.4312446 ], [ -121.9184879, 37.4317132 ], [ -121.918783, 37.433904 ], [ -121.918783000088013, 37.433904000535648 ] ] } },
{ "type": "Feature", "properties": { "pm_start": 9.127599, "pm_end": 9.358898, "length": 0.231299, "lanes": 6, "on_ramp": true, "off_ramp": false, "on_ramp_name": null, "off_ramp_name": null, "caltrans_pm_start": 9.0000000320000009, "caltrans_pm_end": 9.2000000929999999, "length_warning": "ok", "fd_vds_id": 401489.0, "vds_id": 401538, "vds_pm": 8.890420729000001, "vds_lanes": 6, "vds_source": "nearest_upstream", "vds_distance_mi": -0.352827771, "vds_n_candidates": 0, "on_ramp_vds_id": "403188", "off_ramp_vds_id": null, "Notes": null }, "geometry": { "type": "LineString", "coordinates": [ [ -121.918783000088013, 37.433904000535648 ], [ -121.9190255, 37.4353799 ], [ -121.9193604, 37.43722 ], [ -121.919360400779851, 37.43722000393462 ] ] } },
{ "type": "Feature", "properties": { "pm_start": 9.358898, "pm_end": 10.135147, "length": 0.776249, "lanes": 6, "on_ramp": true, "off_ramp": true, "on_ramp_name": null, "off_ramp_name": null, "caltrans_pm_start": 9.2000000929999999, "caltrans_pm_end": 9.9999996719999995, "length_warning": "ok", "fd_vds_id": 401489.0, "vds_id": 401538, "vds_pm": 8.890420729000001, "vds_lanes": 6, "vds_source": "nearest_upstream", "vds_distance_mi": -0.856601771, "vds_n_candidates": 0, "on_ramp_vds_id": "v400002", "off_ramp_vds_id": "403194", "Notes": "OR missing VDS" }, "geometry": { "type": "LineString", "coordinates": [ [ -121.919360400779851, 37.43722000393462 ], [ -121.9201482, 37.4411947 ], [ -121.920335, 37.4421463 ], [ -121.9206075, 37.4434487 ], [ -121.921518, 37.4477128 ], [ -121.921627399162517, 37.448309395432872 ] ] } },
{ "type": "Feature", "properties": { "pm_start": 10.135147, "pm_end": 10.905514, "length": 0.770367, "lanes": 5, "on_ramp": false, "off_ramp": false, "on_ramp_name": null, "off_ramp_name": null, "caltrans_pm_start": 9.9999996719999995, "caltrans_pm_end": 0.300000265, "length_warning": "ok", "fd_vds_id": null, "vds_id": 401643, "vds_pm": 10.69914419, "vds_lanes": 5, "vds_source": "direct", "vds_distance_mi": 0.0, "vds_n_candidates": 1, "on_ramp_vds_id": null, "off_ramp_vds_id": null, "Notes": null }, "geometry": { "type": "LineString", "coordinates": [ [ -121.921627399162517, 37.448309395432872 ], [ -121.9216274, 37.4483094 ], [ -121.9219784, 37.4500886 ], [ -121.9223461, 37.451952 ], [ -121.9226411, 37.4534979 ], [ -121.9227464, 37.4539839 ], [ -121.9230199, 37.4553721 ], [ -121.923315, 37.45682 ], [ -121.9234008, 37.4572288 ], [ -121.9235081, 37.4576206 ], [ -121.9236368, 37.4580336 ], [ -121.9237549, 37.4583913 ], [ -121.9239212, 37.4588171 ], [ -121.9240498, 37.4592838 ], [ -121.924049801733972, 37.459283803555849 ] ] } },
{ "type": "Feature", "properties": { "pm_start": 10.905514, "pm_end": 11.627741, "length": 0.722227, "lanes": 6, "on_ramp": true, "off_ramp": false, "on_ramp_name": null, "off_ramp_name": null, "caltrans_pm_start": 0.300000265, "caltrans_pm_end": 0.99999952800000003, "length_warning": "ok", "fd_vds_id": null, "vds_id": 402800, "vds_pm": 11.18484194, "vds_lanes": 6, "vds_source": "direct_tiebreak", "vds_distance_mi": 0.0, "vds_n_candidates": 2, "on_ramp_vds_id": null, "off_ramp_vds_id": null, "Notes": null }, "geometry": { "type": "LineString", "coordinates": [ [ -121.924049801733972, 37.459283803555849 ], [ -121.9251445, 37.4615287 ], [ -121.9259467, 37.4630493 ], [ -121.9282373, 37.4677584 ], [ -121.928860696744366, 37.469013693444353 ] ] } },
{ "type": "Feature", "properties": { "pm_start": 11.627741, "pm_end": 12.223033, "length": 0.595292, "lanes": 5, "on_ramp": false, "off_ramp": true, "on_ramp_name": null, "off_ramp_name": "CA 262", "caltrans_pm_start": 0.99999952800000003, "caltrans_pm_end": 1.4999999909999999, "length_warning": "ok", "fd_vds_id": null, "vds_id": 402800, "vds_pm": 11.18484194, "vds_lanes": 6, "vds_source": "nearest_upstream", "vds_distance_mi": -0.740545062, "vds_n_candidates": 0, "on_ramp_vds_id": null, "off_ramp_vds_id": null, "Notes": null }, "geometry": { "type": "LineString", "coordinates": [ [ -121.928860696744366, 37.469013693444353 ], [ -121.9288607, 37.4690137 ], [ -121.9297208, 37.4707753 ], [ -121.9320536, 37.4755529 ], [ -121.93281979992544, 37.477035799855699 ] ] } },
{ "type": "Feature", "properties": { "pm_start": 12.223033, "pm_end": 12.486685, "length": 0.263652, "lanes": 3, "on_ramp": false, "off_ramp": true, "on_ramp_name": null, "off_ramp_name": null, "caltrans_pm_start": 1.4999999909999999, "caltrans_pm_end": 1.800000522, "length_warning": "ok", "fd_vds_id": null, "vds_id": 402789, "vds_pm": 12.33838034, "vds_lanes": 4, "vds_source": "direct_tiebreak", "vds_distance_mi": 0.0, "vds_n_candidates": 2, "on_ramp_vds_id": null, "off_ramp_vds_id": "420001", "Notes": null }, "geometry": { "type": "LineString", "coordinates": [ [ -121.93281979992544, 37.477035799855699 ], [ -121.9328198, 37.4770358 ], [ -121.9346045, 37.4805791 ], [ -121.934604502512755, 37.480579104693447 ] ] } },
{ "type": "Feature", "properties": { "pm_start": 12.486685, "pm_end": 12.898275, "length": 0.41159, "lanes": 3, "on_ramp": false, "off_ramp": false, "on_ramp_name": null, "off_ramp_name": null, "caltrans_pm_start": 1.800000522, "caltrans_pm_end": 2.499999798, "length_warning": "ok", "fd_vds_id": null, "vds_id": 408755, "vds_pm": 12.65900868, "vds_lanes": 4, "vds_source": "direct_tiebreak", "vds_distance_mi": 0.0, "vds_n_candidates": 3, "on_ramp_vds_id": null, "off_ramp_vds_id": null, "Notes": null }, "geometry": { "type": "LineString", "coordinates": [ [ -121.934604502512755, 37.480579104693447 ], [ -121.9348406, 37.4810201 ], [ -121.9349823, 37.4812799 ], [ -121.935127, 37.4815302 ], [ -121.935289, 37.4817827 ], [ -121.935467, 37.4820517 ], [ -121.9356347, 37.4823192 ], [ -121.9358381, 37.4825787 ], [ -121.9360245, 37.4828182 ], [ -121.9362101, 37.4830423 ], [ -121.9364166, 37.4832813 ], [ -121.9366255, 37.4834956 ], [ -121.936832, 37.4837155 ], [ -121.9370805, 37.483949 ], [ -121.9373283, 37.4841716 ], [ -121.9375845, 37.4843912 ], [ -121.9378431, 37.4846005 ], [ -121.9380385, 37.4847488 ], [ -121.9388738985228, 37.485406298837368 ] ] } },
{ "type": "Feature", "properties": { "pm_start": 12.898275, "pm_end": 13.034014, "length": 0.135739, "lanes": 3, "on_ramp": true, "off_ramp": false, "on_ramp_name": null, "off_ramp_name": null, "caltrans_pm_start": 2.499999798, "caltrans_pm_end": 2.699999823, "length_warning": "too_short", "fd_vds_id": null, "vds_id": 408755, "vds_pm": 12.65900868, "vds_lanes": 4, "vds_source": "nearest_upstream", "vds_distance_mi": -0.307135825, "vds_n_candidates": 0, "on_ramp_vds_id": "425000", "off_ramp_vds_id": null, "Notes": null }, "geometry": { "type": "LineString", "coordinates": [ [ -121.9388738985228, 37.485406298837368 ], [ -121.9388739, 37.4854063 ], [ -121.940651697983085, 37.486773598448792 ] ] } },
{ "type": "Feature", "properties": { "pm_start": 13.034014, "pm_end": 13.384404, "length": 0.35039, "lanes": 4, "on_ramp": true, "off_ramp": true, "on_ramp_name": null, "off_ramp_name": null, "caltrans_pm_start": 2.699999823, "caltrans_pm_end": 3.000000574, "length_warning": "ok", "fd_vds_id": null, "vds_id": 431705, "vds_pm": 13.05809959, "vds_lanes": 4, "vds_source": "direct", "vds_distance_mi": 0.0, "vds_n_candidates": 1, "on_ramp_vds_id": null, "off_ramp_vds_id": null, "Notes": null }, "geometry": { "type": "LineString", "coordinates": [ [ -121.940651697983085, 37.486773598448792 ], [ -121.9406517, 37.4867736 ], [ -121.9418066, 37.4876648 ], [ -121.9435661, 37.4890166 ], [ -121.9452337, 37.490309 ], [ -121.945233706429931, 37.490309004887358 ] ] } },
{ "type": "Feature", "properties": { "pm_start": 13.384404, "pm_end": 13.724622, "length": 0.340218, "lanes": 3, "on_ramp": false, "off_ramp": false, "on_ramp_name": null, "off_ramp_name": null, "caltrans_pm_start": 3.000000574, "caltrans_pm_end": 3.399999733, "length_warning": "ok", "fd_vds_id": null, "vds_id": 400189, "vds_pm": 13.66477312, "vds_lanes": 4, "vds_source": "direct", "vds_distance_mi": 0.0, "vds_n_candidates": 1, "on_ramp_vds_id": null, "off_ramp_vds_id": null, "Notes": null }, "geometry": { "type": "LineString", "coordinates": [ [ -121.945233706429931, 37.490309004887358 ], [ -121.9472841, 37.4918675 ], [ -121.949695895915141, 37.493731096843632 ] ] } },
{ "type": "Feature", "properties": { "pm_start": 13.724622, "pm_end": 13.880324, "length": 0.155702, "lanes": 3, "on_ramp": true, "off_ramp": false, "on_ramp_name": null, "off_ramp_name": null, "caltrans_pm_start": 3.399999733, "caltrans_pm_end": 3.500000488, "length_warning": "too_short", "fd_vds_id": null, "vds_id": 400309, "vds_pm": 13.85187751, "vds_lanes": 4, "vds_source": "direct", "vds_distance_mi": 0.0, "vds_n_candidates": 1, "on_ramp_vds_id": "402949", "off_ramp_vds_id": null, "Notes": null }, "geometry": { "type": "LineString", "coordinates": [ [ -121.949695895915141, 37.493731096843632 ], [ -121.9496959, 37.4937311 ], [ -121.9517307, 37.4953033 ], [ -121.951730706190062, 37.495303304659082 ] ] } },
{ "type": "Feature", "properties": { "pm_start": 13.880324, "pm_end": 14.758835, "length": 0.878511, "lanes": 4, "on_ramp": true, "off_ramp": true, "on_ramp_name": null, "off_ramp_name": null, "caltrans_pm_start": 3.500000488, "caltrans_pm_end": 4.399999839, "length_warning": "ok", "fd_vds_id": null, "vds_id": 400417, "vds_pm": 14.4042856, "vds_lanes": 4, "vds_source": "direct", "vds_distance_mi": 0.0, "vds_n_candidates": 1, "on_ramp_vds_id": "402949", "off_ramp_vds_id": null, "Notes": null }, "geometry": { "type": "LineString", "coordinates": [ [ -121.951730706190062, 37.495303304659082 ], [ -121.9540721, 37.4970656 ], [ -121.9542676, 37.4972153 ], [ -121.9573482, 37.499601 ], [ -121.9590389, 37.5009146 ], [ -121.9590828, 37.5009491 ], [ -121.963248196337872, 37.504144597190589 ] ] } },
{ "type": "Feature", "properties": { "pm_start": 14.758835, "pm_end": 15.14776, "length": 0.388925, "lanes": 3, "on_ramp": false, "off_ramp": false, "on_ramp_name": null, "off_ramp_name": null, "caltrans_pm_start": 4.399999839, "caltrans_pm_end": 4.799999824, "length_warning": "ok", "fd_vds_id": null, "vds_id": 400249, "vds_pm": 15.02576428, "vds_lanes": 4, "vds_source": "direct", "vds_distance_mi": 0.0, "vds_n_candidates": 1, "on_ramp_vds_id": null, "off_ramp_vds_id": null, "Notes": null }, "geometry": { "type": "LineString", "coordinates": [ [ -121.963248196337872, 37.504144597190589 ], [ -121.9632482, 37.5041446 ], [ -121.9664321, 37.5067042 ], [ -121.968232895432322, 37.508150696330993 ] ] } },
{ "type": "Feature", "properties": { "pm_start": 15.14776, "pm_end": 15.342213, "length": 0.194453, "lanes": 3, "on_ramp": true, "off_ramp": false, "on_ramp_name": null, "off_ramp_name": null, "caltrans_pm_start": 4.799999824, "caltrans_pm_end": 4.9999996040000001, "length_warning": "too_short", "fd_vds_id": null, "vds_id": 401639, "vds_pm": 15.16539949, "vds_lanes": 4, "vds_source": "direct", "vds_distance_mi": 0.0, "vds_n_candidates": 1, "on_ramp_vds_id": "402943", "off_ramp_vds_id": null, "Notes": null }, "geometry": { "type": "LineString", "coordinates": [ [ -121.968232895432322, 37.508150696330993 ], [ -121.9682329, 37.5081507 ], [ -121.970706895100079, 37.510167896004809 ] ] } },
{ "type": "Feature", "properties": { "pm_start": 15.342213, "pm_end": 16.324028, "length": 0.981815, "lanes": 3, "on_ramp": true, "off_ramp": true, "on_ramp_name": null, "off_ramp_name": null, "caltrans_pm_start": 4.9999996040000001, "caltrans_pm_end": 5.95302441, "length_warning": "ok", "fd_vds_id": null, "vds_id": 401639, "vds_pm": 15.16539949, "vds_lanes": 4, "vds_source": "nearest_upstream", "vds_distance_mi": -0.667721013, "vds_n_candidates": 0, "on_ramp_vds_id": null, "off_ramp_vds_id": "402956", "Notes": null }, "geometry": { "type": "LineString", "coordinates": [ [ -121.970706895100079, 37.510167896004809 ], [ -121.9707069, 37.5101679 ], [ -121.9718941, 37.5111297 ], [ -121.9721369, 37.5113188 ], [ -121.9751079, 37.5137085 ], [ -121.9822259, 37.5194484 ], [ -121.9827663, 37.5198645 ], [ -121.9833101, 37.5202658 ], [ -121.983310104817193, 37.520265803094716 ] ] } },
{ "type": "Feature", "properties": { "pm_start": 16.324028, "pm_end": 16.672628, "length": 0.3486, "lanes": 3, "on_ramp": false, "off_ramp": false, "on_ramp_name": null, "off_ramp_name": null, "caltrans_pm_start": 5.95302441, "caltrans_pm_end": 6.300000786, "length_warning": "ok", "fd_vds_id": null, "vds_id": 400662, "vds_pm": 16.54664407, "vds_lanes": 4, "vds_source": "direct", "vds_distance_mi": 0.0, "vds_n_candidates": 1, "on_ramp_vds_id": null, "off_ramp_vds_id": null, "Notes": null }, "geometry": { "type": "LineString", "coordinates": [ [ -121.983310104817193, 37.520265803094716 ], [ -121.9837805, 37.520568 ], [ -121.983981, 37.5206889 ], [ -121.9843579, 37.5209052 ], [ -121.9849686, 37.5212486 ], [ -121.9855747, 37.5215608 ], [ -121.9886083, 37.5230499 ], [ -121.988608307423505, 37.523049903737082 ] ] } },
{ "type": "Feature", "properties": { "pm_start": 16.672628, "pm_end": 16.834332, "length": 0.161704, "lanes": 3, "on_ramp": true, "off_ramp": false, "on_ramp_name": null, "off_ramp_name": null, "caltrans_pm_start": 6.300000786, "caltrans_pm_end": 6.500000264, "length_warning": "too_short", "fd_vds_id": null, "vds_id": 400141, "vds_pm": 16.73664891, "vds_lanes": 4, "vds_source": "direct", "vds_distance_mi": 0.0, "vds_n_candidates": 1, "on_ramp_vds_id": "402960", "off_ramp_vds_id": null, "Notes": null }, "geometry": { "type": "LineString", "coordinates": [ [ -121.988608307423505, 37.523049903737082 ], [ -121.9910997, 37.5243041 ], [ -121.99109970494537, 37.524304102415087 ] ] } },
{ "type": "Feature", "properties": { "pm_start": 16.834332, "pm_end": 17.317284, "length": 0.482952, "lanes": 5, "on_ramp": true, "off_ramp": true, "on_ramp_name": null, "off_ramp_name": null, "caltrans_pm_start": 6.500000264, "caltrans_pm_end": 6.899999996, "length_warning": "ok", "fd_vds_id": null, "vds_id": 400141, "vds_pm": 16.73664891, "vds_lanes": 4, "vds_source": "nearest_upstream", "vds_distance_mi": -0.339159086, "vds_n_candidates": 0, "on_ramp_vds_id": "402960", "off_ramp_vds_id": null, "Notes": null }, "geometry": { "type": "LineString", "coordinates": [ [ -121.99109970494537, 37.524304102415087 ], [ -121.9966334, 37.5270065 ], [ -121.9975559, 37.5274581 ], [ -121.998603198043213, 37.527970899041875 ] ] } },
{ "type": "Feature", "properties": { "pm_start": 17.317284, "pm_end": 17.639585, "length": 0.322301, "lanes": 4, "on_ramp": false, "off_ramp": false, "on_ramp_name": null, "off_ramp_name": null, "caltrans_pm_start": 6.899999996, "caltrans_pm_end": 7.300000122, "length_warning": "ok", "fd_vds_id": null, "vds_id": 400761, "vds_pm": 17.49364965, "vds_lanes": 4, "vds_source": "direct", "vds_distance_mi": 0.0, "vds_n_candidates": 1, "on_ramp_vds_id": null, "off_ramp_vds_id": null, "Notes": null }, "geometry": { "type": "LineString", "coordinates": [ [ -121.998603198043213, 37.527970899041875 ], [ -121.9986032, 37.5279709 ], [ -121.9989273, 37.5281417 ], [ -121.9997092, 37.5285546 ], [ -122.0004717, 37.5289699 ], [ -122.003473399171085, 37.530586599553544 ] ] } },
{ "type": "Feature", "properties": { "pm_start": 17.639585, "pm_end": 17.815956, "length": 0.176371, "lanes": 4, "on_ramp": true, "off_ramp": false, "on_ramp_name": null, "off_ramp_name": null, "caltrans_pm_start": 7.300000122, "caltrans_pm_end": 7.400000385, "length_warning": "too_short", "fd_vds_id": null, "vds_id": 400490, "vds_pm": 17.72348384, "vds_lanes": 4, "vds_source": "direct", "vds_distance_mi": 0.0, "vds_n_candidates": 1, "on_ramp_vds_id": "402965", "off_ramp_vds_id": null, "Notes": null }, "geometry": { "type": "LineString", "coordinates": [ [ -122.003473399171085, 37.530586599553544 ], [ -122.0034734, 37.5305866 ], [ -122.0051031, 37.5314718 ], [ -122.0061082, 37.5320525 ], [ -122.006108203961105, 37.532052502128053 ] ] } },
{ "type": "Feature", "properties": { "pm_start": 17.815956, "pm_end": 18.968856, "length": 1.1529, "lanes": 5, "on_ramp": true, "off_ramp": true, "on_ramp_name": null, "off_ramp_name": null, "caltrans_pm_start": 7.400000385, "caltrans_pm_end": 8.60000065, "length_warning": "too_long", "fd_vds_id": null, "vds_id": 401888, "vds_pm": 18.80098639, "vds_lanes": 5, "vds_source": "direct", "vds_distance_mi": 0.0, "vds_n_candidates": 1, "on_ramp_vds_id": "402965", "off_ramp_vds_id": "402967", "Notes": null }, "geometry": { "type": "LineString", "coordinates": [ [ -122.006108203961105, 37.532052502128053 ], [ -122.0128179, 37.5356572 ], [ -122.0134006, 37.5359813 ], [ -122.0139531, 37.536311 ], [ -122.0144815, 37.5366662 ], [ -122.0150314, 37.5370809 ], [ -122.0155222, 37.5374893 ], [ -122.0159836, 37.5379062 ], [ -122.01641, 37.5383443 ], [ -122.0168124, 37.5388122 ], [ -122.0171423, 37.5392269 ], [ -122.0174582, 37.5396417 ], [ -122.020506, 37.5437682 ], [ -122.020506002805519, 37.543768203587625 ] ] } },
{ "type": "Feature", "properties": { "pm_start": 18.968856, "pm_end": 19.29353, "length": 0.324674, "lanes": 4, "on_ramp": false, "off_ramp": false, "on_ramp_name": null, "off_ramp_name": null, "caltrans_pm_start": 8.60000065, "caltrans_pm_end": 8.899999852000001, "length_warning": "ok", "fd_vds_id": null, "vds_id": 400137, "vds_pm": 19.19073029, "vds_lanes": 4, "vds_source": "direct", "vds_distance_mi": 0.0, "vds_n_candidates": 1, "on_ramp_vds_id": null, "off_ramp_vds_id": null, "Notes": null }, "geometry": { "type": "LineString", "coordinates": [ [ -122.020506002805519, 37.543768203587625 ], [ -122.0215592, 37.545115 ], [ -122.0235655, 37.5477925 ], [ -122.023565502326335, 37.547792503098684 ] ] } },
{ "type": "Feature", "properties": { "pm_start": 19.29353, "pm_end": 19.508119, "length": 0.214589, "lanes": 4, "on_ramp": true, "off_ramp": false, "on_ramp_name": null, "off_ramp_name": null, "caltrans_pm_start": 8.899999852000001, "caltrans_pm_end": 9.10000058, "length_warning": "ok", "fd_vds_id": null, "vds_id": 400716, "vds_pm": 19.39028443, "vds_lanes": 4, "vds_source": "direct", "vds_distance_mi": 0.0, "vds_n_candidates": 1, "on_ramp_vds_id": "402964", "off_ramp_vds_id": null, "Notes": null }, "geometry": { "type": "LineString", "coordinates": [ [ -122.023565502326335, 37.547792503098684 ], [ -122.0255691, 37.5504613 ], [ -122.025569101811399, 37.550461302430087 ] ] } },
{ "type": "Feature", "properties": { "pm_start": 19.508119, "pm_end": 20.364195, "length": 0.856076, "lanes": 5, "on_ramp": true, "off_ramp": true, "on_ramp_name": null, "off_ramp_name": "CA 84", "caltrans_pm_start": 9.10000058, "caltrans_pm_end": 9.9999997900000004, "length_warning": "ok", "fd_vds_id": null, "vds_id": 401545, "vds_pm": 20.25557172, "vds_lanes": 5, "vds_source": "direct", "vds_distance_mi": 0.0, "vds_n_candidates": 1, "on_ramp_vds_id": null, "off_ramp_vds_id": null, "Notes": null }, "geometry": { "type": "LineString", "coordinates": [ [ -122.025569101811399, 37.550461302430087 ], [ -122.0272857, 37.5527642 ], [ -122.0275153, 37.5530639 ], [ -122.0277674, 37.5533829 ], [ -122.0280115, 37.5536848 ], [ -122.0282851, 37.5540123 ], [ -122.0285372, 37.5542972 ], [ -122.0288188, 37.5545971 ], [ -122.0290924, 37.5548777 ], [ -122.029378, 37.555161 ], [ -122.034906997679684, 37.560356597819592 ] ] } },
{ "type": "Feature", "properties": { "pm_start": 20.364195, "pm_end": 20.711067, "length": 0.346872, "lanes": 4, "on_ramp": false, "off_ramp": false, "on_ramp_name": null, "off_ramp_name": null, "caltrans_pm_start": 9.9999997900000004, "caltrans_pm_end": 10.40000008, "length_warning": "ok", "fd_vds_id": null, "vds_id": 401011, "vds_pm": 20.63623381, "vds_lanes": 4, "vds_source": "direct", "vds_distance_mi": 0.0, "vds_n_candidates": 1, "on_ramp_vds_id": null, "off_ramp_vds_id": null, "Notes": null }, "geometry": { "type": "LineString", "coordinates": [ [ -122.034906997679684, 37.560356597819592 ], [ -122.034907, 37.5603566 ], [ -122.0378511, 37.5630834 ], [ -122.0390232, 37.564172 ], [ -122.039023205612494, 37.564172005290949 ] ] } },
{ "type": "Feature", "properties": { "pm_start": 20.711067, "pm_end": 20.92066, "length": 0.209593, "lanes": 4, "on_ramp": true, "off_ramp": false, "on_ramp_name": null, "off_ramp_name": null, "caltrans_pm_start": 10.40000008, "caltrans_pm_end": 10.60000043, "length_warning": "ok", "fd_vds_id": null, "vds_id": 400674, "vds_pm": 20.84793866, "vds_lanes": 4, "vds_source": "direct", "vds_distance_mi": 0.0, "vds_n_candidates": 1, "on_ramp_vds_id": "402973", "off_ramp_vds_id": null, "Notes": null }, "geometry": { "type": "LineString", "coordinates": [ [ -122.039023205612494, 37.564172005290949 ], [ -122.0414861, 37.5664938 ], [ -122.041486100685347, 37.566493800623974 ] ] } },
{ "type": "Feature", "properties": { "pm_start": 20.92066, "pm_end": 23.134879, "length": 2.214219, "lanes": 4, "on_ramp": true, "off_ramp": true, "on_ramp_name": null, "off_ramp_name": null, "caltrans_pm_start": 10.60000043, "caltrans_pm_end": 12.80000049, "length_warning": "too_long", "fd_vds_id": null, "vds_id": 400534, "vds_pm": 22.02292067, "vds_lanes": 4, "vds_source": "direct_tiebreak", "vds_distance_mi": 0.0, "vds_n_candidates": 5, "on_ramp_vds_id": "402976", "off_ramp_vds_id": null, "Notes": null }, "geometry": { "type": "LineString", "coordinates": [ [ -122.041486100685347, 37.566493800623974 ], [ -122.0426428, 37.5675469 ], [ -122.0429646, 37.5678621 ], [ -122.0433447, 37.5682693 ], [ -122.0437385, 37.5686941 ], [ -122.044055, 37.5690768 ], [ -122.0443903, 37.5695084 ], [ -122.0446934, 37.5699357 ], [ -122.0449697, 37.5703587 ], [ -122.0452164, 37.5707839 ], [ -122.0454525, 37.571224 ], [ -122.0456778, 37.5716768 ], [ -122.0458763, 37.5721339 ], [ -122.0460694, 37.5726249 ], [ -122.0462062, 37.573014 ], [ -122.0470139, 37.5754603 ], [ -122.0475536, 37.576953 ], [ -122.0480096, 37.5782752 ], [ -122.0487945, 37.5806156 ], [ -122.0489635, 37.5810663 ], [ -122.0491432, 37.5815212 ], [ -122.0492352, 37.5817555 ], [ -122.0498164, 37.5829836 ], [ -122.0500337, 37.5833874 ], [ -122.050267, 37.5838019 ], [ -122.0505274, 37.5842364 ], [ -122.0507929, 37.5846552 ], [ -122.0510719, 37.5850675 ], [ -122.0563826, 37.5925192 ], [ -122.0583625, 37.595308 ], [ -122.058362503047405, 37.595308003697298 ] ] } },
{ "type": "Feature", "properties": { "pm_start": 23.134879, "pm_end": 23.545269, "length": 0.41039, "lanes": 4, "on_ramp": false, "off_ramp": false, "on_ramp_name": null, "off_ramp_name": null, "caltrans_pm_start": 12.80000049, "caltrans_pm_end": 13.19999945, "length_warning": "ok", "fd_vds_id": null, "vds_id": 400536, "vds_pm": 23.52801994, "vds_lanes": 5, "vds_source": "direct", "vds_distance_mi": 0.0, "vds_n_candidates": 1, "on_ramp_vds_id": null, "off_ramp_vds_id": null, "Notes": null }, "geometry": { "type": "LineString", "coordinates": [ [ -122.058362503047405, 37.595308003697298 ], [ -122.0584877, 37.5954599 ], [ -122.0588537, 37.5959792 ], [ -122.0602906, 37.597998 ], [ -122.062022196729075, 37.600491195290438 ] ] } },
{ "type": "Feature", "properties": { "pm_start": 23.545269, "pm_end": 23.808398, "length": 0.263129, "lanes": 5, "on_ramp": true, "off_ramp": true, "on_ramp_name": null, "off_ramp_name": null, "caltrans_pm_start": 13.19999945, "caltrans_pm_end": 13.39999931, "length_warning": "ok", "fd_vds_id": null, "vds_id": 400536, "vds_pm": 23.52801994, "vds_lanes": 5, "vds_source": "nearest_upstream", "vds_distance_mi": -0.148813561, "vds_n_candidates": 0, "on_ramp_vds_id": "402985", "off_ramp_vds_id": "402986", "Notes": null }, "geometry": { "type": "LineString", "coordinates": [ [ -122.062022196729075, 37.600491195290438 ], [ -122.0620222, 37.6004912 ], [ -122.0633671, 37.6023098 ], [ -122.064387496485281, 37.603805894846772 ] ] } },
{ "type": "Feature", "properties": { "pm_start": 23.808398, "pm_end": 24.253221, "length": 0.444823, "lanes": 5, "on_ramp": false, "off_ramp": false, "on_ramp_name": null, "off_ramp_name": null, "caltrans_pm_start": 13.39999931, "caltrans_pm_end": 13.89999953, "length_warning": "ok", "fd_vds_id": null, "vds_id": 400488, "vds_pm": 24.14566975, "vds_lanes": 5, "vds_source": "direct", "vds_distance_mi": 0.0, "vds_n_candidates": 1, "on_ramp_vds_id": null, "off_ramp_vds_id": null, "Notes": null }, "geometry": { "type": "LineString", "coordinates": [ [ -122.064387496485281, 37.603805894846772 ], [ -122.0643875, 37.6038059 ], [ -122.0664523, 37.6066417 ], [ -122.0667017, 37.6069902 ], [ -122.0674205, 37.6079973 ], [ -122.0678255, 37.6085647 ], [ -122.0682297, 37.6091562 ], [ -122.06839499928634, 37.609406198920681 ] ] } },
{ "type": "Feature", "properties": { "pm_start": 24.253221, "pm_end": 24.382132, "length": 0.128911, "lanes": 4, "on_ramp": false, "off_ramp": false, "on_ramp_name": null, "off_ramp_name": null, "caltrans_pm_start": 13.89999953, "caltrans_pm_end": 13.99999964, "length_warning": "too_short", "fd_vds_id": null, "vds_id": 400488, "vds_pm": 24.14566975, "vds_lanes": 5, "vds_source": "nearest_upstream", "vds_distance_mi": -0.172006747, "vds_n_candidates": 0, "on_ramp_vds_id": null, "off_ramp_vds_id": null, "Notes": null }, "geometry": { "type": "LineString", "coordinates": [ [ -122.06839499928634, 37.609406198920681 ], [ -122.068395, 37.6094062 ], [ -122.069549095857937, 37.61103259416285 ] ] } },
{ "type": "Feature", "properties": { "pm_start": 24.382132, "pm_end": 25.10998, "length": 0.727848, "lanes": 3, "on_ramp": true, "off_ramp": false, "on_ramp_name": null, "off_ramp_name": null, "caltrans_pm_start": 13.99999964, "caltrans_pm_end": 14.70000024, "length_warning": "ok", "fd_vds_id": null, "vds_id": 401561, "vds_pm": 24.61662129, "vds_lanes": 5, "vds_source": "direct_tiebreak", "vds_distance_mi": 0.0, "vds_n_candidates": 2, "on_ramp_vds_id": null, "off_ramp_vds_id": null, "Notes": null }, "geometry": { "type": "LineString", "coordinates": [ [ -122.069549095857937, 37.61103259416285 ], [ -122.0695491, 37.6110326 ], [ -122.070386, 37.6121959 ], [ -122.0714133, 37.6136333 ], [ -122.0716506, 37.6139796 ], [ -122.0720825, 37.6145735 ], [ -122.0723492, 37.6149477 ], [ -122.0732919, 37.616251 ], [ -122.074354, 37.6177211 ], [ -122.0751776, 37.6188727 ], [ -122.0760932, 37.6202028 ], [ -122.076093203542968, 37.620202804956449 ] ] } },
{ "type": "Feature", "properties": { "pm_start": 25.10998, "pm_end": 25.653334, "length": 0.543354, "lanes": 4, "on_ramp": true, "off_ramp": false, "on_ramp_name": null, "off_ramp_name": null, "caltrans_pm_start": 14.70000024, "caltrans_pm_end": 15.30000069, "length_warning": "ok", "fd_vds_id": null, "vds_id": 400928, "vds_pm": 25.31852019, "vds_lanes": 5, "vds_source": "direct", "vds_distance_mi": 0.0, "vds_n_candidates": 1, "on_ramp_vds_id": "402990", "off_ramp_vds_id": null, "Notes": null }, "geometry": { "type": "LineString", "coordinates": [ [ -122.076093203542968, 37.620202804956449 ], [ -122.0772214, 37.6217811 ], [ -122.08098, 37.6270484 ], [ -122.080980003513815, 37.627048404684913 ] ] } },
{ "type": "Feature", "properties": { "pm_start": 25.653334, "pm_end": 25.728113, "length": 0.074779, "lanes": 5, "on_ramp": false, "off_ramp": true, "on_ramp_name": null, "off_ramp_name": null, "caltrans_pm_start": 15.30000069, "caltrans_pm_end": 15.400000070000001, "length_warning": "too_short", "fd_vds_id": null, "vds_id": 400928, "vds_pm": 25.31852019, "vds_lanes": 5, "vds_source": "nearest_upstream", "vds_distance_mi": -0.372203313, "vds_n_candidates": 0, "on_ramp_vds_id": null, "off_ramp_vds_id": null, "Notes": null }, "geometry": { "type": "LineString", "coordinates": [ [ -122.080980003513815, 37.627048404684913 ], [ -122.0816779, 37.6279789 ], [ -122.081677904062019, 37.627978905674404 ] ] } },
{ "type": "Feature", "properties": { "pm_start": 25.728113, "pm_end": 26.226392, "length": 0.498279, "lanes": 3, "on_ramp": false, "off_ramp": false, "on_ramp_name": null, "off_ramp_name": null, "caltrans_pm_start": 15.400000070000001, "caltrans_pm_end": 15.89999993, "length_warning": "ok", "fd_vds_id": null, "vds_id": 400284, "vds_pm": 25.90973164, "vds_lanes": 4, "vds_source": "direct_tiebreak", "vds_distance_mi": 0.0, "vds_n_candidates": 2, "on_ramp_vds_id": null, "off_ramp_vds_id": null, "Notes": null }, "geometry": { "type": "LineString", "coordinates": [ [ -122.081677904062019, 37.627978905674404 ], [ -122.0842901, 37.631628 ], [ -122.0843539, 37.6317171 ], [ -122.0844258, 37.6318175 ], [ -122.0861328, 37.6342685 ], [ -122.086132802838776, 37.634268503969324 ] ] } },
{ "type": "Feature", "properties": { "pm_start": 26.226392, "pm_end": 26.734478, "length": 0.508086, "lanes": 4, "on_ramp": true, "off_ramp": true, "on_ramp_name": null, "off_ramp_name": null, "caltrans_pm_start": 15.89999993, "caltrans_pm_end": 16.39999956, "length_warning": "ok", "fd_vds_id": null, "vds_id": 408133, "vds_pm": 26.45913228, "vds_lanes": 5, "vds_source": "direct_tiebreak", "vds_distance_mi": 0.0, "vds_n_candidates": 2, "on_ramp_vds_id": "402996", "off_ramp_vds_id": null, "Notes": null }, "geometry": { "type": "LineString", "coordinates": [ [ -122.086132802838776, 37.634268503969324 ], [ -122.090708999408747, 37.640667199173272 ] ] } },
{ "type": "Feature", "properties": { "pm_start": 26.734478, "pm_end": 27.262933, "length": 0.528455, "lanes": 3, "on_ramp": false, "off_ramp": false, "on_ramp_name": null, "off_ramp_name": null, "caltrans_pm_start": 16.39999956, "caltrans_pm_end": 16.89999962, "length_warning": "ok", "fd_vds_id": null, "vds_id": 417665, "vds_pm": 26.92878708, "vds_lanes": 4, "vds_source": "direct_tiebreak", "vds_distance_mi": 0.0, "vds_n_candidates": 3, "on_ramp_vds_id": null, "off_ramp_vds_id": null, "Notes": null }, "geometry": { "type": "LineString", "coordinates": [ [ -122.090708999408747, 37.640667199173272 ], [ -122.090709, 37.6406672 ], [ -122.092121, 37.6425969 ], [ -122.0935265, 37.6445742 ], [ -122.0940951, 37.6453716 ], [ -122.0950017, 37.6466236 ], [ -122.0954686, 37.6473221 ], [ -122.095468600012921, 37.647322100018009 ] ] } },
{ "type": "Feature", "properties": { "pm_start": 27.262933, "pm_end": 27.317294, "length": 0.054361, "lanes": 5, "on_ramp": true, "off_ramp": false, "on_ramp_name": null, "off_ramp_name": null, "caltrans_pm_start": 16.89999962, "caltrans_pm_end": 16.95436062, "length_warning": "too_short", "fd_vds_id": null, "vds_id": 417665, "vds_pm": 26.92878708, "vds_lanes": 4, "vds_source": "nearest_upstream", "vds_distance_mi": -0.361326418, "vds_n_candidates": 0, "on_ramp_vds_id": "417667", "off_ramp_vds_id": null, "Notes": null }, "geometry": { "type": "LineString", "coordinates": [ [ -122.095468600012921, 37.647322100018009 ], [ -122.0959594, 37.6480062 ], [ -122.095959403092124, 37.648006204118765 ] ] } },
{ "type": "Feature", "properties": { "pm_start": 27.317294, "pm_end": 27.669437, "length": 0.352143, "lanes": 5, "on_ramp": true, "off_ramp": false, "on_ramp_name": null, "off_ramp_name": null, "caltrans_pm_start": 16.95436062, "caltrans_pm_end": 17.2999989, "length_warning": "ok", "fd_vds_id": null, "vds_id": 408134, "vds_pm": 27.63748151, "vds_lanes": 6, "vds_source": "direct", "vds_distance_mi": 0.0, "vds_n_candidates": 1, "on_ramp_vds_id": null, "off_ramp_vds_id": null, "Notes": null }, "geometry": { "type": "LineString", "coordinates": [ [ -122.095959403092124, 37.648006204118765 ], [ -122.0962124, 37.6483432 ], [ -122.0964961, 37.6487284 ], [ -122.0966685, 37.6489654 ], [ -122.0968246, 37.6491893 ], [ -122.0971599, 37.6496883 ], [ -122.0975045, 37.6502486 ], [ -122.098924897192518, 37.652527195496255 ] ] } },
{ "type": "Feature", "properties": { "pm_start": 27.669437, "pm_end": 27.679722, "length": 0.010285, "lanes": 6, "on_ramp": false, "off_ramp": true, "on_ramp_name": null, "off_ramp_name": null, "caltrans_pm_start": 17.2999989, "caltrans_pm_end": 17.31028389, "length_warning": "too_short", "fd_vds_id": null, "vds_id": 408134, "vds_pm": 27.63748151, "vds_lanes": 6, "vds_source": "nearest_upstream", "vds_distance_mi": -0.037097987, "vds_n_candidates": 0, "on_ramp_vds_id": null, "off_ramp_vds_id": null, "Notes": null }, "geometry": { "type": "LineString", "coordinates": [ [ -122.098924897192518, 37.652527195496255 ], [ -122.0989249, 37.6525272 ], [ -122.099007296741291, 37.652660994708569 ] ] } },
{ "type": "Feature", "properties": { "pm_start": 27.679722, "pm_end": 28.261569, "length": 0.581847, "lanes": 5, "on_ramp": false, "off_ramp": false, "on_ramp_name": null, "off_ramp_name": null, "caltrans_pm_start": 17.31028389, "caltrans_pm_end": 17.89999936, "length_warning": "ok", "fd_vds_id": null, "vds_id": 400685, "vds_pm": 27.84771514, "vds_lanes": 5, "vds_source": "direct_tiebreak", "vds_distance_mi": 0.0, "vds_n_candidates": 2, "on_ramp_vds_id": null, "off_ramp_vds_id": null, "Notes": null }, "geometry": { "type": "LineString", "coordinates": [ [ -122.099007296741291, 37.652660994708569 ], [ -122.0990073, 37.652661 ], [ -122.0995873, 37.6535639 ], [ -122.101261, 37.6562799 ], [ -122.103673097940273, 37.660228596628151 ] ] } },
{ "type": "Feature", "properties": { "pm_start": 28.261569, "pm_end": 28.529337, "length": 0.267768, "lanes": 5, "on_ramp": true, "off_ramp": true, "on_ramp_name": null, "off_ramp_name": null, "caltrans_pm_start": 17.89999936, "caltrans_pm_end": 18.20000025, "length_warning": "ok", "fd_vds_id": null, "vds_id": 400898, "vds_pm": 28.39579513, "vds_lanes": 5, "vds_source": "direct", "vds_distance_mi": 0.0, "vds_n_candidates": 1, "on_ramp_vds_id": "403002", "off_ramp_vds_id": "403005", "Notes": null }, "geometry": { "type": "LineString", "coordinates": [ [ -122.103673097940273, 37.660228596628151 ], [ -122.1036731, 37.6602286 ], [ -122.105835996346158, 37.663705294126721 ] ] } },
{ "type": "Feature", "properties": { "pm_start": 28.529337, "pm_end": 28.990659, "length": 0.461322, "lanes": 5, "on_ramp": false, "off_ramp": false, "on_ramp_name": null, "off_ramp_name": null, "caltrans_pm_start": 18.20000025, "caltrans_pm_end": 18.60000016, "length_warning": "ok", "fd_vds_id": null, "vds_id": 400275, "vds_pm": 28.84463699, "vds_lanes": 5, "vds_source": "direct", "vds_distance_mi": 0.0, "vds_n_candidates": 1, "on_ramp_vds_id": null, "off_ramp_vds_id": null, "Notes": null }, "geometry": { "type": "LineString", "coordinates": [ [ -122.105835996346158, 37.663705294126721 ], [ -122.105836, 37.6637053 ], [ -122.1073281, 37.6661152 ], [ -122.1075702, 37.6664728 ], [ -122.109565697964456, 37.669693596714552 ] ] } },
{ "type": "Feature", "properties": { "pm_start": 28.990659, "pm_end": 30.385215, "length": 1.394556, "lanes": 5, "on_ramp": true, "off_ramp": true, "on_ramp_name": null, "off_ramp_name": null, "caltrans_pm_start": 18.60000016, "caltrans_pm_end": 19.999999509999999, "length_warning": "too_long", "fd_vds_id": null, "vds_id": 400529, "vds_pm": 29.73048313, "vds_lanes": 5, "vds_source": "direct_tiebreak", "vds_distance_mi": 0.0, "vds_n_candidates": 5, "on_ramp_vds_id": null, "off_ramp_vds_id": "405735", "Notes": null }, "geometry": { "type": "LineString", "coordinates": [ [ -122.109565697964456, 37.669693596714552 ], [ -122.1095657, 37.6696936 ], [ -122.1099508, 37.6702972 ], [ -122.1102122, 37.6706999 ], [ -122.1104497, 37.6710402 ], [ -122.1107393, 37.6714096 ], [ -122.111038, 37.6717535 ], [ -122.1113214, 37.6720635 ], [ -122.111654, 37.6724011 ], [ -122.1119705, 37.6726962 ], [ -122.1123165, 37.6729977 ], [ -122.1126544, 37.6732715 ], [ -122.113046, 37.6735666 ], [ -122.1134055, 37.6738235 ], [ -122.1139955, 37.6742269 ], [ -122.1144032, 37.6745113 ], [ -122.1147385, 37.6747619 ], [ -122.1150492, 37.6749984 ], [ -122.1151482, 37.6750964 ], [ -122.1163713, 37.6760411 ], [ -122.1168085, 37.6763659 ], [ -122.1171921, 37.6766398 ], [ -122.1176159, 37.6769306 ], [ -122.1180665, 37.6772214 ], [ -122.1191662, 37.6779029 ], [ -122.1196061, 37.6781767 ], [ -122.1200325, 37.6784463 ], [ -122.120459, 37.6787265 ], [ -122.1236709, 37.6809472 ], [ -122.1240022, 37.6811762 ], [ -122.127651293440238, 37.683726695415132 ] ] } },
{ "type": "Feature", "properties": { "pm_start": 30.385215, "pm_end": 30.518357, "length": 0.133142, "lanes": 6, "on_ramp": false, "off_ramp": true, "on_ramp_name": null, "off_ramp_name": null, "caltrans_pm_start": 19.999999509999999, "caltrans_pm_end": 20.10000037, "length_warning": "too_short", "fd_vds_id": null, "vds_id": 400529, "vds_pm": 29.73048313, "vds_lanes": 5, "vds_source": "nearest_upstream", "vds_distance_mi": -0.721302867, "vds_n_candidates": 0, "on_ramp_vds_id": null, "off_ramp_vds_id": "405735", "Notes": null }, "geometry": { "type": "LineString", "coordinates": [ [ -122.127651293440238, 37.683726695415132 ], [ -122.1276513, 37.6837267 ], [ -122.1288758, 37.684528 ], [ -122.1289442, 37.6845732 ], [ -122.1291994, 37.6847523 ], [ -122.129514099733527, 37.684967399817864 ] ] } },
{ "type": "Feature", "properties": { "pm_start": 30.518357, "pm_end": 30.893983, "length": 0.375626, "lanes": 4, "on_ramp": false, "off_ramp": false, "on_ramp_name": null, "off_ramp_name": null, "caltrans_pm_start": 20.10000037, "caltrans_pm_end": 20.50000059, "length_warning": "ok", "fd_vds_id": null, "vds_id": 400252, "vds_pm": 30.78795668, "vds_lanes": 4, "vds_source": "direct", "vds_distance_mi": 0.0, "vds_n_candidates": 1, "on_ramp_vds_id": null, "off_ramp_vds_id": null, "Notes": null }, "geometry": { "type": "LineString", "coordinates": [ [ -122.129514099733527, 37.684967399817864 ], [ -122.1295141, 37.6849674 ], [ -122.1301713, 37.6854174 ], [ -122.1318864, 37.6865881 ], [ -122.1321455, 37.6867678 ], [ -122.13388, 37.687962 ], [ -122.1347032, 37.68853 ], [ -122.134703205589503, 37.688530003866688 ] ] } },
{ "type": "Feature", "properties": { "pm_start": 30.893983, "pm_end": 30.962763, "length": 0.06878, "lanes": 5, "on_ramp": true, "off_ramp": true, "on_ramp_name": null, "off_ramp_name": null, "caltrans_pm_start": 20.50000059, "caltrans_pm_end": 20.60000012, "length_warning": "too_short", "fd_vds_id": null, "vds_id": 400252, "vds_pm": 30.78795668, "vds_lanes": 4, "vds_source": "nearest_upstream", "vds_distance_mi": -0.140416317, "vds_n_candidates": 0, "on_ramp_vds_id": "418451", "off_ramp_vds_id": "403008", "Notes": null }, "geometry": { "type": "LineString", "coordinates": [ [ -122.134703205589503, 37.688530003866688 ], [ -122.1350802, 37.6887908 ], [ -122.135649597561667, 37.6891857983085 ] ] } },
{ "type": "Feature", "properties": { "pm_start": 30.962763, "pm_end": 31.426419, "length": 0.463656, "lanes": 4, "on_ramp": false, "off_ramp": false, "on_ramp_name": null, "off_ramp_name": null, "caltrans_pm_start": 20.60000012, "caltrans_pm_end": 21.10000075, "length_warning": "ok", "fd_vds_id": null, "vds_id": 400788, "vds_pm": 31.1954031, "vds_lanes": 4, "vds_source": "direct", "vds_distance_mi": 0.0, "vds_n_candidates": 1, "on_ramp_vds_id": null, "off_ramp_vds_id": null, "Notes": null }, "geometry": { "type": "LineString", "coordinates": [ [ -122.135649597561667, 37.6891857983085 ], [ -122.1356496, 37.6891858 ], [ -122.1372312, 37.6902795 ], [ -122.1385763, 37.6912055 ], [ -122.1407719, 37.6927268 ], [ -122.1420237, 37.6936118 ], [ -122.142023705444714, 37.69361180376513 ] ] } },
{ "type": "Feature", "properties": { "pm_start": 31.426419, "pm_end": 33.028135, "length": 1.601716, "lanes": 5, "on_ramp": true, "off_ramp": true, "on_ramp_name": null, "off_ramp_name": null, "caltrans_pm_start": 21.10000075, "caltrans_pm_end": 22.60000021, "length_warning": "too_long", "fd_vds_id": null, "vds_id": 401517, "vds_pm": 32.49996381, "vds_lanes": 5, "vds_source": "direct_tiebreak", "vds_distance_mi": 0.0, "vds_n_candidates": 2, "on_ramp_vds_id": null, "off_ramp_vds_id": null, "Notes": null }, "geometry": { "type": "LineString", "coordinates": [ [ -122.142023705444714, 37.69361180376513 ], [ -122.1437311, 37.6947925 ], [ -122.1465108, 37.6967145 ], [ -122.1486554, 37.6981972 ], [ -122.1503052, 37.6993364 ], [ -122.1518223, 37.7003851 ], [ -122.1562497, 37.7034439 ], [ -122.1591907, 37.7054773 ], [ -122.1600439, 37.7060664 ], [ -122.162195, 37.707552 ], [ -122.1638116, 37.7086541 ], [ -122.164102597521492, 37.70885089832381 ] ] } },
{ "type": "Feature", "properties": { "pm_start": 33.028135, "pm_end": 33.144823, "length": 0.116688, "lanes": 5, "on_ramp": false, "off_ramp": true, "on_ramp_name": null, "off_ramp_name": null, "caltrans_pm_start": 22.60000021, "caltrans_pm_end": 22.79999839, "length_warning": "too_short", "fd_vds_id": null, "vds_id": 401517, "vds_pm": 32.49996381, "vds_lanes": 5, "vds_source": "nearest_upstream", "vds_distance_mi": -0.586515191, "vds_n_candidates": 0, "on_ramp_vds_id": null, "off_ramp_vds_id": null, "Notes": null }, "geometry": { "type": "LineString", "coordinates": [ [ -122.164102597521492, 37.70885089832381 ], [ -122.1641026, 37.7088509 ], [ -122.1652224, 37.7096222 ], [ -122.165692293413002, 37.709977495019444 ] ] } },
{ "type": "Feature", "properties": { "pm_start": 33.144823, "pm_end": 33.393209, "length": 0.248386, "lanes": 4, "on_ramp": false, "off_ramp": false, "on_ramp_name": null, "off_ramp_name": null, "caltrans_pm_start": 22.79999839, "caltrans_pm_end": 22.999999840000001, "length_warning": "ok", "fd_vds_id": null, "vds_id": 400574, "vds_pm": 33.32963701, "vds_lanes": 4, "vds_source": "direct", "vds_distance_mi": 0.0, "vds_n_candidates": 1, "on_ramp_vds_id": null, "off_ramp_vds_id": null, "Notes": null }, "geometry": { "type": "LineString", "coordinates": [ [ -122.165692293413002, 37.709977495019444 ], [ -122.1656923, 37.7099775 ], [ -122.1686514, 37.7119786 ], [ -122.169134097359361, 37.712324498107741 ] ] } },
{ "type": "Feature", "properties": { "pm_start": 33.393209, "pm_end": 33.663092, "length": 0.269883, "lanes": 5, "on_ramp": true, "off_ramp": true, "on_ramp_name": null, "off_ramp_name": null, "caltrans_pm_start": 22.999999840000001, "caltrans_pm_end": 23.29999941, "length_warning": "ok", "fd_vds_id": null, "vds_id": 401629, "vds_pm": 33.57000944, "vds_lanes": 5, "vds_source": "direct", "vds_distance_mi": 0.0, "vds_n_candidates": 1, "on_ramp_vds_id": "418450", "off_ramp_vds_id": null, "Notes": null }, "geometry": { "type": "LineString", "coordinates": [ [ -122.169134097359361, 37.712324498107741 ], [ -122.1691341, 37.7123245 ], [ -122.1704941, 37.7133126 ], [ -122.1707622, 37.7135074 ], [ -122.1712692, 37.7139275 ], [ -122.17176, 37.714354 ], [ -122.1721543, 37.7147274 ], [ -122.172559, 37.7151285 ], [ -122.172559001869359, 37.715128501833576 ] ] } },
{ "type": "Feature", "properties": { "pm_start": 33.663092, "pm_end": 34.135828, "length": 0.472736, "lanes": 4, "on_ramp": false, "off_ramp": false, "on_ramp_name": null, "off_ramp_name": null, "caltrans_pm_start": 23.29999941, "caltrans_pm_end": 23.79999907, "length_warning": "ok", "fd_vds_id": null, "vds_id": 400333, "vds_pm": 34.05840311, "vds_lanes": 4, "vds_source": "direct_tiebreak", "vds_distance_mi": 0.0, "vds_n_candidates": 2, "on_ramp_vds_id": null, "off_ramp_vds_id": null, "Notes": null }, "geometry": { "type": "LineString", "coordinates": [ [ -122.172559001869359, 37.715128501833576 ], [ -122.1729979, 37.715559 ], [ -122.1748419, 37.717369 ], [ -122.1770574, 37.7195353 ], [ -122.177953198253363, 37.720476198165414 ] ] } },
{ "type": "Feature", "properties": { "pm_start": 34.135828, "pm_end": 34.888317, "length": 0.752489, "lanes": 4, "on_ramp": true, "off_ramp": true, "on_ramp_name": null, "off_ramp_name": null, "caltrans_pm_start": 23.79999907, "caltrans_pm_end": 24.49999985, "length_warning": "ok", "fd_vds_id": null, "vds_id": 410363, "vds_pm": 34.40051161, "vds_lanes": 4, "vds_source": "direct", "vds_distance_mi": 0.0, "vds_n_candidates": 1, "on_ramp_vds_id": "403017", "off_ramp_vds_id": "403020", "Notes": null }, "geometry": { "type": "LineString", "coordinates": [ [ -122.177953198253363, 37.720476198165414 ], [ -122.1779532, 37.7204762 ], [ -122.1783025, 37.7208115 ], [ -122.1799109, 37.7223555 ], [ -122.1816597, 37.7240867 ], [ -122.1820003, 37.724424 ], [ -122.1823517, 37.7247826 ], [ -122.1826923, 37.7251517 ], [ -122.1831054, 37.7256057 ], [ -122.1834916, 37.726047 ], [ -122.1854764, 37.7283233 ], [ -122.186219898265847, 37.729176598009758 ] ] } },
{ "type": "Feature", "properties": { "pm_start": 34.888317, "pm_end": 35.151394, "length": 0.263077, "lanes": 4, "on_ramp": false, "off_ramp": false, "on_ramp_name": null, "off_ramp_name": null, "caltrans_pm_start": 24.49999985, "caltrans_pm_end": 24.79999932, "length_warning": "ok", "fd_vds_id": null, "vds_id": 400360, "vds_pm": 35.01728233, "vds_lanes": 4, "vds_source": "direct", "vds_distance_mi": 0.0, "vds_n_candidates": 1, "on_ramp_vds_id": null, "off_ramp_vds_id": null, "Notes": null }, "geometry": { "type": "LineString", "coordinates": [ [ -122.186219898265847, 37.729176598009758 ], [ -122.1862199, 37.7291766 ], [ -122.1872798, 37.7304206 ], [ -122.1889241, 37.7323267 ], [ -122.188924100821311, 37.73232670093838 ] ] } },
{ "type": "Feature", "properties": { "pm_start": 35.151394, "pm_end": 35.358783, "length": 0.207389, "lanes": 5, "on_ramp": true, "off_ramp": false, "on_ramp_name": null, "off_ramp_name": null, "caltrans_pm_start": 24.79999932, "caltrans_pm_end": 24.999999720000002, "length_warning": "ok", "fd_vds_id": null, "vds_id": 400955, "vds_pm": 35.20550512, "vds_lanes": 5, "vds_source": "direct", "vds_distance_mi": 0.0, "vds_n_candidates": 1, "on_ramp_vds_id": "403021", "off_ramp_vds_id": null, "Notes": null }, "geometry": { "type": "LineString", "coordinates": [ [ -122.188924100821311, 37.73232670093838 ], [ -122.191084197020032, 37.734794696595266 ] ] } },
{ "type": "Feature", "properties": { "pm_start": 35.358783, "pm_end": 35.558533, "length": 0.19975, "lanes": 5, "on_ramp": true, "off_ramp": true, "on_ramp_name": null, "off_ramp_name": null, "caltrans_pm_start": 24.999999720000002, "caltrans_pm_end": 25.20000036, "length_warning": "too_short", "fd_vds_id": null, "vds_id": 400955, "vds_pm": 35.20550512, "vds_lanes": 5, "vds_source": "nearest_upstream", "vds_distance_mi": -0.253152882, "vds_n_candidates": 0, "on_ramp_vds_id": "403024", "off_ramp_vds_id": null, "Notes": null }, "geometry": { "type": "LineString", "coordinates": [ [ -122.191084197020032, 37.734794696595266 ], [ -122.1910842, 37.7347947 ], [ -122.193197995737776, 37.737153395243972 ] ] } },
{ "type": "Feature", "properties": { "pm_start": 35.558533, "pm_end": 35.95025, "length": 0.391717, "lanes": 4, "on_ramp": false, "off_ramp": false, "on_ramp_name": null, "off_ramp_name": null, "caltrans_pm_start": 25.20000036, "caltrans_pm_end": 25.60000108, "length_warning": "ok", "fd_vds_id": null, "vds_id": 400495, "vds_pm": 35.81768373, "vds_lanes": 4, "vds_source": "direct", "vds_distance_mi": 0.0, "vds_n_candidates": 1, "on_ramp_vds_id": null, "off_ramp_vds_id": null, "Notes": null }, "geometry": { "type": "LineString", "coordinates": [ [ -122.193197995737776, 37.737153395243972 ], [ -122.193198, 37.7371534 ], [ -122.1959318, 37.740282 ], [ -122.1972982, 37.7418039 ], [ -122.197298204599235, 37.741803905248375 ] ] } },
{ "type": "Feature", "properties": { "pm_start": 35.95025, "pm_end": 36.013193, "length": 0.062943, "lanes": 4, "on_ramp": true, "off_ramp": false, "on_ramp_name": null, "off_ramp_name": null, "caltrans_pm_start": 25.60000108, "caltrans_pm_end": 25.70000093, "length_warning": "too_short", "fd_vds_id": null, "vds_id": 400608, "vds_pm": 35.95095316, "vds_lanes": 5, "vds_source": "direct", "vds_distance_mi": 0.0, "vds_n_candidates": 1, "on_ramp_vds_id": "410364", "off_ramp_vds_id": null, "Notes": null }, "geometry": { "type": "LineString", "coordinates": [ [ -122.197298204599235, 37.741803905248375 ], [ -122.197498, 37.7420319 ], [ -122.197961, 37.742549 ], [ -122.197961001989569, 37.742549002259366 ] ] } },
{ "type": "Feature", "properties": { "pm_start": 36.013193, "pm_end": 36.345687, "length": 0.332494, "lanes": 5, "on_ramp": true, "off_ramp": true, "on_ramp_name": null, "off_ramp_name": null, "caltrans_pm_start": 25.70000093, "caltrans_pm_end": 25.999999580000001, "length_warning": "ok", "fd_vds_id": null, "vds_id": 400608, "vds_pm": 35.95095316, "vds_lanes": 5, "vds_source": "nearest_upstream", "vds_distance_mi": -0.228486844, "vds_n_candidates": 0, "on_ramp_vds_id": "410364", "off_ramp_vds_id": null, "Notes": null }, "geometry": { "type": "LineString", "coordinates": [ [ -122.197961001989569, 37.742549002259366 ], [ -122.2012889, 37.7463282 ], [ -122.2014337, 37.7464927 ], [ -122.201438495191994, 37.746498194490826 ] ] } },
{ "type": "Feature", "properties": { "pm_start": 36.345687, "pm_end": 37.264347, "length": 0.91866, "lanes": 4, "on_ramp": false, "off_ramp": false, "on_ramp_name": null, "off_ramp_name": null, "caltrans_pm_start": 25.999999580000001, "caltrans_pm_end": 26.899999950000002, "length_warning": "ok", "fd_vds_id": null, "vds_id": 400949, "vds_pm": 37.20572328, "vds_lanes": 4, "vds_source": "direct", "vds_distance_mi": 0.0, "vds_n_candidates": 1, "on_ramp_vds_id": null, "off_ramp_vds_id": null, "Notes": null }, "geometry": { "type": "LineString", "coordinates": [ [ -122.201438495191994, 37.746498194490826 ], [ -122.2014385, 37.7464982 ], [ -122.202742, 37.7479871 ], [ -122.2043728, 37.7498449 ], [ -122.2067975, 37.7526104 ], [ -122.2071667, 37.7530289 ], [ -122.2075156, 37.7534238 ], [ -122.207899, 37.7538578 ], [ -122.2081071, 37.7540952 ], [ -122.2105567, 37.7568888 ], [ -122.211004, 37.7574331 ], [ -122.211004003220822, 37.757433103636906 ] ] } },
{ "type": "Feature", "properties": { "pm_start": 37.264347, "pm_end": 37.818222, "length": 0.553875, "lanes": 5, "on_ramp": true, "off_ramp": true, "on_ramp_name": null, "off_ramp_name": null, "caltrans_pm_start": 26.899999950000002, "caltrans_pm_end": 27.49999955, "length_warning": "ok", "fd_vds_id": null, "vds_id": 400949, "vds_pm": 37.20572328, "vds_lanes": 4, "vds_source": "nearest_upstream", "vds_distance_mi": -0.335561224, "vds_n_candidates": 0, "on_ramp_vds_id": "403028", "off_ramp_vds_id": "403030", "Notes": null }, "geometry": { "type": "LineString", "coordinates": [ [ -122.211004003220822, 37.757433103636906 ], [ -122.2144959, 37.7613761 ], [ -122.2146736, 37.7615781 ], [ -122.2150095, 37.7619592 ], [ -122.21681599559858, 37.764001895023092 ] ] } },
{ "type": "Feature", "properties": { "pm_start": 37.818222, "pm_end": 38.476992, "length": 0.65877, "lanes": 4, "on_ramp": false, "off_ramp": false, "on_ramp_name": null, "off_ramp_name": null, "caltrans_pm_start": 27.49999955, "caltrans_pm_end": 28.10000025, "length_warning": "ok", "fd_vds_id": null, "vds_id": 400678, "vds_pm": 37.89683463, "vds_lanes": 4, "vds_source": "direct_tiebreak", "vds_distance_mi": 0.0, "vds_n_candidates": 2, "on_ramp_vds_id": null, "off_ramp_vds_id": null, "Notes": null }, "geometry": { "type": "LineString", "coordinates": [ [ -122.21681599559858, 37.764001895023092 ], [ -122.216816, 37.7640019 ], [ -122.2173349, 37.7646161 ], [ -122.2176843, 37.7650032 ], [ -122.2179721, 37.7653513 ], [ -122.2182318, 37.7656757 ], [ -122.2185527, 37.7661281 ], [ -122.2207724, 37.7692173 ], [ -122.2209833, 37.7695158 ], [ -122.2211976, 37.7697934 ], [ -122.2214031, 37.7700548 ], [ -122.2216466, 37.770327 ], [ -122.2218027, 37.7704916 ], [ -122.221985, 37.7706557 ], [ -122.2222234, 37.7708603 ], [ -122.222486, 37.7710547 ], [ -122.2227632, 37.7712486 ], [ -122.2230622, 37.7714422 ], [ -122.223281, 37.7715649 ], [ -122.223642498016815, 37.771756598948336 ] ] } },
{ "type": "Feature", "properties": { "pm_start": 38.476992, "pm_end": 38.903162, "length": 0.42617, "lanes": 4, "on_ramp": true, "off_ramp": true, "on_ramp_name": null, "off_ramp_name": null, "caltrans_pm_start": 28.10000025, "caltrans_pm_end": 28.50000015, "length_warning": "ok", "fd_vds_id": null, "vds_id": 400678, "vds_pm": 37.89683463, "vds_lanes": 4, "vds_source": "nearest_upstream", "vds_distance_mi": -0.793242373, "vds_n_candidates": 0, "on_ramp_vds_id": "403034", "off_ramp_vds_id": "403036", "Notes": null }, "geometry": { "type": "LineString", "coordinates": [ [ -122.223642498016815, 37.771756598948336 ], [ -122.2236425, 37.7717566 ], [ -122.2240816, 37.7719647 ], [ -122.2245375, 37.7721472 ], [ -122.2250526, 37.7723234 ], [ -122.2255193, 37.772469 ], [ -122.2303741, 37.7740803 ], [ -122.2307883, 37.774223 ], [ -122.230788301963386, 37.774223000669188 ] ] } },
{ "type": "Feature", "properties": { "pm_start": 38.903162, "pm_end": 39.133346, "length": 0.230184, "lanes": 4, "on_ramp": false, "off_ramp": false, "on_ramp_name": null, "off_ramp_name": null, "caltrans_pm_start": 28.50000015, "caltrans_pm_end": 28.79999946, "length_warning": "ok", "fd_vds_id": null, "vds_id": 400607, "vds_pm": 39.01983583, "vds_lanes": 4, "vds_source": "direct", "vds_distance_mi": 0.0, "vds_n_candidates": 1, "on_ramp_vds_id": null, "off_ramp_vds_id": null, "Notes": null }, "geometry": { "type": "LineString", "coordinates": [ [ -122.230788301963386, 37.774223000669188 ], [ -122.2331126, 37.7750152 ], [ -122.2335391, 37.7751721 ], [ -122.2339656, 37.7753544 ], [ -122.234376, 37.7755558 ], [ -122.2345753, 37.7756688 ], [ -122.234575303187384, 37.775668801807186 ] ] } },
{ "type": "Feature", "properties": { "pm_start": 39.133346, "pm_end": 39.234795, "length": 0.101449, "lanes": 5, "on_ramp": true, "off_ramp": true, "on_ramp_name": null, "off_ramp_name": null, "caltrans_pm_start": 28.79999946, "caltrans_pm_end": 28.90000011, "length_warning": "too_short", "fd_vds_id": null, "vds_id": 400607, "vds_pm": 39.01983583, "vds_lanes": 4, "vds_source": "nearest_upstream", "vds_distance_mi": -0.164234668, "vds_n_candidates": 0, "on_ramp_vds_id": "403041", "off_ramp_vds_id": "403039", "Notes": null }, "geometry": { "type": "LineString", "coordinates": [ [ -122.234575303187384, 37.775668801807186 ], [ -122.2347649, 37.7757763 ], [ -122.2351431, 37.7760117 ], [ -122.2354649, 37.7762343 ], [ -122.2357332, 37.7764399 ], [ -122.2359665, 37.7766371 ], [ -122.235966505375444, 37.776637104905319 ] ] } },
{ "type": "Feature", "properties": { "pm_start": 39.234795, "pm_end": 39.628134, "length": 0.393339, "lanes": 4, "on_ramp": false, "off_ramp": false, "on_ramp_name": null, "off_ramp_name": null, "caltrans_pm_start": 28.90000011, "caltrans_pm_end": 29.29999885, "length_warning": "ok", "fd_vds_id": null, "vds_id": 400682, "vds_pm": 39.46930643, "vds_lanes": 4, "vds_source": "direct_tiebreak", "vds_distance_mi": 0.0, "vds_n_candidates": 2, "on_ramp_vds_id": null, "off_ramp_vds_id": null, "Notes": null }, "geometry": { "type": "LineString", "coordinates": [ [ -122.235966505375444, 37.776637104905319 ], [ -122.2362615, 37.7769063 ], [ -122.2365539, 37.7772031 ], [ -122.2368037, 37.7774853 ], [ -122.2369968, 37.777727 ], [ -122.2371685, 37.7779729 ], [ -122.2373348, 37.7782295 ], [ -122.2374689, 37.7784584 ], [ -122.2375923, 37.778698 ], [ -122.2377076, 37.7789375 ], [ -122.2378176, 37.779194 ], [ -122.2379314, 37.7794536 ], [ -122.2383407, 37.7805824 ], [ -122.2385542, 37.7811653 ], [ -122.238602, 37.7812929 ], [ -122.2386502, 37.7814194 ], [ -122.2387005, 37.7815461 ], [ -122.2387537, 37.7816717 ], [ -122.238810797617163, 37.781800894608388 ] ] } },
{ "type": "Feature", "properties": { "pm_start": 39.628134, "pm_end": 40.626957, "length": 0.998823, "lanes": 4, "on_ramp": true, "off_ramp": true, "on_ramp_name": null, "off_ramp_name": null, "caltrans_pm_start": 29.29999885, "caltrans_pm_end": 30.20000125, "length_warning": "ok", "fd_vds_id": null, "vds_id": 400682, "vds_pm": 39.46930643, "vds_lanes": 4, "vds_source": "nearest_upstream", "vds_distance_mi": -0.658239073, "vds_n_candidates": 0, "on_ramp_vds_id": "403044", "off_ramp_vds_id": null, "Notes": null }, "geometry": { "type": "LineString", "coordinates": [ [ -122.238810797617163, 37.781800894608388 ], [ -122.2388108, 37.7818009 ], [ -122.2388678, 37.7819205 ], [ -122.2389356, 37.782049 ], [ -122.2390056, 37.7821705 ], [ -122.2390808, 37.7822919 ], [ -122.2391596, 37.7824094 ], [ -122.2392431, 37.7825233 ], [ -122.2393346, 37.7826396 ], [ -122.239427, 37.7827501 ], [ -122.2395261, 37.7828591 ], [ -122.2396294, 37.7829659 ], [ -122.2397352, 37.7830682 ], [ -122.2398475, 37.7831706 ], [ -122.2399627, 37.783269 ], [ -122.2400807, 37.7833645 ], [ -122.2402032, 37.7834579 ], [ -122.2403286, 37.7835473 ], [ -122.2404542, 37.7836347 ], [ -122.2405824, 37.7837235 ], [ -122.2407089, 37.7838093 ], [ -122.2408372, 37.7838949 ], [ -122.2409691, 37.7839798 ], [ -122.241101, 37.7840627 ], [ -122.2412399, 37.7841474 ], [ -122.2413705, 37.784225 ], [ -122.2415078, 37.7843037 ], [ -122.2416431, 37.7843804 ], [ -122.2417809, 37.7844563 ], [ -122.2419106, 37.7845319 ], [ -122.2456457, 37.7865202 ], [ -122.2461768, 37.7867852 ], [ -122.2467213, 37.7870226 ], [ -122.2474267, 37.7873109 ], [ -122.2481429, 37.7875864 ], [ -122.2488483, 37.787845 ], [ -122.2495349, 37.7880846 ], [ -122.2502082, 37.7883029 ], [ -122.2508733, 37.7885085 ], [ -122.2514983, 37.7886929 ], [ -122.2521393, 37.7888688 ], [ -122.2527616, 37.7890193 ], [ -122.2531667, 37.7891275 ], [ -122.2533269, 37.7891633 ], [ -122.2534866, 37.7891983 ], [ -122.2536467, 37.7892335 ], [ -122.2538048, 37.789267 ], [ -122.2539658, 37.7893015 ], [ -122.253965807098865, 37.789301501462958 ] ] } },
{ "type": "Feature", "properties": { "pm_start": 40.626957, "pm_end": 41.2256, "length": 0.598643, "lanes": 4, "on_ramp": false, "off_ramp": true, "on_ramp_name": null, "off_ramp_name": null, "caltrans_pm_start": 30.20000125, "caltrans_pm_end": 30.89999956, "length_warning": "ok", "fd_vds_id": null, "vds_id": 400682, "vds_pm": 39.46930643, "vds_lanes": 4, "vds_source": "nearest_upstream", "vds_distance_mi": -1.456972073, "vds_n_candidates": 0, "on_ramp_vds_id": null, "off_ramp_vds_id": "408139", "Notes": null }, "geometry": { "type": "LineString", "coordinates": [ [ -122.253965807098865, 37.789301501462958 ], [ -122.2541269, 37.7893347 ], [ -122.2542877, 37.7893665 ], [ -122.2544495, 37.7893978 ], [ -122.2546088, 37.7894286 ], [ -122.2547677, 37.7894591 ], [ -122.2549275, 37.7894882 ], [ -122.2550895, 37.7895169 ], [ -122.2554143, 37.7895735 ], [ -122.2564692, 37.7897522 ], [ -122.2576608, 37.7899561 ], [ -122.2578227, 37.7899828 ], [ -122.2579865, 37.7900117 ], [ -122.2581493, 37.7900426 ], [ -122.2583098, 37.7900757 ], [ -122.2584641, 37.7901111 ], [ -122.2586243, 37.7901509 ], [ -122.2587797, 37.7901931 ], [ -122.2589409, 37.7902393 ], [ -122.2590919, 37.7902874 ], [ -122.2592459, 37.790339 ], [ -122.259399, 37.7903946 ], [ -122.2595437, 37.7904501 ], [ -122.2596946, 37.7905115 ], [ -122.2598406, 37.7905739 ], [ -122.25999, 37.7906414 ], [ -122.2601256, 37.7907072 ], [ -122.260268, 37.7907802 ], [ -122.2604019, 37.7908536 ], [ -122.2605407, 37.7909312 ], [ -122.2606729, 37.7910094 ], [ -122.2608006, 37.7910886 ], [ -122.2609312, 37.7911744 ], [ -122.2610552, 37.7912611 ], [ -122.2611805, 37.7913523 ], [ -122.2612966, 37.7914419 ], [ -122.2614161, 37.7915379 ], [ -122.261527, 37.7916305 ], [ -122.26334979936594, 37.793193399456349 ] ] } },
{ "type": "Feature", "properties": { "pm_start": 41.2256, "pm_end": 41.482198, "length": 0.256598, "lanes": 4, "on_ramp": false, "off_ramp": true, "on_ramp_name": null, "off_ramp_name": null, "caltrans_pm_start": 30.89999956, "caltrans_pm_end": 31.10000033, "length_warning": "ok", "fd_vds_id": null, "vds_id": 408138, "vds_pm": 41.32136055, "vds_lanes": 4, "vds_source": "direct", "vds_distance_mi": 0.0, "vds_n_candidates": 1, "on_ramp_vds_id": null, "off_ramp_vds_id": null, "Notes": null }, "geometry": { "type": "LineString", "coordinates": [ [ -122.26334979936594, 37.793193399456349 ], [ -122.2633498, 37.7931934 ], [ -122.2635566, 37.7933685 ], [ -122.2636712, 37.7934644 ], [ -122.2637857, 37.7935605 ], [ -122.2639011, 37.7936566 ], [ -122.2640161, 37.7937506 ], [ -122.2641299, 37.7938432 ], [ -122.2642468, 37.7939353 ], [ -122.2643658, 37.7940274 ], [ -122.2644872, 37.7941178 ], [ -122.2646088, 37.7942054 ], [ -122.2647322, 37.7942926 ], [ -122.2648576, 37.7943779 ], [ -122.2649846, 37.7944612 ], [ -122.2651151, 37.7945439 ], [ -122.2652455, 37.7946234 ], [ -122.2653772, 37.794702 ], [ -122.2655115, 37.7947789 ], [ -122.2656472, 37.794854 ], [ -122.2657837, 37.7949274 ], [ -122.2659214, 37.7949986 ], [ -122.2660602, 37.7950686 ], [ -122.266229, 37.7951501 ], [ -122.2663269, 37.7951954 ], [ -122.2666665, 37.7953528 ], [ -122.266997798950698, 37.795498799537583 ] ] } },
{ "type": "Feature", "properties": { "pm_start": 41.482198, "pm_end": 41.885739, "length": 0.403541, "lanes": 4, "on_ramp": false, "off_ramp": false, "on_ramp_name": null, "off_ramp_name": null, "caltrans_pm_start": 31.10000033, "caltrans_pm_end": 31.49999953, "length_warning": "ok", "fd_vds_id": null, "vds_id": 400980, "vds_pm": 41.78526986, "vds_lanes": 4, "vds_source": "direct", "vds_distance_mi": 0.0, "vds_n_candidates": 1, "on_ramp_vds_id": null, "off_ramp_vds_id": null, "Notes": null }, "geometry": { "type": "LineString", "coordinates": [ [ -122.266997798950698, 37.795498799537583 ], [ -122.2669978, 37.7954988 ], [ -122.267506, 37.7956876 ], [ -122.2691636, 37.7962981 ], [ -122.2710009, 37.7970187 ], [ -122.273621592213246, 37.798088496821357 ] ] } },
{ "type": "Feature", "properties": { "pm_start": 41.885739, "pm_end": 42.078786, "length": 0.193047, "lanes": 5, "on_ramp": true, "off_ramp": false, "on_ramp_name": null, "off_ramp_name": null, "caltrans_pm_start": 31.49999953, "caltrans_pm_end": 31.70000039, "length_warning": "too_short", "fd_vds_id": null, "vds_id": 400980, "vds_pm": 41.78526986, "vds_lanes": 4, "vds_source": "nearest_upstream", "vds_distance_mi": -0.196992639, "vds_n_candidates": 0, "on_ramp_vds_id": "403047", "off_ramp_vds_id": null, "Notes": null }, "geometry": { "type": "LineString", "coordinates": [ [ -122.273621592213246, 37.798088496821357 ], [ -122.2736216, 37.7980885 ], [ -122.2752112, 37.7987083 ], [ -122.276794294125821, 37.799321997722828 ] ] } },
{ "type": "Feature", "properties": { "pm_start": 42.078786, "pm_end": 42.285065, "length": 0.206279, "lanes": 4, "on_ramp": false, "off_ramp": true, "on_ramp_name": null, "off_ramp_name": null, "caltrans_pm_start": 31.70000039, "caltrans_pm_end": 31.90000002, "length_warning": "ok", "fd_vds_id": null, "vds_id": 400980, "vds_pm": 41.78526986, "vds_lanes": 4, "vds_source": "nearest_upstream", "vds_distance_mi": -0.396655639, "vds_n_candidates": 0, "on_ramp_vds_id": null, "off_ramp_vds_id": null, "Notes": null }, "geometry": { "type": "LineString", "coordinates": [ [ -122.276794294125821, 37.799321997722828 ], [ -122.2767943, 37.799322 ], [ -122.2773396, 37.799546 ], [ -122.2779246, 37.7997756 ], [ -122.278219, 37.7998849 ], [ -122.2783616, 37.7999427 ], [ -122.2785067, 37.8000023 ], [ -122.2786327, 37.8000539 ], [ -122.2787751, 37.8001113 ], [ -122.2801676, 37.8006665 ], [ -122.280167606801498, 37.800666502588143 ] ] } },
{ "type": "Feature", "properties": { "pm_start": 42.285065, "pm_end": 43.295694, "length": 1.010629, "lanes": 3, "on_ramp": false, "off_ramp": false, "on_ramp_name": null, "off_ramp_name": null, "caltrans_pm_start": 31.90000002, "caltrans_pm_end": 32.90000137, "length_warning": "too_long", "fd_vds_id": null, "vds_id": 401142, "vds_pm": 42.66800101, "vds_lanes": 3, "vds_source": "direct_tiebreak", "vds_distance_mi": 0.0, "vds_n_candidates": 3, "on_ramp_vds_id": null, "off_ramp_vds_id": null, "Notes": null }, "geometry": { "type": "LineString", "coordinates": [ [ -122.280167606801498, 37.800666502588143 ], [ -122.2807694, 37.8008955 ], [ -122.2810554, 37.8010061 ], [ -122.2817617, 37.8012752 ], [ -122.2821507, 37.801428 ], [ -122.2824893, 37.801566 ], [ -122.2829408, 37.8017505 ], [ -122.2832324, 37.8018728 ], [ -122.2833775, 37.8019337 ], [ -122.2835257, 37.8019965 ], [ -122.2836712, 37.8020577 ], [ -122.2838193, 37.8021183 ], [ -122.2839669, 37.8021777 ], [ -122.2841176, 37.8022341 ], [ -122.2842669, 37.802288 ], [ -122.2844212, 37.8023411 ], [ -122.284574, 37.8023917 ], [ -122.28473, 37.8024405 ], [ -122.2848834, 37.8024876 ], [ -122.2850393, 37.8025327 ], [ -122.2851963, 37.8025769 ], [ -122.285354, 37.8026182 ], [ -122.2855117, 37.802659 ], [ -122.2856694, 37.8026969 ], [ -122.2858298, 37.8027332 ], [ -122.2859896, 37.8027682 ], [ -122.2861508, 37.8028008 ], [ -122.286312, 37.802831 ], [ -122.2864748, 37.8028598 ], [ -122.2866387, 37.8028863 ], [ -122.2868014, 37.8029105 ], [ -122.2869653, 37.8029335 ], [ -122.2871285, 37.8029542 ], [ -122.2872928, 37.8029725 ], [ -122.2874574, 37.8029896 ], [ -122.2876212, 37.8030039 ], [ -122.2877872, 37.803018 ], [ -122.2879525, 37.8030288 ], [ -122.2881195, 37.8030371 ], [ -122.2882842, 37.8030439 ], [ -122.2884494, 37.803049 ], [ -122.2886155, 37.8030516 ], [ -122.2887816, 37.8030531 ], [ -122.2889481, 37.803053 ], [ -122.2891146, 37.8030506 ], [ -122.2892806, 37.8030463 ], [ -122.2894287, 37.8030403 ], [ -122.2895814, 37.8030327 ], [ -122.2897383, 37.803023 ], [ -122.2898997, 37.803012 ], [ -122.2900723, 37.8029975 ], [ -122.2902384, 37.8029814 ], [ -122.2904018, 37.8029632 ], [ -122.290567, 37.8029443 ], [ -122.2907306, 37.8029228 ], [ -122.2908884, 37.8028997 ], [ -122.291053, 37.8028741 ], [ -122.2946281, 37.8022923 ], [ -122.2948023, 37.8022635 ], [ -122.2949587, 37.8022402 ], [ -122.2951203, 37.8022183 ], [ -122.2952815, 37.8021988 ], [ -122.2954405, 37.8021833 ], [ -122.2956107, 37.8021685 ], [ -122.2957768, 37.8021569 ], [ -122.2959409, 37.8021485 ], [ -122.2961084, 37.8021424 ], [ -122.2962963, 37.8021393 ], [ -122.2963672, 37.8021391 ], [ -122.2964627, 37.8021393 ], [ -122.2966298, 37.8021406 ], [ -122.2967964, 37.8021448 ], [ -122.2969591, 37.8021511 ], [ -122.2971269, 37.8021609 ], [ -122.2972891, 37.8021728 ], [ -122.2974555, 37.8021883 ], [ -122.2976188, 37.8022067 ], [ -122.2977826, 37.8022277 ], [ -122.297943697057832, 37.80225069957995 ] ] } },
{ "type": "Feature", "properties": { "pm_start": 43.295694, "pm_end": 43.555432, "length": 0.259738, "lanes": 4, "on_ramp": true, "off_ramp": true, "on_ramp_name": null, "off_ramp_name": null, "caltrans_pm_start": 32.90000137, "caltrans_pm_end": 33.200000019999997, "length_warning": "ok", "fd_vds_id": null, "vds_id": 401142, "vds_pm": 42.66800101, "vds_lanes": 3, "vds_source": "nearest_upstream", "vds_distance_mi": -0.757561989, "vds_n_candidates": 0, "on_ramp_vds_id": null, "off_ramp_vds_id": null, "Notes": null }, "geometry": { "type": "LineString", "coordinates": [ [ -122.297943697057832, 37.80225069957995 ], [ -122.2979437, 37.8022507 ], [ -122.2981052, 37.8022763 ], [ -122.2982625, 37.8023155 ], [ -122.2984167, 37.8023447 ], [ -122.2985638, 37.8023794 ], [ -122.2987344, 37.8024185 ], [ -122.2988956, 37.8024591 ], [ -122.2990412, 37.802498 ], [ -122.2992007, 37.8025415 ], [ -122.2993519, 37.8025867 ], [ -122.2995053, 37.8026371 ], [ -122.299658, 37.802689 ], [ -122.2998029, 37.8027379 ], [ -122.2999565, 37.8027954 ], [ -122.3001006, 37.8028537 ], [ -122.3002507, 37.8029143 ], [ -122.3003873, 37.8029748 ], [ -122.3005241, 37.8030387 ], [ -122.3006626, 37.8031018 ], [ -122.3007862, 37.8031647 ], [ -122.3009014, 37.8032239 ], [ -122.3010063, 37.8032772 ], [ -122.3011439, 37.803357 ], [ -122.3013535, 37.80348 ], [ -122.3014869, 37.8035616 ], [ -122.3020943, 37.8039847 ], [ -122.302094300218741, 37.803984700174162 ] ] } },
{ "type": "Feature", "properties": { "pm_start": 43.555432, "pm_end": 44.372305, "length": 0.816873, "lanes": 3, "on_ramp": false, "off_ramp": true, "on_ramp_name": null, "off_ramp_name": null, "caltrans_pm_start": 33.200000019999997, "caltrans_pm_end": 1.16e-05, "length_warning": "ok", "fd_vds_id": null, "vds_id": 400765, "vds_pm": 44.13322897, "vds_lanes": 4, "vds_source": "direct_tiebreak", "vds_distance_mi": 0.0, "vds_n_candidates": 3, "on_ramp_vds_id": null, "off_ramp_vds_id": null, "Notes": null }, "geometry": { "type": "LineString", "coordinates": [ [ -122.302094300218741, 37.803984700174162 ], [ -122.3023975, 37.8042261 ], [ -122.3024284, 37.804256 ], [ -122.3024645, 37.8042895 ], [ -122.3025436, 37.8043598 ], [ -122.3026272, 37.8044357 ], [ -122.302679, 37.8044855 ], [ -122.3027919, 37.8045933 ], [ -122.302896, 37.8047003 ], [ -122.3029871, 37.8048024 ], [ -122.3030855, 37.8049061 ], [ -122.3031806, 37.8050158 ], [ -122.303269, 37.8051239 ], [ -122.3033592, 37.8052337 ], [ -122.3034391, 37.8053402 ], [ -122.3035276, 37.8054602 ], [ -122.3036054, 37.8055745 ], [ -122.3036856, 37.8056671 ], [ -122.3037589, 37.8057832 ], [ -122.303829, 37.8059015 ], [ -122.3038975, 37.8060233 ], [ -122.3039617, 37.8061426 ], [ -122.304023, 37.8062648 ], [ -122.3040818, 37.8063867 ], [ -122.3041368, 37.8065101 ], [ -122.3041885, 37.8066345 ], [ -122.3042373, 37.8067621 ], [ -122.3042842, 37.8068859 ], [ -122.3043284, 37.8070138 ], [ -122.3043669, 37.8071391 ], [ -122.304403, 37.8072692 ], [ -122.3044349, 37.8074067 ], [ -122.3044637, 37.8075431 ], [ -122.3044764, 37.8076046 ], [ -122.3044996, 37.8077337 ], [ -122.3045203, 37.8078556 ], [ -122.3045388, 37.8079859 ], [ -122.30455, 37.8080921 ], [ -122.3045516, 37.8081192 ], [ -122.3045594, 37.8082474 ], [ -122.3045635, 37.808375 ], [ -122.3045641, 37.8085079 ], [ -122.304561, 37.808641 ], [ -122.3045542, 37.8087861 ], [ -122.3045478, 37.808915 ], [ -122.304539, 37.8090464 ], [ -122.3045271, 37.8091798 ], [ -122.3045125, 37.8093063 ], [ -122.3044934, 37.809438 ], [ -122.3044711, 37.8095687 ], [ -122.3044461, 37.8096988 ], [ -122.3044183, 37.8098257 ], [ -122.3043865, 37.8099547 ], [ -122.304351, 37.8100828 ], [ -122.3043124, 37.8102083 ], [ -122.30427, 37.8103329 ], [ -122.3042241, 37.8104589 ], [ -122.3041752, 37.8105859 ], [ -122.3041248, 37.8107077 ], [ -122.3040697, 37.8108321 ], [ -122.3040117, 37.8109554 ], [ -122.30395, 37.8110777 ], [ -122.3038852, 37.8111974 ], [ -122.3038043, 37.8113401 ], [ -122.3037335, 37.8114583 ], [ -122.303662, 37.8115733 ], [ -122.3035838, 37.811692 ], [ -122.3035031, 37.8118089 ], [ -122.3034222, 37.8119213 ], [ -122.3033352, 37.8120354 ], [ -122.3032471, 37.8121467 ], [ -122.3031562, 37.8122547 ], [ -122.3030612, 37.8123637 ], [ -122.3029647, 37.8124696 ], [ -122.3028637, 37.8125763 ], [ -122.3027609, 37.8126794 ], [ -122.3026557, 37.8127809 ], [ -122.3025486, 37.8128817 ], [ -122.3024387, 37.8129799 ], [ -122.3023264, 37.8130751 ], [ -122.3022098, 37.8131697 ], [ -122.3020933, 37.8132614 ], [ -122.3019736, 37.8133515 ], [ -122.3018502, 37.813441 ], [ -122.3017252, 37.8135277 ], [ -122.3016004, 37.8136128 ], [ -122.3010668, 37.8139765 ], [ -122.300684003635524, 37.814238097515535 ] ] } },
{ "type": "Feature", "properties": { "pm_start": 44.372305, "pm_end": 45.21797, "length": 0.845665, "lanes": 2, "on_ramp": false, "off_ramp": false, "on_ramp_name": null, "off_ramp_name": null, "caltrans_pm_start": 1.16e-05, "caltrans_pm_end": 34.90000163, "length_warning": "ok", "fd_vds_id": null, "vds_id": 400844, "vds_pm": 45.1488509, "vds_lanes": 2, "vds_source": "direct", "vds_distance_mi": 0.0, "vds_n_candidates": 1, "on_ramp_vds_id": null, "off_ramp_vds_id": null, "Notes": null }, "geometry": { "type": "LineString", "coordinates": [ [ -122.300684003635524, 37.814238097515535 ], [ -122.300684, 37.8142381 ], [ -122.3001535, 37.8145566 ], [ -122.3000305, 37.8146347 ], [ -122.2998689, 37.8147433 ], [ -122.2997436, 37.8148258 ], [ -122.2996108, 37.8149086 ], [ -122.2994822, 37.8149883 ], [ -122.2993494, 37.8150702 ], [ -122.2989569, 37.8153118 ], [ -122.2988323, 37.8153881 ], [ -122.2987049, 37.8154663 ], [ -122.2984373, 37.815634 ], [ -122.2981822, 37.8157995 ], [ -122.2979278, 37.8159716 ], [ -122.2976824, 37.8161445 ], [ -122.29744, 37.816322 ], [ -122.297198, 37.8165064 ], [ -122.2970765, 37.8166014 ], [ -122.2969623, 37.8166922 ], [ -122.2968458, 37.8167865 ], [ -122.2967368, 37.816878 ], [ -122.2966205, 37.8169761 ], [ -122.2965063, 37.8170736 ], [ -122.2963991, 37.8171687 ], [ -122.2962812, 37.8172729 ], [ -122.2961762, 37.8173684 ], [ -122.2960693, 37.8174684 ], [ -122.2959591, 37.8175728 ], [ -122.2958535, 37.8176741 ], [ -122.2957512, 37.8177746 ], [ -122.2956456, 37.817881 ], [ -122.2955475, 37.8179813 ], [ -122.2954434, 37.8180894 ], [ -122.2953451, 37.8181943 ], [ -122.2952488, 37.8182988 ], [ -122.2951521, 37.8184065 ], [ -122.2950602, 37.818511 ], [ -122.2949637, 37.8186227 ], [ -122.2948675, 37.8187356 ], [ -122.2947792, 37.8188423 ], [ -122.2946934, 37.818947 ], [ -122.2945113, 37.8191719 ], [ -122.2942609, 37.8195108 ], [ -122.2939906, 37.8198422 ], [ -122.2930908, 37.8209462 ], [ -122.2929164, 37.8211602 ], [ -122.2927353, 37.8213901 ], [ -122.2925655, 37.8216156 ], [ -122.2923999, 37.8218441 ], [ -122.2922413, 37.8220761 ], [ -122.2920884, 37.8223083 ], [ -122.29194, 37.8225436 ], [ -122.2917977, 37.822784 ], [ -122.2916607, 37.8230251 ], [ -122.291533, 37.8232616 ], [ -122.2914084, 37.8235071 ], [ -122.2912885, 37.823753 ], [ -122.291288499298702, 37.823753001473577 ] ] } },
{ "type": "Feature", "properties": { "pm_start": 45.21797, "pm_end": 46.164102, "length": 0.946132, "lanes": 3, "on_ramp": true, "off_ramp": false, "on_ramp_name": null, "off_ramp_name": null, "caltrans_pm_start": 34.90000163, "caltrans_pm_end": 35.79700134, "length_warning": "ok", "fd_vds_id": null, "vds_id": 401143, "vds_pm": 45.28566547, "vds_lanes": 2, "vds_source": "direct", "vds_distance_mi": 0.0, "vds_n_candidates": 1, "on_ramp_vds_id": "403104", "off_ramp_vds_id": null, "Notes": null }, "geometry": { "type": "LineString", "coordinates": [ [ -122.291288499298702, 37.823753001473577 ], [ -122.2909941, 37.8243716 ], [ -122.2909377, 37.8244929 ], [ -122.2908806, 37.8246208 ], [ -122.2908307, 37.8247454 ], [ -122.2907906, 37.8248629 ], [ -122.2907535, 37.8249942 ], [ -122.290724, 37.8251222 ], [ -122.2906992, 37.8252508 ], [ -122.2906815, 37.8253835 ], [ -122.2906712, 37.8255176 ], [ -122.2906682, 37.8256471 ], [ -122.2906708, 37.8257761 ], [ -122.2906818, 37.8259066 ], [ -122.2906982, 37.8260392 ], [ -122.2907225, 37.8261647 ], [ -122.2907547, 37.8263011 ], [ -122.2907923, 37.8264279 ], [ -122.2908375, 37.8265561 ], [ -122.2908856, 37.8266799 ], [ -122.2909423, 37.8268026 ], [ -122.2910044, 37.826923 ], [ -122.291073, 37.8270424 ], [ -122.2911471, 37.8271595 ], [ -122.2912276, 37.827274 ], [ -122.291315, 37.8273874 ], [ -122.2914076, 37.8274961 ], [ -122.2915044, 37.8275991 ], [ -122.2916116, 37.8277043 ], [ -122.2917207, 37.8278025 ], [ -122.291832, 37.8278974 ], [ -122.2921708, 37.828185 ], [ -122.2922833, 37.8282852 ], [ -122.2923898, 37.8283847 ], [ -122.2924929, 37.8284875 ], [ -122.2925897, 37.828596 ], [ -122.2926799, 37.8287058 ], [ -122.2927658, 37.8288195 ], [ -122.2928452, 37.8289332 ], [ -122.2929184, 37.8290507 ], [ -122.2929872, 37.8291718 ], [ -122.2930481, 37.8292953 ], [ -122.293104, 37.8294223 ], [ -122.2931515, 37.8295456 ], [ -122.2931941, 37.8296779 ], [ -122.2932282, 37.8298027 ], [ -122.2932568, 37.8299303 ], [ -122.2932808, 37.8300644 ], [ -122.2933426, 37.8304544 ], [ -122.2934912, 37.8313723 ], [ -122.2935555, 37.8317654 ], [ -122.2935784, 37.8318949 ], [ -122.2936053, 37.8320254 ], [ -122.2936369, 37.8321569 ], [ -122.2936758, 37.8322851 ], [ -122.2937186, 37.8324127 ], [ -122.2937674, 37.8325404 ], [ -122.2938191, 37.8326607 ], [ -122.2938772, 37.8327859 ], [ -122.2939381, 37.8329055 ], [ -122.2940082, 37.833029 ], [ -122.2942142, 37.8333863 ], [ -122.2944889, 37.8338566 ], [ -122.294765, 37.8343269 ], [ -122.2949767, 37.8346897 ], [ -122.2951769, 37.8350588 ], [ -122.295374, 37.8354309 ], [ -122.2958782, 37.8364149 ], [ -122.295878202870156, 37.8364149060545 ] ] } },
{ "type": "Feature", "properties": { "pm_start": 46.164102, "pm_end": 46.24132, "length": 0.077218, "lanes": 3, "on_ramp": true, "off_ramp": false, "on_ramp_name": null, "off_ramp_name": null, "caltrans_pm_start": 35.79700134, "caltrans_pm_end": 35.87421934, "length_warning": "too_short", "fd_vds_id": null, "vds_id": 401143, "vds_pm": 45.28566547, "vds_lanes": 2, "vds_source": "nearest_upstream", "vds_distance_mi": -0.917045531, "vds_n_candidates": 0, "on_ramp_vds_id": null, "off_ramp_vds_id": null, "Notes": null }, "geometry": { "type": "LineString", "coordinates": [ [ -122.295878202870156, 37.8364149060545 ], [ -122.2959933, 37.8366577 ], [ -122.2960971, 37.8368977 ], [ -122.296191, 37.8371592 ], [ -122.296289498183171, 37.837482894029364 ] ] } }
]
}
