{
"type": "FeatureCollection",
"name": "mainline",
"crs": { "type": "name", "properties": { "name": "urn:ogc:def:crs:OGC:1.3:CRS84" } },
"features": [
{ "type": "Feature", "properties": { "u": 257884249, "v": 279690421, "pm_start": 0.0, "pm_end": 0.54846419073974295, "lanes": 3 }, "geometry": { "type": "LineString", "coordinates": [ [ -121.9402897, 37.3156408 ], [ -121.9402662, 37.3159991 ], [ -121.9402514, 37.3161873 ], [ -121.9401896, 37.3170526 ], [ -121.9401556, 37.3175843 ], [ -121.9401443, 37.3179021 ], [ -121.9401372, 37.3182939 ], [ -121.9401448, 37.3186758 ], [ -121.9401601, 37.3190777 ], [ -121.9402083, 37.3197232 ], [ -121.940284, 37.3204254 ], [ -121.9404855, 37.3220197 ], [ -121.9406001, 37.3230311 ], [ -121.9406454, 37.3235584 ] ] } },
{ "type": "Feature", "properties": { "u": 279690421, "v": 289649406, "pm_start": 0.54846419073974295, "pm_end": 0.70992354585216866, "lanes": 4 }, "geometry": { "type": "LineString", "coordinates": [ [ -121.9406454, 37.3235584 ], [ -121.9407312, 37.3247317 ], [ -121.9407398, 37.325288 ], [ -121.940742, 37.3258932 ] ] } },
{ "type": "Feature", "properties": { "u": 289649406, "v": 206680206, "pm_start": 0.70992354585216866, "pm_end": 1.2886708816863366, "lanes": 4 }, "geometry": { "type": "LineString", "coordinates": [ [ -121.940742, 37.3258932 ], [ -121.9407465, 37.3264624 ], [ -121.9407517, 37.3271092 ], [ -121.9407518, 37.327276 ], [ -121.9407514, 37.3279564 ], [ -121.9407538, 37.328777 ], [ -121.9407481, 37.3289577 ], [ -121.9407371, 37.3291234 ], [ -121.9407097, 37.3293606 ], [ -121.9406728, 37.3295817 ], [ -121.9406271, 37.3297971 ], [ -121.9405707, 37.3299912 ], [ -121.9405115, 37.3301661 ], [ -121.9404511, 37.3303366 ], [ -121.9403975, 37.3304776 ], [ -121.9403048, 37.3306791 ], [ -121.9401551, 37.3309502 ], [ -121.9399904, 37.3312274 ], [ -121.9398496, 37.3314337 ], [ -121.9397083, 37.3316294 ], [ -121.9395626, 37.3318021 ], [ -121.9393265, 37.3320462 ], [ -121.9390315, 37.3323201 ], [ -121.9386078, 37.3326751 ], [ -121.9375952, 37.3334505 ] ] } },
{ "type": "Feature", "properties": { "u": 206680206, "v": 5261661337, "pm_start": 1.2886708816863366, "pm_end": 1.3861091144788558, "lanes": 4 }, "geometry": { "type": "LineString", "coordinates": [ [ -121.9375952, 37.3334505 ], [ -121.9369565, 37.3339211 ], [ -121.9365878, 37.3342081 ], [ -121.936298, 37.3344119 ] ] } },
{ "type": "Feature", "properties": { "u": 5261661337, "v": 283018947, "pm_start": 1.3861091144788558, "pm_end": 1.4889808423909392, "lanes": 3 }, "geometry": { "type": "LineString", "coordinates": [ [ -121.936298, 37.3344119 ], [ -121.9361774, 37.3345036 ], [ -121.9349508, 37.335446 ] ] } },
{ "type": "Feature", "properties": { "u": 283018947, "v": 311577375, "pm_start": 1.4889808423909392, "pm_end": 2.0478465698327191, "lanes": 4 }, "geometry": { "type": "LineString", "coordinates": [ [ -121.9349508, 37.335446 ], [ -121.9331061, 37.3368653 ], [ -121.9305938, 37.3389435 ], [ -121.9300064, 37.3394222 ], [ -121.9287699, 37.3403524 ], [ -121.9277191, 37.3411323 ] ] } },
{ "type": "Feature", "properties": { "u": 311577375, "v": 311575955, "pm_start": 2.0478465698327191, "pm_end": 2.2049023252506088, "lanes": 3 }, "geometry": { "type": "LineString", "coordinates": [ [ -121.9277191, 37.3411323 ], [ -121.9266586, 37.3419107 ], [ -121.9264065, 37.3421112 ], [ -121.926149, 37.3423265 ], [ -121.9256981, 37.342737 ] ] } },
{ "type": "Feature", "properties": { "u": 311575955, "v": 33102524, "pm_start": 2.2049023252506088, "pm_end": 2.3650163412508904, "lanes": 4 }, "geometry": { "type": "LineString", "coordinates": [ [ -121.9256981, 37.342737 ], [ -121.9252638, 37.3432349 ], [ -121.9248669, 37.3436806 ], [ -121.9246335, 37.3439322 ], [ -121.9243358, 37.3442222 ], [ -121.9241534, 37.3443864 ], [ -121.9239304, 37.3445757 ] ] } },
{ "type": "Feature", "properties": { "u": 33102524, "v": 245919614, "pm_start": 2.3650163412508904, "pm_end": 2.7226541423683619, "lanes": 4 }, "geometry": { "type": "LineString", "coordinates": [ [ -121.9239304, 37.3445757 ], [ -121.9235928, 37.3448327 ], [ -121.9234278, 37.3449511 ], [ -121.9231743, 37.345133 ], [ -121.9222485, 37.345803 ], [ -121.9217506, 37.3461652 ], [ -121.9215532, 37.3463089 ], [ -121.9200549, 37.3473884 ], [ -121.9191158, 37.3480601 ] ] } },
{ "type": "Feature", "properties": { "u": 245919614, "v": 1912088277, "pm_start": 2.7226541423683619, "pm_end": 3.0675305896474665, "lanes": 3 }, "geometry": { "type": "LineString", "coordinates": [ [ -121.9191158, 37.3480601 ], [ -121.9186495, 37.3483973 ], [ -121.9177403, 37.349054 ], [ -121.9144735, 37.351421 ] ] } },
{ "type": "Feature", "properties": { "u": 1912088277, "v": 245810016, "pm_start": 3.0675305896474665, "pm_end": 3.4844032011313408, "lanes": 3 }, "geometry": { "type": "LineString", "coordinates": [ [ -121.9144735, 37.351421 ], [ -121.9130791, 37.3524707 ], [ -121.9120183, 37.3534308 ], [ -121.9115788, 37.3538683 ], [ -121.9094676, 37.3559439 ] ] } },
{ "type": "Feature", "properties": { "u": 245810016, "v": 4977823052, "pm_start": 3.4844032011313408, "pm_end": 3.6521035915164513, "lanes": 3 }, "geometry": { "type": "LineString", "coordinates": [ [ -121.9094676, 37.3559439 ], [ -121.9075579, 37.3578378 ] ] } },
{ "type": "Feature", "properties": { "u": 4977823052, "v": 4977823050, "pm_start": 3.6521035915164513, "pm_end": 3.8680442620365594, "lanes": 3 }, "geometry": { "type": "LineString", "coordinates": [ [ -121.9075579, 37.3578378 ], [ -121.9072049, 37.3581974 ], [ -121.9069659, 37.3584318 ], [ -121.9050911, 37.3602715 ] ] } },
{ "type": "Feature", "properties": { "u": 4977823050, "v": 4977823048, "pm_start": 3.8680442620365594, "pm_end": 4.0393594037716483, "lanes": 4 }, "geometry": { "type": "LineString", "coordinates": [ [ -121.9050911, 37.3602715 ], [ -121.9047036, 37.360681 ], [ -121.9045457, 37.3608365 ], [ -121.9031455, 37.3622093 ] ] } },
{ "type": "Feature", "properties": { "u": 4977823048, "v": 65401606, "pm_start": 4.0393594037716483, "pm_end": 4.1583905333465365, "lanes": 4 }, "geometry": { "type": "LineString", "coordinates": [ [ -121.9031455, 37.3622093 ], [ -121.9030088, 37.3623471 ], [ -121.902779, 37.362612 ], [ -121.9025759, 37.3628598 ], [ -121.9022906, 37.3632532 ], [ -121.902109, 37.3635197 ], [ -121.9020063, 37.3636718 ] ] } },
{ "type": "Feature", "properties": { "u": 65401606, "v": 65394535, "pm_start": 4.1583905333465365, "pm_end": 4.2191036385660095, "lanes": 4 }, "geometry": { "type": "LineString", "coordinates": [ [ -121.9020063, 37.3636718 ], [ -121.9019499, 37.3637771 ], [ -121.9017698, 37.3641134 ], [ -121.9015937, 37.3644868 ] ] } },
{ "type": "Feature", "properties": { "u": 65394535, "v": 3742063554, "pm_start": 4.2191036385660095, "pm_end": 4.3379835431508482, "lanes": 3 }, "geometry": { "type": "LineString", "coordinates": [ [ -121.9015937, 37.3644868 ], [ -121.9015347, 37.3646209 ], [ -121.901502, 37.3646986 ], [ -121.9014106, 37.3649459 ], [ -121.9012848, 37.365304 ], [ -121.9012365, 37.3654916 ], [ -121.9011775, 37.3657496 ], [ -121.9011043, 37.3661588 ] ] } },
{ "type": "Feature", "properties": { "u": 3742063554, "v": 33102541, "pm_start": 4.3379835431508482, "pm_end": 4.4440901628479823, "lanes": 3 }, "geometry": { "type": "LineString", "coordinates": [ [ -121.9011043, 37.3661588 ], [ -121.9010847, 37.3662969 ], [ -121.9010737, 37.3663742 ], [ -121.9010228, 37.3669246 ], [ -121.9010184, 37.3671512 ], [ -121.9010207, 37.3674586 ], [ -121.9010237, 37.3676916 ] ] } },
{ "type": "Feature", "properties": { "u": 33102541, "v": 65405085, "pm_start": 4.4440901628479823, "pm_end": 4.7042306991758229, "lanes": 3 }, "geometry": { "type": "LineString", "coordinates": [ [ -121.9010237, 37.3676916 ], [ -121.9010633, 37.3681154 ], [ -121.9011101, 37.3684367 ], [ -121.9011743, 37.368729 ], [ -121.9017409, 37.3712635 ], [ -121.9017775, 37.3714063 ] ] } },
{ "type": "Feature", "properties": { "u": 65405085, "v": 65410005, "pm_start": 4.7042306991758229, "pm_end": 5.1823740706761097, "lanes": 3 }, "geometry": { "type": "LineString", "coordinates": [ [ -121.9017775, 37.3714063 ], [ -121.9019047, 37.3720081 ], [ -121.9019946, 37.3724303 ], [ -121.9027059, 37.3753497 ], [ -121.903368, 37.3782099 ] ] } },
{ "type": "Feature", "properties": { "u": 65410005, "v": 312714757, "pm_start": 5.1823740706761097, "pm_end": 5.4883805353663675, "lanes": 4 }, "geometry": { "type": "LineString", "coordinates": [ [ -121.903368, 37.3782099 ], [ -121.9037128, 37.3795544 ], [ -121.9042401, 37.3819101 ], [ -121.9043626, 37.382567 ] ] } },
{ "type": "Feature", "properties": { "u": 312714757, "v": 258474804, "pm_start": 5.4883805353663675, "pm_end": 6.4813402950921475, "lanes": 4 }, "geometry": { "type": "LineString", "coordinates": [ [ -121.9043626, 37.382567 ], [ -121.9046168, 37.3835313 ], [ -121.9054418, 37.3870166 ], [ -121.9069223, 37.3932819 ], [ -121.9076988, 37.3966914 ] ] } },
{ "type": "Feature", "properties": { "u": 258474804, "v": 1080573699, "pm_start": 6.4813402950921475, "pm_end": 7.1870898154608174, "lanes": 4 }, "geometry": { "type": "LineString", "coordinates": [ [ -121.9076988, 37.3966914 ], [ -121.9089823, 37.4020269 ], [ -121.9096938, 37.4050625 ], [ -121.9098942, 37.4059175 ], [ -121.9100861, 37.4067282 ] ] } },
{ "type": "Feature", "properties": { "u": 1080573699, "v": 247138149, "pm_start": 7.1870898154608174, "pm_end": 7.4779109049882626, "lanes": 5 }, "geometry": { "type": "LineString", "coordinates": [ [ -121.9100861, 37.4067282 ], [ -121.9107858, 37.4093154 ], [ -121.911289, 37.4108263 ] ] } },
{ "type": "Feature", "properties": { "u": 247138149, "v": 311912822, "pm_start": 7.4779109049882626, "pm_end": 7.8862997034093336, "lanes": 4 }, "geometry": { "type": "LineString", "coordinates": [ [ -121.911289, 37.4108263 ], [ -121.9124745, 37.4142819 ], [ -121.9132415, 37.4165299 ] ] } },
{ "type": "Feature", "properties": { "u": 311912822, "v": 1700446579, "pm_start": 7.8862997034093336, "pm_end": 8.2518157334367732, "lanes": 5 }, "geometry": { "type": "LineString", "coordinates": [ [ -121.9132415, 37.4165299 ], [ -121.9143133, 37.4196818 ], [ -121.914992, 37.4216341 ] ] } },
{ "type": "Feature", "properties": { "u": 1700446579, "v": 251911884, "pm_start": 8.2518157334367732, "pm_end": 8.6184722524742554, "lanes": 4 }, "geometry": { "type": "LineString", "coordinates": [ [ -121.914992, 37.4216341 ], [ -121.9150237, 37.4217354 ], [ -121.915882, 37.4242745 ], [ -121.9163165, 37.4255057 ], [ -121.9167296, 37.4267581 ] ] } },
{ "type": "Feature", "properties": { "u": 251911884, "v": 65414355, "pm_start": 8.6184722524742554, "pm_end": 8.856621065185541, "lanes": 4 }, "geometry": { "type": "LineString", "coordinates": [ [ -121.9167296, 37.4267581 ], [ -121.9168422, 37.4270607 ], [ -121.9169763, 37.4273802 ], [ -121.9171147, 37.427709 ], [ -121.9173833, 37.4282618 ], [ -121.9177047, 37.4289102 ], [ -121.9179193, 37.4294384 ], [ -121.9181124, 37.430022 ] ] } },
{ "type": "Feature", "properties": { "u": 65414355, "v": 248102910, "pm_start": 8.856621065185541, "pm_end": 9.1275989626986718, "lanes": 4 }, "geometry": { "type": "LineString", "coordinates": [ [ -121.9181124, 37.430022 ], [ -121.9182895, 37.4306439 ], [ -121.9184128, 37.4312446 ], [ -121.9184879, 37.4317132 ], [ -121.918783, 37.433904 ] ] } },
{ "type": "Feature", "properties": { "u": 248102910, "v": 1068655670, "pm_start": 9.1275989626986718, "pm_end": 9.3588977249213503, "lanes": 6 }, "geometry": { "type": "LineString", "coordinates": [ [ -121.918783, 37.433904 ], [ -121.9190255, 37.4353799 ], [ -121.9193604, 37.43722 ] ] } },
{ "type": "Feature", "properties": { "u": 1068655670, "v": 1688870550, "pm_start": 9.3588977249213503, "pm_end": 10.135147318428425, "lanes": 6 }, "geometry": { "type": "LineString", "coordinates": [ [ -121.9193604, 37.43722 ], [ -121.9201482, 37.4411947 ], [ -121.920335, 37.4421463 ], [ -121.9206075, 37.4434487 ], [ -121.921518, 37.4477128 ], [ -121.9216274, 37.4483094 ] ] } },
{ "type": "Feature", "properties": { "u": 1688870550, "v": 1080458114, "pm_start": 10.135147318428425, "pm_end": 10.905513736785412, "lanes": 5 }, "geometry": { "type": "LineString", "coordinates": [ [ -121.9216274, 37.4483094 ], [ -121.9219784, 37.4500886 ], [ -121.9223461, 37.451952 ], [ -121.9226411, 37.4534979 ], [ -121.9227464, 37.4539839 ], [ -121.9230199, 37.4553721 ], [ -121.923315, 37.45682 ], [ -121.9234008, 37.4572288 ], [ -121.9235081, 37.4576206 ], [ -121.9236368, 37.4580336 ], [ -121.9237549, 37.4583913 ], [ -121.9239212, 37.4588171 ], [ -121.9240498, 37.4592838 ] ] } },
{ "type": "Feature", "properties": { "u": 1080458114, "v": 13319043533, "pm_start": 10.905513736785412, "pm_end": 11.627741486997353, "lanes": 6 }, "geometry": { "type": "LineString", "coordinates": [ [ -121.9240498, 37.4592838 ], [ -121.9251445, 37.4615287 ], [ -121.9259467, 37.4630493 ], [ -121.9282373, 37.4677584 ], [ -121.9288607, 37.4690137 ] ] } },
{ "type": "Feature", "properties": { "u": 13319043533, "v": 258131276, "pm_start": 11.627741486997353, "pm_end": 12.22303301080805, "lanes": 5 }, "geometry": { "type": "LineString", "coordinates": [ [ -121.9288607, 37.4690137 ], [ -121.9297208, 37.4707753 ], [ -121.9320536, 37.4755529 ], [ -121.9328198, 37.4770358 ] ] } },
{ "type": "Feature", "properties": { "u": 258131276, "v": 257365586, "pm_start": 12.22303301080805, "pm_end": 12.486684663778158, "lanes": 3 }, "geometry": { "type": "LineString", "coordinates": [ [ -121.9328198, 37.4770358 ], [ -121.9346045, 37.4805791 ] ] } },
{ "type": "Feature", "properties": { "u": 257365586, "v": 1316891063, "pm_start": 12.486684663778158, "pm_end": 12.898275118722669, "lanes": 3 }, "geometry": { "type": "LineString", "coordinates": [ [ -121.9346045, 37.4805791 ], [ -121.9348406, 37.4810201 ], [ -121.9349823, 37.4812799 ], [ -121.935127, 37.4815302 ], [ -121.935289, 37.4817827 ], [ -121.935467, 37.4820517 ], [ -121.9356347, 37.4823192 ], [ -121.9358381, 37.4825787 ], [ -121.9360245, 37.4828182 ], [ -121.9362101, 37.4830423 ], [ -121.9364166, 37.4832813 ], [ -121.9366255, 37.4834956 ], [ -121.936832, 37.4837155 ], [ -121.9370805, 37.483949 ], [ -121.9373283, 37.4841716 ], [ -121.9375845, 37.4843912 ], [ -121.9378431, 37.4846005 ], [ -121.9380385, 37.4847488 ], [ -121.9388739, 37.4854063 ] ] } },
{ "type": "Feature", "properties": { "u": 1316891063, "v": 53013990, "pm_start": 12.898275118722669, "pm_end": 13.034014153996212, "lanes": 3 }, "geometry": { "type": "LineString", "coordinates": [ [ -121.9388739, 37.4854063 ], [ -121.9406517, 37.4867736 ] ] } },
{ "type": "Feature", "properties": { "u": 53013990, "v": 53003583, "pm_start": 13.034014153996212, "pm_end": 13.384403511365081, "lanes": 4 }, "geometry": { "type": "LineString", "coordinates": [ [ -121.9406517, 37.4867736 ], [ -121.9418066, 37.4876648 ], [ -121.9435661, 37.4890166 ], [ -121.9452337, 37.490309 ] ] } },
{ "type": "Feature", "properties": { "u": 53003583, "v": 257396637, "pm_start": 13.384403511365081, "pm_end": 13.724622312318358, "lanes": 3 }, "geometry": { "type": "LineString", "coordinates": [ [ -121.9452337, 37.490309 ], [ -121.9472841, 37.4918675 ], [ -121.9496959, 37.4937311 ] ] } },
{ "type": "Feature", "properties": { "u": 257396637, "v": 53006862, "pm_start": 13.724622312318358, "pm_end": 13.880323532200173, "lanes": 3 }, "geometry": { "type": "LineString", "coordinates": [ [ -121.9496959, 37.4937311 ], [ -121.9517307, 37.4953033 ] ] } },
{ "type": "Feature", "properties": { "u": 53006862, "v": 13319043530, "pm_start": 13.880323532200173, "pm_end": 14.072136918381576, "lanes": 4 }, "geometry": { "type": "LineString", "coordinates": [ [ -121.9517307, 37.4953033 ], [ -121.9540721, 37.4970656 ], [ -121.9542676, 37.4972153 ] ] } },
{ "type": "Feature", "properties": { "u": 13319043530, "v": 13319043532, "pm_start": 14.072136918381576, "pm_end": 14.437835653090627, "lanes": 4 }, "geometry": { "type": "LineString", "coordinates": [ [ -121.9542676, 37.4972153 ], [ -121.9573482, 37.499601 ], [ -121.9590389, 37.5009146 ] ] } },
{ "type": "Feature", "properties": { "u": 13319043532, "v": 257395936, "pm_start": 14.437835653090627, "pm_end": 14.75883527924508, "lanes": 4 }, "geometry": { "type": "LineString", "coordinates": [ [ -121.9590389, 37.5009146 ], [ -121.9590828, 37.5009491 ], [ -121.9632482, 37.5041446 ] ] } },
{ "type": "Feature", "properties": { "u": 257395936, "v": 257396024, "pm_start": 14.75883527924508, "pm_end": 15.14776035631381, "lanes": 3 }, "geometry": { "type": "LineString", "coordinates": [ [ -121.9632482, 37.5041446 ], [ -121.9664321, 37.5067042 ], [ -121.9682329, 37.5081507 ] ] } },
{ "type": "Feature", "properties": { "u": 257396024, "v": 257395669, "pm_start": 15.14776035631381, "pm_end": 15.34221338512625, "lanes": 3 }, "geometry": { "type": "LineString", "coordinates": [ [ -121.9682329, 37.5081507 ], [ -121.9707069, 37.5101679 ] ] } },
{ "type": "Feature", "properties": { "u": 257395669, "v": 257395447, "pm_start": 15.34221338512625, "pm_end": 16.324027660926589, "lanes": 3 }, "geometry": { "type": "LineString", "coordinates": [ [ -121.9707069, 37.5101679 ], [ -121.9718941, 37.5111297 ], [ -121.9721369, 37.5113188 ], [ -121.9751079, 37.5137085 ], [ -121.9822259, 37.5194484 ], [ -121.9827663, 37.5198645 ], [ -121.9833101, 37.5202658 ] ] } },
{ "type": "Feature", "properties": { "u": 257395447, "v": 13319043595, "pm_start": 16.324027660926589, "pm_end": 16.371003590110007, "lanes": 3 }, "geometry": { "type": "LineString", "coordinates": [ [ -121.9833101, 37.5202658 ], [ -121.9837805, 37.520568 ], [ -121.983981, 37.5206889 ] ] } },
{ "type": "Feature", "properties": { "u": 13319043595, "v": 257395440, "pm_start": 16.371003590110007, "pm_end": 16.672627518177283, "lanes": 3 }, "geometry": { "type": "LineString", "coordinates": [ [ -121.983981, 37.5206889 ], [ -121.9843579, 37.5209052 ], [ -121.9849686, 37.5212486 ], [ -121.9855747, 37.5215608 ], [ -121.9886083, 37.5230499 ] ] } },
{ "type": "Feature", "properties": { "u": 257395440, "v": 53013547, "pm_start": 16.672627518177283, "pm_end": 16.834331681739418, "lanes": 3 }, "geometry": { "type": "LineString", "coordinates": [ [ -121.9886083, 37.5230499 ], [ -121.9910997, 37.5243041 ] ] } },
{ "type": "Feature", "properties": { "u": 53013547, "v": 257395058, "pm_start": 16.834331681739418, "pm_end": 17.317284125993982, "lanes": 5 }, "geometry": { "type": "LineString", "coordinates": [ [ -121.9910997, 37.5243041 ], [ -121.9966334, 37.5270065 ], [ -121.9975559, 37.5274581 ], [ -121.9986032, 37.5279709 ] ] } },
{ "type": "Feature", "properties": { "u": 257395058, "v": 257395031, "pm_start": 17.317284125993982, "pm_end": 17.639585054890652, "lanes": 4 }, "geometry": { "type": "LineString", "coordinates": [ [ -121.9986032, 37.5279709 ], [ -121.9989273, 37.5281417 ], [ -121.9997092, 37.5285546 ], [ -122.0004717, 37.5289699 ], [ -122.0034734, 37.5305866 ] ] } },
{ "type": "Feature", "properties": { "u": 257395031, "v": 257395023, "pm_start": 17.639585054890652, "pm_end": 17.81595572603538, "lanes": 4 }, "geometry": { "type": "LineString", "coordinates": [ [ -122.0034734, 37.5305866 ], [ -122.0051031, 37.5314718 ], [ -122.0061082, 37.5320525 ] ] } },
{ "type": "Feature", "properties": { "u": 257395023, "v": 53016700, "pm_start": 17.81595572603538, "pm_end": 18.96885570751089, "lanes": 5 }, "geometry": { "type": "LineString", "coordinates": [ [ -122.0061082, 37.5320525 ], [ -122.0128179, 37.5356572 ], [ -122.0134006, 37.5359813 ], [ -122.0139531, 37.536311 ], [ -122.0144815, 37.5366662 ], [ -122.0150314, 37.5370809 ], [ -122.0155222, 37.5374893 ], [ -122.0159836, 37.5379062 ], [ -122.01641, 37.5383443 ], [ -122.0168124, 37.5388122 ], [ -122.0171423, 37.5392269 ], [ -122.0174582, 37.5396417 ], [ -122.020506, 37.5437682 ] ] } },
{ "type": "Feature", "properties": { "u": 53016700, "v": 257394434, "pm_start": 18.96885570751089, "pm_end": 19.293529750845323, "lanes": 4 }, "geometry": { "type": "LineString", "coordinates": [ [ -122.020506, 37.5437682 ], [ -122.0215592, 37.545115 ], [ -122.0235655, 37.5477925 ] ] } },
{ "type": "Feature", "properties": { "u": 257394434, "v": 53002300, "pm_start": 19.293529750845323, "pm_end": 19.508118809835171, "lanes": 4 }, "geometry": { "type": "LineString", "coordinates": [ [ -122.0235655, 37.5477925 ], [ -122.0255691, 37.5504613 ] ] } },
{ "type": "Feature", "properties": { "u": 53002300, "v": 295570836, "pm_start": 19.508118809835171, "pm_end": 20.364195199770883, "lanes": 5 }, "geometry": { "type": "LineString", "coordinates": [ [ -122.0255691, 37.5504613 ], [ -122.0272857, 37.5527642 ], [ -122.0275153, 37.5530639 ], [ -122.0277674, 37.5533829 ], [ -122.0280115, 37.5536848 ], [ -122.0282851, 37.5540123 ], [ -122.0285372, 37.5542972 ], [ -122.0288188, 37.5545971 ], [ -122.0290924, 37.5548777 ], [ -122.029378, 37.555161 ], [ -122.034907, 37.5603566 ] ] } },
{ "type": "Feature", "properties": { "u": 295570836, "v": 32785488, "pm_start": 20.364195199770883, "pm_end": 20.711066522375688, "lanes": 4 }, "geometry": { "type": "LineString", "coordinates": [ [ -122.034907, 37.5603566 ], [ -122.0378511, 37.5630834 ], [ -122.0390232, 37.564172 ] ] } },
{ "type": "Feature", "properties": { "u": 32785488, "v": 257360302, "pm_start": 20.711066522375688, "pm_end": 20.920659939569873, "lanes": 4 }, "geometry": { "type": "LineString", "coordinates": [ [ -122.0390232, 37.564172 ], [ -122.0414861, 37.5664938 ] ] } },
{ "type": "Feature", "properties": { "u": 257360302, "v": 257391915, "pm_start": 20.920659939569873, "pm_end": 21.620557925783363, "lanes": 4 }, "geometry": { "type": "LineString", "coordinates": [ [ -122.0414861, 37.5664938 ], [ -122.0426428, 37.5675469 ], [ -122.0429646, 37.5678621 ], [ -122.0433447, 37.5682693 ], [ -122.0437385, 37.5686941 ], [ -122.044055, 37.5690768 ], [ -122.0443903, 37.5695084 ], [ -122.0446934, 37.5699357 ], [ -122.0449697, 37.5703587 ], [ -122.0452164, 37.5707839 ], [ -122.0454525, 37.571224 ], [ -122.0456778, 37.5716768 ], [ -122.0458763, 37.5721339 ], [ -122.0460694, 37.5726249 ], [ -122.0462062, 37.573014 ], [ -122.0470139, 37.5754603 ] ] } },
{ "type": "Feature", "properties": { "u": 257391915, "v": 721472846, "pm_start": 21.620557925783363, "pm_end": 22.072246448910022, "lanes": 4 }, "geometry": { "type": "LineString", "coordinates": [ [ -122.0470139, 37.5754603 ], [ -122.0475536, 37.576953 ], [ -122.0480096, 37.5782752 ], [ -122.0487945, 37.5806156 ], [ -122.0489635, 37.5810663 ], [ -122.0491432, 37.5815212 ], [ -122.0492352, 37.5817555 ] ] } },
{ "type": "Feature", "properties": { "u": 721472846, "v": 720615761, "pm_start": 22.072246448910022, "pm_end": 23.134878690132474, "lanes": 4 }, "geometry": { "type": "LineString", "coordinates": [ [ -122.0492352, 37.5817555 ], [ -122.0498164, 37.5829836 ], [ -122.0500337, 37.5833874 ], [ -122.050267, 37.5838019 ], [ -122.0505274, 37.5842364 ], [ -122.0507929, 37.5846552 ], [ -122.0510719, 37.5850675 ], [ -122.0563826, 37.5925192 ], [ -122.0583625, 37.595308 ] ] } },
{ "type": "Feature", "properties": { "u": 720615761, "v": 52982404, "pm_start": 23.134878690132474, "pm_end": 23.545269370834379, "lanes": 4 }, "geometry": { "type": "LineString", "coordinates": [ [ -122.0583625, 37.595308 ], [ -122.0584877, 37.5954599 ], [ -122.0588537, 37.5959792 ], [ -122.0602906, 37.597998 ], [ -122.0620222, 37.6004912 ] ] } },
{ "type": "Feature", "properties": { "u": 52982404, "v": 720618433, "pm_start": 23.545269370834379, "pm_end": 23.808398402993763, "lanes": 5 }, "geometry": { "type": "LineString", "coordinates": [ [ -122.0620222, 37.6004912 ], [ -122.0633671, 37.6023098 ], [ -122.0643875, 37.6038059 ] ] } },
{ "type": "Feature", "properties": { "u": 720618433, "v": 13264710307, "pm_start": 23.808398402993763, "pm_end": 24.253221083573237, "lanes": 5 }, "geometry": { "type": "LineString", "coordinates": [ [ -122.0643875, 37.6038059 ], [ -122.0664523, 37.6066417 ], [ -122.0667017, 37.6069902 ], [ -122.0674205, 37.6079973 ], [ -122.0678255, 37.6085647 ], [ -122.0682297, 37.6091562 ], [ -122.068395, 37.6094062 ] ] } },
{ "type": "Feature", "properties": { "u": 13264710307, "v": 257391140, "pm_start": 24.253221083573237, "pm_end": 24.38213246266281, "lanes": 4 }, "geometry": { "type": "LineString", "coordinates": [ [ -122.068395, 37.6094062 ], [ -122.0695491, 37.6110326 ] ] } },
{ "type": "Feature", "properties": { "u": 257391140, "v": 33155441, "pm_start": 24.38213246266281, "pm_end": 25.109979606414615, "lanes": 3 }, "geometry": { "type": "LineString", "coordinates": [ [ -122.0695491, 37.6110326 ], [ -122.070386, 37.6121959 ], [ -122.0714133, 37.6136333 ], [ -122.0716506, 37.6139796 ], [ -122.0720825, 37.6145735 ], [ -122.0723492, 37.6149477 ], [ -122.0732919, 37.616251 ], [ -122.074354, 37.6177211 ], [ -122.0751776, 37.6188727 ], [ -122.0760932, 37.6202028 ] ] } },
{ "type": "Feature", "properties": { "u": 33155441, "v": 8672211521, "pm_start": 25.109979606414615, "pm_end": 25.653333623500323, "lanes": 4 }, "geometry": { "type": "LineString", "coordinates": [ [ -122.0760932, 37.6202028 ], [ -122.0772214, 37.6217811 ], [ -122.08098, 37.6270484 ] ] } },
{ "type": "Feature", "properties": { "u": 8672211521, "v": 33154450, "pm_start": 25.653333623500323, "pm_end": 25.728112548860462, "lanes": 5 }, "geometry": { "type": "LineString", "coordinates": [ [ -122.08098, 37.6270484 ], [ -122.0816779, 37.6279789 ] ] } },
{ "type": "Feature", "properties": { "u": 33154450, "v": 33154454, "pm_start": 25.728112548860462, "pm_end": 26.226391684817099, "lanes": 3 }, "geometry": { "type": "LineString", "coordinates": [ [ -122.0816779, 37.6279789 ], [ -122.0842901, 37.631628 ], [ -122.0843539, 37.6317171 ], [ -122.0844258, 37.6318175 ], [ -122.0861328, 37.6342685 ] ] } },
{ "type": "Feature", "properties": { "u": 33154454, "v": 33144561, "pm_start": 26.226391684817099, "pm_end": 26.734478065646201, "lanes": 4 }, "geometry": { "type": "LineString", "coordinates": [ [ -122.0861328, 37.6342685 ], [ -122.090709, 37.6406672 ] ] } },
{ "type": "Feature", "properties": { "u": 33144561, "v": 3974818880, "pm_start": 26.734478065646201, "pm_end": 27.262932998568466, "lanes": 3 }, "geometry": { "type": "LineString", "coordinates": [ [ -122.090709, 37.6406672 ], [ -122.092121, 37.6425969 ], [ -122.0935265, 37.6445742 ], [ -122.0940951, 37.6453716 ], [ -122.0950017, 37.6466236 ], [ -122.0954686, 37.6473221 ] ] } },
{ "type": "Feature", "properties": { "u": 3974818880, "v": 33153573, "pm_start": 27.262932998568466, "pm_end": 27.317293664751894, "lanes": 5 }, "geometry": { "type": "LineString", "coordinates": [ [ -122.0954686, 37.6473221 ], [ -122.0959594, 37.6480062 ] ] } },
{ "type": "Feature", "properties": { "u": 33153573, "v": 13264710303, "pm_start": 27.317293664751894, "pm_end": 27.669437345457599, "lanes": 5 }, "geometry": { "type": "LineString", "coordinates": [ [ -122.0959594, 37.6480062 ], [ -122.0962124, 37.6483432 ], [ -122.0964961, 37.6487284 ], [ -122.0966685, 37.6489654 ], [ -122.0968246, 37.6491893 ], [ -122.0971599, 37.6496883 ], [ -122.0975045, 37.6502486 ], [ -122.0989249, 37.6525272 ] ] } },
{ "type": "Feature", "properties": { "u": 13264710303, "v": 257389901, "pm_start": 27.669437345457599, "pm_end": 27.679722406746837, "lanes": 6 }, "geometry": { "type": "LineString", "coordinates": [ [ -122.0989249, 37.6525272 ], [ -122.0990073, 37.652661 ] ] } },
{ "type": "Feature", "properties": { "u": 257389901, "v": 298394145, "pm_start": 27.679722406746837, "pm_end": 28.261569258586878, "lanes": 5 }, "geometry": { "type": "LineString", "coordinates": [ [ -122.0990073, 37.652661 ], [ -122.0995873, 37.6535639 ], [ -122.101261, 37.6562799 ], [ -122.1036731, 37.6602286 ] ] } },
{ "type": "Feature", "properties": { "u": 298394145, "v": 257389826, "pm_start": 28.261569258586878, "pm_end": 28.529337452347583, "lanes": 5 }, "geometry": { "type": "LineString", "coordinates": [ [ -122.1036731, 37.6602286 ], [ -122.105836, 37.6637053 ] ] } },
{ "type": "Feature", "properties": { "u": 257389826, "v": 257389827, "pm_start": 28.529337452347583, "pm_end": 28.990659252719592, "lanes": 5 }, "geometry": { "type": "LineString", "coordinates": [ [ -122.105836, 37.6637053 ], [ -122.1073281, 37.6661152 ], [ -122.1075702, 37.6664728 ], [ -122.1095657, 37.6696936 ] ] } },
{ "type": "Feature", "properties": { "u": 257389827, "v": 343861492, "pm_start": 28.990659252719592, "pm_end": 30.385215484269914, "lanes": 5 }, "geometry": { "type": "LineString", "coordinates": [ [ -122.1095657, 37.6696936 ], [ -122.1099508, 37.6702972 ], [ -122.1102122, 37.6706999 ], [ -122.1104497, 37.6710402 ], [ -122.1107393, 37.6714096 ], [ -122.111038, 37.6717535 ], [ -122.1113214, 37.6720635 ], [ -122.111654, 37.6724011 ], [ -122.1119705, 37.6726962 ], [ -122.1123165, 37.6729977 ], [ -122.1126544, 37.6732715 ], [ -122.113046, 37.6735666 ], [ -122.1134055, 37.6738235 ], [ -122.1139955, 37.6742269 ], [ -122.1144032, 37.6745113 ], [ -122.1147385, 37.6747619 ], [ -122.1150492, 37.6749984 ], [ -122.1151482, 37.6750964 ], [ -122.1163713, 37.6760411 ], [ -122.1168085, 37.6763659 ], [ -122.1171921, 37.6766398 ], [ -122.1176159, 37.6769306 ], [ -122.1180665, 37.6772214 ], [ -122.1191662, 37.6779029 ], [ -122.1196061, 37.6781767 ], [ -122.1200325, 37.6784463 ], [ -122.120459, 37.6787265 ], [ -122.1236709, 37.6809472 ], [ -122.1240022, 37.6811762 ], [ -122.1276513, 37.6837267 ] ] } },
{ "type": "Feature", "properties": { "u": 343861492, "v": 242855731, "pm_start": 30.385215484269914, "pm_end": 30.518357019199076, "lanes": 6 }, "geometry": { "type": "LineString", "coordinates": [ [ -122.1276513, 37.6837267 ], [ -122.1288758, 37.684528 ], [ -122.1289442, 37.6845732 ], [ -122.1291994, 37.6847523 ], [ -122.1295141, 37.6849674 ] ] } },
{ "type": "Feature", "properties": { "u": 242855731, "v": 38503213, "pm_start": 30.518357019199076, "pm_end": 30.89398259399886, "lanes": 4 }, "geometry": { "type": "LineString", "coordinates": [ [ -122.1295141, 37.6849674 ], [ -122.1301713, 37.6854174 ], [ -122.1318864, 37.6865881 ], [ -122.1321455, 37.6867678 ], [ -122.13388, 37.687962 ], [ -122.1347032, 37.68853 ] ] } },
{ "type": "Feature", "properties": { "u": 38503213, "v": 38503223, "pm_start": 30.89398259399886, "pm_end": 30.962763177271995, "lanes": 5 }, "geometry": { "type": "LineString", "coordinates": [ [ -122.1347032, 37.68853 ], [ -122.1350802, 37.6887908 ], [ -122.1356496, 37.6891858 ] ] } },
{ "type": "Feature", "properties": { "u": 38503223, "v": 242584794, "pm_start": 30.962763177271995, "pm_end": 31.426418604770998, "lanes": 4 }, "geometry": { "type": "LineString", "coordinates": [ [ -122.1356496, 37.6891858 ], [ -122.1372312, 37.6902795 ], [ -122.1385763, 37.6912055 ], [ -122.1407719, 37.6927268 ], [ -122.1420237, 37.6936118 ] ] } },
{ "type": "Feature", "properties": { "u": 242584794, "v": 38503240, "pm_start": 31.426418604770998, "pm_end": 33.028135178641811, "lanes": 5 }, "geometry": { "type": "LineString", "coordinates": [ [ -122.1420237, 37.6936118 ], [ -122.1437311, 37.6947925 ], [ -122.1465108, 37.6967145 ], [ -122.1486554, 37.6981972 ], [ -122.1503052, 37.6993364 ], [ -122.1518223, 37.7003851 ], [ -122.1562497, 37.7034439 ], [ -122.1591907, 37.7054773 ], [ -122.1600439, 37.7060664 ], [ -122.162195, 37.707552 ], [ -122.1638116, 37.7086541 ], [ -122.1641026, 37.7088509 ] ] } },
{ "type": "Feature", "properties": { "u": 38503240, "v": 1316693137, "pm_start": 33.028135178641811, "pm_end": 33.144823494456375, "lanes": 5 }, "geometry": { "type": "LineString", "coordinates": [ [ -122.1641026, 37.7088509 ], [ -122.1652224, 37.7096222 ], [ -122.1656923, 37.7099775 ] ] } },
{ "type": "Feature", "properties": { "u": 1316693137, "v": 38503247, "pm_start": 33.144823494456375, "pm_end": 33.39320919368749, "lanes": 4 }, "geometry": { "type": "LineString", "coordinates": [ [ -122.1656923, 37.7099775 ], [ -122.1686514, 37.7119786 ], [ -122.1691341, 37.7123245 ] ] } },
{ "type": "Feature", "properties": { "u": 38503247, "v": 242460445, "pm_start": 33.39320919368749, "pm_end": 33.663091837047276, "lanes": 5 }, "geometry": { "type": "LineString", "coordinates": [ [ -122.1691341, 37.7123245 ], [ -122.1704941, 37.7133126 ], [ -122.1707622, 37.7135074 ], [ -122.1712692, 37.7139275 ], [ -122.17176, 37.714354 ], [ -122.1721543, 37.7147274 ], [ -122.172559, 37.7151285 ] ] } },
{ "type": "Feature", "properties": { "u": 242460445, "v": 242414017, "pm_start": 33.663091837047276, "pm_end": 34.135828157637512, "lanes": 4 }, "geometry": { "type": "LineString", "coordinates": [ [ -122.172559, 37.7151285 ], [ -122.1729979, 37.715559 ], [ -122.1748419, 37.717369 ], [ -122.1770574, 37.7195353 ], [ -122.1779532, 37.7204762 ] ] } },
{ "type": "Feature", "properties": { "u": 242414017, "v": 1316698418, "pm_start": 34.135828157637512, "pm_end": 34.888317165390944, "lanes": 4 }, "geometry": { "type": "LineString", "coordinates": [ [ -122.1779532, 37.7204762 ], [ -122.1783025, 37.7208115 ], [ -122.1799109, 37.7223555 ], [ -122.1816597, 37.7240867 ], [ -122.1820003, 37.724424 ], [ -122.1823517, 37.7247826 ], [ -122.1826923, 37.7251517 ], [ -122.1831054, 37.7256057 ], [ -122.1834916, 37.726047 ], [ -122.1854764, 37.7283233 ], [ -122.1862199, 37.7291766 ] ] } },
{ "type": "Feature", "properties": { "u": 1316698418, "v": 242199573, "pm_start": 34.888317165390944, "pm_end": 35.151393921146607, "lanes": 4 }, "geometry": { "type": "LineString", "coordinates": [ [ -122.1862199, 37.7291766 ], [ -122.1872798, 37.7304206 ], [ -122.1889241, 37.7323267 ] ] } },
{ "type": "Feature", "properties": { "u": 242199573, "v": 38503280, "pm_start": 35.151393921146607, "pm_end": 35.358783286104504, "lanes": 5 }, "geometry": { "type": "LineString", "coordinates": [ [ -122.1889241, 37.7323267 ], [ -122.1910842, 37.7347947 ] ] } },
{ "type": "Feature", "properties": { "u": 38503280, "v": 242106025, "pm_start": 35.358783286104504, "pm_end": 35.558533402771481, "lanes": 5 }, "geometry": { "type": "LineString", "coordinates": [ [ -122.1910842, 37.7347947 ], [ -122.193198, 37.7371534 ] ] } },
{ "type": "Feature", "properties": { "u": 242106025, "v": 241334544, "pm_start": 35.558533402771481, "pm_end": 35.950249559542833, "lanes": 4 }, "geometry": { "type": "LineString", "coordinates": [ [ -122.193198, 37.7371534 ], [ -122.1959318, 37.740282 ], [ -122.1972982, 37.7418039 ] ] } },
{ "type": "Feature", "properties": { "u": 241334544, "v": 241334543, "pm_start": 35.950249559542833, "pm_end": 36.013192809774615, "lanes": 4 }, "geometry": { "type": "LineString", "coordinates": [ [ -122.1972982, 37.7418039 ], [ -122.197498, 37.7420319 ], [ -122.197961, 37.742549 ] ] } },
{ "type": "Feature", "properties": { "u": 241334543, "v": 241333761, "pm_start": 36.013192809774615, "pm_end": 36.345687462035961, "lanes": 5 }, "geometry": { "type": "LineString", "coordinates": [ [ -122.197961, 37.742549 ], [ -122.2012889, 37.7463282 ], [ -122.2014337, 37.7464927 ], [ -122.2014385, 37.7464982 ] ] } },
{ "type": "Feature", "properties": { "u": 241333761, "v": 678963615, "pm_start": 36.345687462035961, "pm_end": 37.264346693216524, "lanes": 4 }, "geometry": { "type": "LineString", "coordinates": [ [ -122.2014385, 37.7464982 ], [ -122.202742, 37.7479871 ], [ -122.2043728, 37.7498449 ], [ -122.2067975, 37.7526104 ], [ -122.2071667, 37.7530289 ], [ -122.2075156, 37.7534238 ], [ -122.207899, 37.7538578 ], [ -122.2081071, 37.7540952 ], [ -122.2105567, 37.7568888 ], [ -122.211004, 37.7574331 ] ] } },
{ "type": "Feature", "properties": { "u": 678963615, "v": 240432279, "pm_start": 37.264346693216524, "pm_end": 37.818222419560819, "lanes": 5 }, "geometry": { "type": "LineString", "coordinates": [ [ -122.211004, 37.7574331 ], [ -122.2144959, 37.7613761 ], [ -122.2146736, 37.7615781 ], [ -122.2150095, 37.7619592 ], [ -122.216816, 37.7640019 ] ] } },
{ "type": "Feature", "properties": { "u": 240432279, "v": 222892864, "pm_start": 37.818222419560819, "pm_end": 38.476992141744212, "lanes": 4 }, "geometry": { "type": "LineString", "coordinates": [ [ -122.216816, 37.7640019 ], [ -122.2173349, 37.7646161 ], [ -122.2176843, 37.7650032 ], [ -122.2179721, 37.7653513 ], [ -122.2182318, 37.7656757 ], [ -122.2185527, 37.7661281 ], [ -122.2207724, 37.7692173 ], [ -122.2209833, 37.7695158 ], [ -122.2211976, 37.7697934 ], [ -122.2214031, 37.7700548 ], [ -122.2216466, 37.770327 ], [ -122.2218027, 37.7704916 ], [ -122.221985, 37.7706557 ], [ -122.2222234, 37.7708603 ], [ -122.222486, 37.7710547 ], [ -122.2227632, 37.7712486 ], [ -122.2230622, 37.7714422 ], [ -122.223281, 37.7715649 ], [ -122.2236425, 37.7717566 ] ] } },
{ "type": "Feature", "properties": { "u": 222892864, "v": 233564953, "pm_start": 38.476992141744212, "pm_end": 38.903161882400347, "lanes": 4 }, "geometry": { "type": "LineString", "coordinates": [ [ -122.2236425, 37.7717566 ], [ -122.2240816, 37.7719647 ], [ -122.2245375, 37.7721472 ], [ -122.2250526, 37.7723234 ], [ -122.2255193, 37.772469 ], [ -122.2303741, 37.7740803 ], [ -122.2307883, 37.774223 ] ] } },
{ "type": "Feature", "properties": { "u": 233564953, "v": 6302855160, "pm_start": 38.903161882400347, "pm_end": 39.133345781114969, "lanes": 4 }, "geometry": { "type": "LineString", "coordinates": [ [ -122.2307883, 37.774223 ], [ -122.2331126, 37.7750152 ], [ -122.2335391, 37.7751721 ], [ -122.2339656, 37.7753544 ], [ -122.234376, 37.7755558 ], [ -122.2345753, 37.7756688 ] ] } },
{ "type": "Feature", "properties": { "u": 6302855160, "v": 233563999, "pm_start": 39.133345781114969, "pm_end": 39.234794521190153, "lanes": 5 }, "geometry": { "type": "LineString", "coordinates": [ [ -122.2345753, 37.7756688 ], [ -122.2347649, 37.7757763 ], [ -122.2351431, 37.7760117 ], [ -122.2354649, 37.7762343 ], [ -122.2357332, 37.7764399 ], [ -122.2359665, 37.7766371 ] ] } },
{ "type": "Feature", "properties": { "u": 233563999, "v": 233713013, "pm_start": 39.234794521190153, "pm_end": 39.628134387846785, "lanes": 4 }, "geometry": { "type": "LineString", "coordinates": [ [ -122.2359665, 37.7766371 ], [ -122.2362615, 37.7769063 ], [ -122.2365539, 37.7772031 ], [ -122.2368037, 37.7774853 ], [ -122.2369968, 37.777727 ], [ -122.2371685, 37.7779729 ], [ -122.2373348, 37.7782295 ], [ -122.2374689, 37.7784584 ], [ -122.2375923, 37.778698 ], [ -122.2377076, 37.7789375 ], [ -122.2378176, 37.779194 ], [ -122.2379314, 37.7794536 ], [ -122.2383407, 37.7805824 ], [ -122.2385542, 37.7811653 ], [ -122.238602, 37.7812929 ], [ -122.2386502, 37.7814194 ], [ -122.2387005, 37.7815461 ], [ -122.2387537, 37.7816717 ], [ -122.2388108, 37.7818009 ] ] } },
{ "type": "Feature", "properties": { "u": 233713013, "v": 52982920, "pm_start": 39.628134387846785, "pm_end": 40.626956583734092, "lanes": 4 }, "geometry": { "type": "LineString", "coordinates": [ [ -122.2388108, 37.7818009 ], [ -122.2388678, 37.7819205 ], [ -122.2389356, 37.782049 ], [ -122.2390056, 37.7821705 ], [ -122.2390808, 37.7822919 ], [ -122.2391596, 37.7824094 ], [ -122.2392431, 37.7825233 ], [ -122.2393346, 37.7826396 ], [ -122.239427, 37.7827501 ], [ -122.2395261, 37.7828591 ], [ -122.2396294, 37.7829659 ], [ -122.2397352, 37.7830682 ], [ -122.2398475, 37.7831706 ], [ -122.2399627, 37.783269 ], [ -122.2400807, 37.7833645 ], [ -122.2402032, 37.7834579 ], [ -122.2403286, 37.7835473 ], [ -122.2404542, 37.7836347 ], [ -122.2405824, 37.7837235 ], [ -122.2407089, 37.7838093 ], [ -122.2408372, 37.7838949 ], [ -122.2409691, 37.7839798 ], [ -122.241101, 37.7840627 ], [ -122.2412399, 37.7841474 ], [ -122.2413705, 37.784225 ], [ -122.2415078, 37.7843037 ], [ -122.2416431, 37.7843804 ], [ -122.2417809, 37.7844563 ], [ -122.2419106, 37.7845319 ], [ -122.2456457, 37.7865202 ], [ -122.2461768, 37.7867852 ], [ -122.2467213, 37.7870226 ], [ -122.2474267, 37.7873109 ], [ -122.2481429, 37.7875864 ], [ -122.2488483, 37.787845 ], [ -122.2495349, 37.7880846 ], [ -122.2502082, 37.7883029 ], [ -122.2508733, 37.7885085 ], [ -122.2514983, 37.7886929 ], [ -122.2521393, 37.7888688 ], [ -122.2527616, 37.7890193 ], [ -122.2531667, 37.7891275 ], [ -122.2533269, 37.7891633 ], [ -122.2534866, 37.7891983 ], [ -122.2536467, 37.7892335 ], [ -122.2538048, 37.789267 ], [ -122.2539658, 37.7893015 ] ] } },
{ "type": "Feature", "properties": { "u": 52982920, "v": 311886570, "pm_start": 40.626956583734092, "pm_end": 41.225600047967518, "lanes": 4 }, "geometry": { "type": "LineString", "coordinates": [ [ -122.2539658, 37.7893015 ], [ -122.2541269, 37.7893347 ], [ -122.2542877, 37.7893665 ], [ -122.2544495, 37.7893978 ], [ -122.2546088, 37.7894286 ], [ -122.2547677, 37.7894591 ], [ -122.2549275, 37.7894882 ], [ -122.2550895, 37.7895169 ], [ -122.2554143, 37.7895735 ], [ -122.2564692, 37.7897522 ], [ -122.2576608, 37.7899561 ], [ -122.2578227, 37.7899828 ], [ -122.2579865, 37.7900117 ], [ -122.2581493, 37.7900426 ], [ -122.2583098, 37.7900757 ], [ -122.2584641, 37.7901111 ], [ -122.2586243, 37.7901509 ], [ -122.2587797, 37.7901931 ], [ -122.2589409, 37.7902393 ], [ -122.2590919, 37.7902874 ], [ -122.2592459, 37.790339 ], [ -122.259399, 37.7903946 ], [ -122.2595437, 37.7904501 ], [ -122.2596946, 37.7905115 ], [ -122.2598406, 37.7905739 ], [ -122.25999, 37.7906414 ], [ -122.2601256, 37.7907072 ], [ -122.260268, 37.7907802 ], [ -122.2604019, 37.7908536 ], [ -122.2605407, 37.7909312 ], [ -122.2606729, 37.7910094 ], [ -122.2608006, 37.7910886 ], [ -122.2609312, 37.7911744 ], [ -122.2610552, 37.7912611 ], [ -122.2611805, 37.7913523 ], [ -122.2612966, 37.7914419 ], [ -122.2614161, 37.7915379 ], [ -122.261527, 37.7916305 ], [ -122.2633498, 37.7931934 ] ] } },
{ "type": "Feature", "properties": { "u": 311886570, "v": 1172074088, "pm_start": 41.225600047967518, "pm_end": 41.482198067826651, "lanes": 4 }, "geometry": { "type": "LineString", "coordinates": [ [ -122.2633498, 37.7931934 ], [ -122.2635566, 37.7933685 ], [ -122.2636712, 37.7934644 ], [ -122.2637857, 37.7935605 ], [ -122.2639011, 37.7936566 ], [ -122.2640161, 37.7937506 ], [ -122.2641299, 37.7938432 ], [ -122.2642468, 37.7939353 ], [ -122.2643658, 37.7940274 ], [ -122.2644872, 37.7941178 ], [ -122.2646088, 37.7942054 ], [ -122.2647322, 37.7942926 ], [ -122.2648576, 37.7943779 ], [ -122.2649846, 37.7944612 ], [ -122.2651151, 37.7945439 ], [ -122.2652455, 37.7946234 ], [ -122.2653772, 37.794702 ], [ -122.2655115, 37.7947789 ], [ -122.2656472, 37.794854 ], [ -122.2657837, 37.7949274 ], [ -122.2659214, 37.7949986 ], [ -122.2660602, 37.7950686 ], [ -122.266229, 37.7951501 ], [ -122.2663269, 37.7951954 ], [ -122.2666665, 37.7953528 ], [ -122.2669978, 37.7954988 ] ] } },
{ "type": "Feature", "properties": { "u": 1172074088, "v": 53043955, "pm_start": 41.482198067826651, "pm_end": 41.885739477169096, "lanes": 4 }, "geometry": { "type": "LineString", "coordinates": [ [ -122.2669978, 37.7954988 ], [ -122.267506, 37.7956876 ], [ -122.2691636, 37.7962981 ], [ -122.2710009, 37.7970187 ], [ -122.2736216, 37.7980885 ] ] } },
{ "type": "Feature", "properties": { "u": 53043955, "v": 53060716, "pm_start": 41.885739477169096, "pm_end": 42.078786357286141, "lanes": 5 }, "geometry": { "type": "LineString", "coordinates": [ [ -122.2736216, 37.7980885 ], [ -122.2752112, 37.7987083 ], [ -122.2767943, 37.799322 ] ] } },
{ "type": "Feature", "properties": { "u": 53060716, "v": 53060708, "pm_start": 42.078786357286141, "pm_end": 42.285064596851932, "lanes": 4 }, "geometry": { "type": "LineString", "coordinates": [ [ -122.2767943, 37.799322 ], [ -122.2773396, 37.799546 ], [ -122.2779246, 37.7997756 ], [ -122.278219, 37.7998849 ], [ -122.2783616, 37.7999427 ], [ -122.2785067, 37.8000023 ], [ -122.2786327, 37.8000539 ], [ -122.2787751, 37.8001113 ], [ -122.2801676, 37.8006665 ] ] } },
{ "type": "Feature", "properties": { "u": 53060708, "v": 53060682, "pm_start": 42.285064596851932, "pm_end": 43.295694164643855, "lanes": 3 }, "geometry": { "type": "LineString", "coordinates": [ [ -122.2801676, 37.8006665 ], [ -122.2807694, 37.8008955 ], [ -122.2810554, 37.8010061 ], [ -122.2817617, 37.8012752 ], [ -122.2821507, 37.801428 ], [ -122.2824893, 37.801566 ], [ -122.2829408, 37.8017505 ], [ -122.2832324, 37.8018728 ], [ -122.2833775, 37.8019337 ], [ -122.2835257, 37.8019965 ], [ -122.2836712, 37.8020577 ], [ -122.2838193, 37.8021183 ], [ -122.2839669, 37.8021777 ], [ -122.2841176, 37.8022341 ], [ -122.2842669, 37.802288 ], [ -122.2844212, 37.8023411 ], [ -122.284574, 37.8023917 ], [ -122.28473, 37.8024405 ], [ -122.2848834, 37.8024876 ], [ -122.2850393, 37.8025327 ], [ -122.2851963, 37.8025769 ], [ -122.285354, 37.8026182 ], [ -122.2855117, 37.802659 ], [ -122.2856694, 37.8026969 ], [ -122.2858298, 37.8027332 ], [ -122.2859896, 37.8027682 ], [ -122.2861508, 37.8028008 ], [ -122.286312, 37.802831 ], [ -122.2864748, 37.8028598 ], [ -122.2866387, 37.8028863 ], [ -122.2868014, 37.8029105 ], [ -122.2869653, 37.8029335 ], [ -122.2871285, 37.8029542 ], [ -122.2872928, 37.8029725 ], [ -122.2874574, 37.8029896 ], [ -122.2876212, 37.8030039 ], [ -122.2877872, 37.803018 ], [ -122.2879525, 37.8030288 ], [ -122.2881195, 37.8030371 ], [ -122.2882842, 37.8030439 ], [ -122.2884494, 37.803049 ], [ -122.2886155, 37.8030516 ], [ -122.2887816, 37.8030531 ], [ -122.2889481, 37.803053 ], [ -122.2891146, 37.8030506 ], [ -122.2892806, 37.8030463 ], [ -122.2894287, 37.8030403 ], [ -122.2895814, 37.8030327 ], [ -122.2897383, 37.803023 ], [ -122.2898997, 37.803012 ], [ -122.2900723, 37.8029975 ], [ -122.2902384, 37.8029814 ], [ -122.2904018, 37.8029632 ], [ -122.290567, 37.8029443 ], [ -122.2907306, 37.8029228 ], [ -122.2908884, 37.8028997 ], [ -122.291053, 37.8028741 ], [ -122.2946281, 37.8022923 ], [ -122.2948023, 37.8022635 ], [ -122.2949587, 37.8022402 ], [ -122.2951203, 37.8022183 ], [ -122.2952815, 37.8021988 ], [ -122.2954405, 37.8021833 ], [ -122.2956107, 37.8021685 ], [ -122.2957768, 37.8021569 ], [ -122.2959409, 37.8021485 ], [ -122.2961084, 37.8021424 ], [ -122.2962963, 37.8021393 ], [ -122.2963672, 37.8021391 ], [ -122.2964627, 37.8021393 ], [ -122.2966298, 37.8021406 ], [ -122.2967964, 37.8021448 ], [ -122.2969591, 37.8021511 ], [ -122.2971269, 37.8021609 ], [ -122.2972891, 37.8021728 ], [ -122.2974555, 37.8021883 ], [ -122.2976188, 37.8022067 ], [ -122.2977826, 37.8022277 ], [ -122.2979437, 37.8022507 ] ] } },
{ "type": "Feature", "properties": { "u": 53060682, "v": 53060679, "pm_start": 43.295694164643855, "pm_end": 43.555431981891715, "lanes": 4 }, "geometry": { "type": "LineString", "coordinates": [ [ -122.2979437, 37.8022507 ], [ -122.2981052, 37.8022763 ], [ -122.2982625, 37.8023155 ], [ -122.2984167, 37.8023447 ], [ -122.2985638, 37.8023794 ], [ -122.2987344, 37.8024185 ], [ -122.2988956, 37.8024591 ], [ -122.2990412, 37.802498 ], [ -122.2992007, 37.8025415 ], [ -122.2993519, 37.8025867 ], [ -122.2995053, 37.8026371 ], [ -122.299658, 37.802689 ], [ -122.2998029, 37.8027379 ], [ -122.2999565, 37.8027954 ], [ -122.3001006, 37.8028537 ], [ -122.3002507, 37.8029143 ], [ -122.3003873, 37.8029748 ], [ -122.3005241, 37.8030387 ], [ -122.3006626, 37.8031018 ], [ -122.3007862, 37.8031647 ], [ -122.3009014, 37.8032239 ], [ -122.3010063, 37.8032772 ], [ -122.3011439, 37.803357 ], [ -122.3013535, 37.80348 ], [ -122.3014869, 37.8035616 ], [ -122.3020943, 37.8039847 ] ] } },
{ "type": "Feature", "properties": { "u": 53060679, "v": 53060659, "pm_start": 43.555431981891715, "pm_end": 44.37230528517766, "lanes": 3 }, "geometry": { "type": "LineString", "coordinates": [ [ -122.3020943, 37.8039847 ], [ -122.3023975, 37.8042261 ], [ -122.3024284, 37.804256 ], [ -122.3024645, 37.8042895 ], [ -122.3025436, 37.8043598 ], [ -122.3026272, 37.8044357 ], [ -122.302679, 37.8044855 ], [ -122.3027919, 37.8045933 ], [ -122.302896, 37.8047003 ], [ -122.3029871, 37.8048024 ], [ -122.3030855, 37.8049061 ], [ -122.3031806, 37.8050158 ], [ -122.303269, 37.8051239 ], [ -122.3033592, 37.8052337 ], [ -122.3034391, 37.8053402 ], [ -122.3035276, 37.8054602 ], [ -122.3036054, 37.8055745 ], [ -122.3036856, 37.8056671 ], [ -122.3037589, 37.8057832 ], [ -122.303829, 37.8059015 ], [ -122.3038975, 37.8060233 ], [ -122.3039617, 37.8061426 ], [ -122.304023, 37.8062648 ], [ -122.3040818, 37.8063867 ], [ -122.3041368, 37.8065101 ], [ -122.3041885, 37.8066345 ], [ -122.3042373, 37.8067621 ], [ -122.3042842, 37.8068859 ], [ -122.3043284, 37.8070138 ], [ -122.3043669, 37.8071391 ], [ -122.304403, 37.8072692 ], [ -122.3044349, 37.8074067 ], [ -122.3044637, 37.8075431 ], [ -122.3044764, 37.8076046 ], [ -122.3044996, 37.8077337 ], [ -122.3045203, 37.8078556 ], [ -122.3045388, 37.8079859 ], [ -122.30455, 37.8080921 ], [ -122.3045516, 37.8081192 ], [ -122.3045594, 37.8082474 ], [ -122.3045635, 37.808375 ], [ -122.3045641, 37.8085079 ], [ -122.304561, 37.808641 ], [ -122.3045542, 37.8087861 ], [ -122.3045478, 37.808915 ], [ -122.304539, 37.8090464 ], [ -122.3045271, 37.8091798 ], [ -122.3045125, 37.8093063 ], [ -122.3044934, 37.809438 ], [ -122.3044711, 37.8095687 ], [ -122.3044461, 37.8096988 ], [ -122.3044183, 37.8098257 ], [ -122.3043865, 37.8099547 ], [ -122.304351, 37.8100828 ], [ -122.3043124, 37.8102083 ], [ -122.30427, 37.8103329 ], [ -122.3042241, 37.8104589 ], [ -122.3041752, 37.8105859 ], [ -122.3041248, 37.8107077 ], [ -122.3040697, 37.8108321 ], [ -122.3040117, 37.8109554 ], [ -122.30395, 37.8110777 ], [ -122.3038852, 37.8111974 ], [ -122.3038043, 37.8113401 ], [ -122.3037335, 37.8114583 ], [ -122.303662, 37.8115733 ], [ -122.3035838, 37.811692 ], [ -122.3035031, 37.8118089 ], [ -122.3034222, 37.8119213 ], [ -122.3033352, 37.8120354 ], [ -122.3032471, 37.8121467 ], [ -122.3031562, 37.8122547 ], [ -122.3030612, 37.8123637 ], [ -122.3029647, 37.8124696 ], [ -122.3028637, 37.8125763 ], [ -122.3027609, 37.8126794 ], [ -122.3026557, 37.8127809 ], [ -122.3025486, 37.8128817 ], [ -122.3024387, 37.8129799 ], [ -122.3023264, 37.8130751 ], [ -122.3022098, 37.8131697 ], [ -122.3020933, 37.8132614 ], [ -122.3019736, 37.8133515 ], [ -122.3018502, 37.813441 ], [ -122.3017252, 37.8135277 ], [ -122.3016004, 37.8136128 ], [ -122.3010668, 37.8139765 ], [ -122.300684, 37.8142381 ] ] } },
{ "type": "Feature", "properties": { "u": 53060659, "v": 53060647, "pm_start": 44.37230528517766, "pm_end": 45.217969891672247, "lanes": 2 }, "geometry": { "type": "LineString", "coordinates": [ [ -122.300684, 37.8142381 ], [ -122.3001535, 37.8145566 ], [ -122.3000305, 37.8146347 ], [ -122.2998689, 37.8147433 ], [ -122.2997436, 37.8148258 ], [ -122.2996108, 37.8149086 ], [ -122.2994822, 37.8149883 ], [ -122.2993494, 37.8150702 ], [ -122.2989569, 37.8153118 ], [ -122.2988323, 37.8153881 ], [ -122.2987049, 37.8154663 ], [ -122.2984373, 37.815634 ], [ -122.2981822, 37.8157995 ], [ -122.2979278, 37.8159716 ], [ -122.2976824, 37.8161445 ], [ -122.29744, 37.816322 ], [ -122.297198, 37.8165064 ], [ -122.2970765, 37.8166014 ], [ -122.2969623, 37.8166922 ], [ -122.2968458, 37.8167865 ], [ -122.2967368, 37.816878 ], [ -122.2966205, 37.8169761 ], [ -122.2965063, 37.8170736 ], [ -122.2963991, 37.8171687 ], [ -122.2962812, 37.8172729 ], [ -122.2961762, 37.8173684 ], [ -122.2960693, 37.8174684 ], [ -122.2959591, 37.8175728 ], [ -122.2958535, 37.8176741 ], [ -122.2957512, 37.8177746 ], [ -122.2956456, 37.817881 ], [ -122.2955475, 37.8179813 ], [ -122.2954434, 37.8180894 ], [ -122.2953451, 37.8181943 ], [ -122.2952488, 37.8182988 ], [ -122.2951521, 37.8184065 ], [ -122.2950602, 37.818511 ], [ -122.2949637, 37.8186227 ], [ -122.2948675, 37.8187356 ], [ -122.2947792, 37.8188423 ], [ -122.2946934, 37.818947 ], [ -122.2945113, 37.8191719 ], [ -122.2942609, 37.8195108 ], [ -122.2939906, 37.8198422 ], [ -122.2930908, 37.8209462 ], [ -122.2929164, 37.8211602 ], [ -122.2927353, 37.8213901 ], [ -122.2925655, 37.8216156 ], [ -122.2923999, 37.8218441 ], [ -122.2922413, 37.8220761 ], [ -122.2920884, 37.8223083 ], [ -122.29194, 37.8225436 ], [ -122.2917977, 37.822784 ], [ -122.2916607, 37.8230251 ], [ -122.291533, 37.8232616 ], [ -122.2914084, 37.8235071 ], [ -122.2912885, 37.823753 ] ] } },
{ "type": "Feature", "properties": { "u": 53060647, "v": 99569284, "pm_start": 45.217969891672247, "pm_end": 46.164101548674665, "lanes": 3 }, "geometry": { "type": "LineString", "coordinates": [ [ -122.2912885, 37.823753 ], [ -122.2909941, 37.8243716 ], [ -122.2909377, 37.8244929 ], [ -122.2908806, 37.8246208 ], [ -122.2908307, 37.8247454 ], [ -122.2907906, 37.8248629 ], [ -122.2907535, 37.8249942 ], [ -122.290724, 37.8251222 ], [ -122.2906992, 37.8252508 ], [ -122.2906815, 37.8253835 ], [ -122.2906712, 37.8255176 ], [ -122.2906682, 37.8256471 ], [ -122.2906708, 37.8257761 ], [ -122.2906818, 37.8259066 ], [ -122.2906982, 37.8260392 ], [ -122.2907225, 37.8261647 ], [ -122.2907547, 37.8263011 ], [ -122.2907923, 37.8264279 ], [ -122.2908375, 37.8265561 ], [ -122.2908856, 37.8266799 ], [ -122.2909423, 37.8268026 ], [ -122.2910044, 37.826923 ], [ -122.291073, 37.8270424 ], [ -122.2911471, 37.8271595 ], [ -122.2912276, 37.827274 ], [ -122.291315, 37.8273874 ], [ -122.2914076, 37.8274961 ], [ -122.2915044, 37.8275991 ], [ -122.2916116, 37.8277043 ], [ -122.2917207, 37.8278025 ], [ -122.291832, 37.8278974 ], [ -122.2921708, 37.828185 ], [ -122.2922833, 37.8282852 ], [ -122.2923898, 37.8283847 ], [ -122.2924929, 37.8284875 ], [ -122.2925897, 37.828596 ], [ -122.2926799, 37.8287058 ], [ -122.2927658, 37.8288195 ], [ -122.2928452, 37.8289332 ], [ -122.2929184, 37.8290507 ], [ -122.2929872, 37.8291718 ], [ -122.2930481, 37.8292953 ], [ -122.293104, 37.8294223 ], [ -122.2931515, 37.8295456 ], [ -122.2931941, 37.8296779 ], [ -122.2932282, 37.8298027 ], [ -122.2932568, 37.8299303 ], [ -122.2932808, 37.8300644 ], [ -122.2933426, 37.8304544 ], [ -122.2934912, 37.8313723 ], [ -122.2935555, 37.8317654 ], [ -122.2935784, 37.8318949 ], [ -122.2936053, 37.8320254 ], [ -122.2936369, 37.8321569 ], [ -122.2936758, 37.8322851 ], [ -122.2937186, 37.8324127 ], [ -122.2937674, 37.8325404 ], [ -122.2938191, 37.8326607 ], [ -122.2938772, 37.8327859 ], [ -122.2939381, 37.8329055 ], [ -122.2940082, 37.833029 ], [ -122.2942142, 37.8333863 ], [ -122.2944889, 37.8338566 ], [ -122.294765, 37.8343269 ], [ -122.2949767, 37.8346897 ], [ -122.2951769, 37.8350588 ], [ -122.295374, 37.8354309 ], [ -122.2958782, 37.8364149 ] ] } },
{ "type": "Feature", "properties": { "u": 99569284, "v": 30364616, "pm_start": 46.164101548674665, "pm_end": 46.241320420379701, "lanes": 3 }, "geometry": { "type": "LineString", "coordinates": [ [ -122.2958782, 37.8364149 ], [ -122.2959933, 37.8366577 ], [ -122.2960971, 37.8368977 ], [ -122.296191, 37.8371592 ], [ -122.2962895, 37.8374829 ] ] } }
]
}
