{
"type": "FeatureCollection",
"name": "cells",
"crs": { "type": "name", "properties": { "name": "urn:ogc:def:crs:OGC:1.3:CRS84" } },
"features": [
{ "type": "Feature", "properties": { "pm_start": 0.548464, "pm_end": 1.288671, "length": 0.740207, "lanes": 4, "on_ramp": true, "off_ramp": true, "on_ramp_name": null, "off_ramp_name": null, "caltrans_pm_start": 0.399999871, "caltrans_pm_end": 1.200000171, "length_warning": "ok", "fd_vds_id": null, "vds_id": 400951, "vds_pm": 0.65860417, "vds_lanes": 4, "vds_source": "nearest_upstream", "vds_distance_mi": -0.34069333, "vds_n_candidates": 1, "on_ramp_vds_id": "408905, 408906, 408908, 408909", "off_ramp_vds_id": "413030;v400000", "Notes": "Add another off-ramp" }, "geometry": { "type": "LineString", "coordinates": [ [ -121.940645399763355, 37.323558397245428 ], [ -121.9406454, 37.3235584 ], [ -121.9407312, 37.3247317 ], [ -121.9407398, 37.325288 ], [ -121.940742, 37.3258932 ], [ -121.9407465, 37.3264624 ], [ -121.9407517, 37.3271092 ], [ -121.9407518, 37.327276 ], [ -121.9407514, 37.3279564 ], [ -121.9407538, 37.328777 ], [ -121.9407481, 37.3289577 ], [ -121.9407371, 37.3291234 ], [ -121.9407097, 37.3293606 ], [ -121.9406728, 37.3295817 ], [ -121.9406271, 37.3297971 ], [ -121.9405707, 37.3299912 ], [ -121.9405115, 37.3301661 ], [ -121.9404511, 37.3303366 ], [ -121.9403975, 37.3304776 ], [ -121.9403048, 37.3306791 ], [ -121.9401551, 37.3309502 ], [ -121.9399904, 37.3312274 ], [ -121.9398496, 37.3314337 ], [ -121.9397083, 37.3316294 ], [ -121.9395626, 37.3318021 ], [ -121.9393265, 37.3320462 ], [ -121.9390315, 37.3323201 ], [ -121.9386078, 37.3326751 ], [ -121.9375952, 37.3334505 ], [ -121.937595198421391, 37.333450501163135 ] ] } },
{ "type": "Feature", "properties": { "pm_start": 1.288671, "pm_end": 1.488981, "length": 0.20031, "lanes": 3, "on_ramp": false, "off_ramp": false, "on_ramp_name": null, "off_ramp_name": null, "caltrans_pm_start": 1.200000171, "caltrans_pm_end": 1.400000121, "length_warning": "ok", "fd_vds_id": null, "vds_id": 400057, "vds_pm": 1.445897461, "vds_lanes": 3, "vds_source": "direct", "vds_distance_mi": 0.0, "vds_n_candidates": 1, "on_ramp_vds_id": null, "off_ramp_vds_id": null, "Notes": "Check lanes" }, "geometry": { "type": "LineString", "coordinates": [ [ -121.937595198421391, 37.333450501163135 ], [ -121.9369565, 37.3339211 ], [ -121.9365878, 37.3342081 ], [ -121.936298, 37.3344119 ], [ -121.9361774, 37.3345036 ], [ -121.9349508, 37.335446 ], [ -121.934950797943287, 37.335446001582412 ] ] } },
{ "type": "Feature", "properties": { "pm_start": 1.488981, "pm_end": 2.047847, "length": 0.558866, "lanes": 4, "on_ramp": true, "off_ramp": true, "on_ramp_name": null, "off_ramp_name": null, "caltrans_pm_start": 1.400000121, "caltrans_pm_end": 1.900000528, "length_warning": "ok", "fd_vds_id": null, "vds_id": 400057, "vds_pm": 1.445897461, "vds_lanes": 3, "vds_source": "nearest_upstream", "vds_distance_mi": -0.322516539, "vds_n_candidates": 0, "on_ramp_vds_id": "413029", "off_ramp_vds_id": "413028", "Notes": null }, "geometry": { "type": "LineString", "coordinates": [ [ -121.934950797943287, 37.335446001582412 ], [ -121.9331061, 37.3368653 ], [ -121.9305938, 37.3389435 ], [ -121.9300064, 37.3394222 ], [ -121.9287699, 37.3403524 ], [ -121.9277191, 37.3411323 ], [ -121.927719094296634, 37.341132304186232 ] ] } },
{ "type": "Feature", "properties": { "pm_start": 2.047847, "pm_end": 2.365016, "length": 0.317169, "lanes": 3, "on_ramp": false, "off_ramp": false, "on_ramp_name": null, "off_ramp_name": null, "caltrans_pm_start": 1.900000528, "caltrans_pm_end": 2.199999837, "length_warning": "ok", "fd_vds_id": null, "vds_id": 400147, "vds_pm": 2.156006149, "vds_lanes": 3, "vds_source": "direct", "vds_distance_mi": 0.0, "vds_n_candidates": 1, "on_ramp_vds_id": null, "off_ramp_vds_id": null, "Notes": null }, "geometry": { "type": "LineString", "coordinates": [ [ -121.927719094296634, 37.341132304186232 ], [ -121.9266586, 37.3419107 ], [ -121.9264065, 37.3421112 ], [ -121.926149, 37.3423265 ], [ -121.9256981, 37.342737 ], [ -121.9252638, 37.3432349 ], [ -121.9248669, 37.3436806 ], [ -121.9246335, 37.3439322 ], [ -121.9243358, 37.3442222 ], [ -121.9241534, 37.3443864 ], [ -121.923930404150155, 37.344575696477015 ] ] } },
{ "type": "Feature", "properties": { "pm_start": 2.365016, "pm_end": 2.722654, "length": 0.357638, "lanes": 4, "on_ramp": true, "off_ramp": true, "on_ramp_name": null, "off_ramp_name": null, "caltrans_pm_start": 2.199999837, "caltrans_pm_end": 2.599999741, "length_warning": "ok", "fd_vds_id": 400147.0, "vds_id": 427921, "vds_pm": 2.311819167, "vds_lanes": 4, "vds_source": "nearest_upstream", "vds_distance_mi": -0.232015833, "vds_n_candidates": 0, "on_ramp_vds_id": "413027, 427922", "off_ramp_vds_id": "403263", "Notes": null }, "geometry": { "type": "LineString", "coordinates": [ [ -121.923930404150155, 37.344575696477015 ], [ -121.9239304, 37.3445757 ], [ -121.9235928, 37.3448327 ], [ -121.9234278, 37.3449511 ], [ -121.9231743, 37.345133 ], [ -121.9222485, 37.345803 ], [ -121.9217506, 37.3461652 ], [ -121.9215532, 37.3463089 ], [ -121.9200549, 37.3473884 ], [ -121.919115801924349, 37.348060098623591 ] ] } },
{ "type": "Feature", "properties": { "pm_start": 2.722654, "pm_end": 3.067531, "length": 0.344877, "lanes": 3, "on_ramp": false, "off_ramp": false, "on_ramp_name": null, "off_ramp_name": null, "caltrans_pm_start": 2.599999741, "caltrans_pm_end": 2.900000592, "length_warning": "ok", "fd_vds_id": null, "vds_id": 400343, "vds_pm": 2.81507069, "vds_lanes": 3, "vds_source": "direct", "vds_distance_mi": 0.0, "vds_n_candidates": 1, "on_ramp_vds_id": null, "off_ramp_vds_id": null, "Notes": null }, "geometry": { "type": "LineString", "coordinates": [ [ -121.919115801924349, 37.348060098623591 ], [ -121.9191158, 37.3480601 ], [ -121.9186495, 37.3483973 ], [ -121.9177403, 37.349054 ], [ -121.9144735, 37.351421 ], [ -121.914473494686192, 37.351421004000215 ] ] } },
{ "type": "Feature", "properties": { "pm_start": 3.067531, "pm_end": 3.484403, "length": 0.416872, "lanes": 3, "on_ramp": true, "off_ramp": true, "on_ramp_name": null, "off_ramp_name": null, "caltrans_pm_start": 2.900000592, "caltrans_pm_end": 3.399999859, "length_warning": "ok", "fd_vds_id": null, "vds_id": 400343, "vds_pm": 2.81507069, "vds_lanes": 3, "vds_source": "nearest_upstream", "vds_distance_mi": -0.46089631, "vds_n_candidates": 0, "on_ramp_vds_id": "402937", "off_ramp_vds_id": "418852", "Notes": null }, "geometry": { "type": "LineString", "coordinates": [ [ -121.914473494686192, 37.351421004000215 ], [ -121.9130791, 37.3524707 ], [ -121.9120183, 37.3534308 ], [ -121.9115788, 37.3538683 ], [ -121.90946760232471, 37.355943897714496 ] ] } },
{ "type": "Feature", "properties": { "pm_start": 3.484403, "pm_end": 3.838044, "length": 0.353641, "lanes": 3, "on_ramp": false, "off_ramp": false, "on_ramp_name": null, "off_ramp_name": null, "caltrans_pm_start": 3.399999859, "caltrans_pm_end": 3.799999586, "length_warning": "ok", "fd_vds_id": null, "vds_id": 401560, "vds_pm": 3.623976503, "vds_lanes": 3, "vds_source": "direct", "vds_distance_mi": 0.0, "vds_n_candidates": 1, "on_ramp_vds_id": null, "off_ramp_vds_id": null, "Notes": "Artificially shortened to lend 0.03 miles to downstream cell" }, "geometry": { "type": "LineString", "coordinates": [ [ -121.90946760232471, 37.355943897714496 ], [ -121.9094676, 37.3559439 ], [ -121.9075579, 37.3578378 ], [ -121.9072049, 37.3581974 ], [ -121.9069659, 37.3584318 ], [ -121.905434725650437, 37.359934307707981 ] ] } },
{ "type": "Feature", "properties": { "pm_start": 3.838044, "pm_end": 4.039359, "length": 0.201315, "lanes": 4, "on_ramp": true, "off_ramp": true, "on_ramp_name": null, "off_ramp_name": null, "caltrans_pm_start": 3.799999586, "caltrans_pm_end": 3.899999864, "length_warning": "ok", "fd_vds_id": null, "vds_id": 422357, "vds_pm": 3.72366026, "vds_lanes": 4, "vds_source": "nearest_upstream", "vds_distance_mi": -0.23004124, "vds_n_candidates": 0, "on_ramp_vds_id": "418851, 422358", "off_ramp_vds_id": "408411, 408404", "Notes": "Artificially lengthened by borrowing 0.03 miles from upstream cell; OR to 101N moved upward into this cell" }, "geometry": { "type": "LineString", "coordinates": [ [ -121.905434725650437, 37.359934307707981 ], [ -121.9050911, 37.3602715 ], [ -121.9047036, 37.360681 ], [ -121.9045457, 37.3608365 ], [ -121.903145504621904, 37.362209295468539 ] ] } },
{ "type": "Feature", "properties": { "pm_start": 4.039359, "pm_end": 4.337984, "length": 0.298625, "lanes": 4, "on_ramp": false, "off_ramp": true, "on_ramp_name": null, "off_ramp_name": null, "caltrans_pm_start": 3.899999864, "caltrans_pm_end": 4.200000241, "length_warning": "ok", "fd_vds_id": null, "vds_id": 400045, "vds_pm": 4.135918476, "vds_lanes": 4, "vds_source": "direct_tiebreak", "vds_distance_mi": 0.0, "vds_n_candidates": 2, "on_ramp_vds_id": null, "off_ramp_vds_id": "418849", "Notes": "FR moved up to fulfill (a), (b), (e)" }, "geometry": { "type": "LineString", "coordinates": [ [ -121.903145504621904, 37.362209295468539 ], [ -121.9031455, 37.3622093 ], [ -121.9030088, 37.3623471 ], [ -121.902779, 37.362612 ], [ -121.9025759, 37.3628598 ], [ -121.9022906, 37.3632532 ], [ -121.902109, 37.3635197 ], [ -121.9020063, 37.3636718 ], [ -121.9019499, 37.3637771 ], [ -121.9017698, 37.3641134 ], [ -121.9015937, 37.3644868 ], [ -121.9015347, 37.3646209 ], [ -121.901502, 37.3646986 ], [ -121.9014106, 37.3649459 ], [ -121.9012848, 37.365304 ], [ -121.9012365, 37.3654916 ], [ -121.9011775, 37.3657496 ], [ -121.9011043, 37.3661588 ], [ -121.901104299069871, 37.366158806553628 ] ] } },
{ "type": "Feature", "properties": { "pm_start": 4.337984, "pm_end": 4.704231, "length": 0.366247, "lanes": 3, "on_ramp": true, "off_ramp": false, "on_ramp_name": null, "off_ramp_name": null, "caltrans_pm_start": 4.200000241, "caltrans_pm_end": 4.600000215, "length_warning": "ok", "fd_vds_id": null, "vds_id": 401541, "vds_pm": 4.619767599, "vds_lanes": 3, "vds_source": "direct", "vds_distance_mi": 0.0, "vds_n_candidates": 1, "on_ramp_vds_id": "408437, 408438", "off_ramp_vds_id": null, "Notes": null }, "geometry": { "type": "LineString", "coordinates": [ [ -121.901104299069871, 37.366158806553628 ], [ -121.9010847, 37.3662969 ], [ -121.9010737, 37.3663742 ], [ -121.9010228, 37.3669246 ], [ -121.9010184, 37.3671512 ], [ -121.9010207, 37.3674586 ], [ -121.9010237, 37.3676916 ], [ -121.9010633, 37.3681154 ], [ -121.9011101, 37.3684367 ], [ -121.9011743, 37.368729 ], [ -121.9017409, 37.3712635 ], [ -121.9017775, 37.3714063 ], [ -121.901777500909105, 37.371406304301097 ] ] } },
{ "type": "Feature", "properties": { "pm_start": 4.704231, "pm_end": 5.182374, "length": 0.478143, "lanes": 3, "on_ramp": true, "off_ramp": true, "on_ramp_name": null, "off_ramp_name": null, "caltrans_pm_start": 4.600000215, "caltrans_pm_end": 5.099999826, "length_warning": "ok", "fd_vds_id": null, "vds_id": 401541, "vds_pm": 4.619767599, "vds_lanes": 3, "vds_source": "nearest_upstream", "vds_distance_mi": -0.323534901, "vds_n_candidates": 0, "on_ramp_vds_id": "418850", "off_ramp_vds_id": "422361", "Notes": null }, "geometry": { "type": "LineString", "coordinates": [ [ -121.901777500909105, 37.371406304301097 ], [ -121.9019047, 37.3720081 ], [ -121.9019946, 37.3724303 ], [ -121.9027059, 37.3753497 ], [ -121.90336799976707, 37.378209898993774 ] ] } },
{ "type": "Feature", "properties": { "pm_start": 5.182374, "pm_end": 5.488381, "length": 0.306007, "lanes": 4, "on_ramp": false, "off_ramp": false, "on_ramp_name": null, "off_ramp_name": null, "caltrans_pm_start": 5.099999826, "caltrans_pm_end": 5.400000568, "length_warning": "ok", "fd_vds_id": null, "vds_id": 422359, "vds_pm": 5.374095996, "vds_lanes": 4, "vds_source": "direct", "vds_distance_mi": 0.0, "vds_n_candidates": 1, "on_ramp_vds_id": null, "off_ramp_vds_id": null, "Notes": null }, "geometry": { "type": "LineString", "coordinates": [ [ -121.90336799976707, 37.378209898993774 ], [ -121.903368, 37.3782099 ], [ -121.9037128, 37.3795544 ], [ -121.9042401, 37.3819101 ], [ -121.9043626, 37.382567 ], [ -121.904362601731108, 37.382567006566937 ] ] } },
{ "type": "Feature", "properties": { "pm_start": 5.488381, "pm_end": 6.48134, "length": 0.992959, "lanes": 4, "on_ramp": true, "off_ramp": true, "on_ramp_name": null, "off_ramp_name": null, "caltrans_pm_start": 5.400000568, "caltrans_pm_end": 6.399999803, "length_warning": "ok", "fd_vds_id": null, "vds_id": 422359, "vds_pm": 5.374095996, "vds_lanes": 4, "vds_source": "nearest_upstream", "vds_distance_mi": -0.610764504, "vds_n_candidates": 0, "on_ramp_vds_id": "422360", "off_ramp_vds_id": "v400001", "Notes": "FR missing VDS" }, "geometry": { "type": "LineString", "coordinates": [ [ -121.904362601731108, 37.382567006566937 ], [ -121.9046168, 37.3835313 ], [ -121.9054418, 37.3870166 ], [ -121.9069223, 37.3932819 ], [ -121.907698799042223, 37.396691395794505 ] ] } },
{ "type": "Feature", "properties": { "pm_start": 6.48134, "pm_end": 7.18709, "length": 0.70575, "lanes": 4, "on_ramp": false, "off_ramp": false, "on_ramp_name": null, "off_ramp_name": null, "caltrans_pm_start": 6.399999803, "caltrans_pm_end": 7.10000009, "length_warning": "ok", "fd_vds_id": null, "vds_id": 423139, "vds_pm": 6.982526671, "vds_lanes": 4, "vds_source": "direct", "vds_distance_mi": 0.0, "vds_n_candidates": 1, "on_ramp_vds_id": null, "off_ramp_vds_id": null, "Notes": null }, "geometry": { "type": "LineString", "coordinates": [ [ -121.907698799042223, 37.396691395794505 ], [ -121.9076988, 37.3966914 ], [ -121.9089823, 37.4020269 ], [ -121.9096938, 37.4050625 ], [ -121.9098942, 37.4059175 ], [ -121.9100861, 37.4067282 ], [ -121.910086100707801, 37.406728202617167 ] ] } },
{ "type": "Feature", "properties": { "pm_start": 7.18709, "pm_end": 7.477911, "length": 0.290821, "lanes": 5, "on_ramp": true, "off_ramp": true, "on_ramp_name": null, "off_ramp_name": null, "caltrans_pm_start": 7.10000009, "caltrans_pm_end": 7.400000193, "length_warning": "ok", "fd_vds_id": null, "vds_id": 423139, "vds_pm": 6.982526671, "vds_lanes": 5, "vds_source": "nearest_upstream", "vds_distance_mi": -0.349973829, "vds_n_candidates": 0, "on_ramp_vds_id": "423140", "off_ramp_vds_id": "402939", "Notes": null }, "geometry": { "type": "LineString", "coordinates": [ [ -121.910086100707801, 37.406728202617167 ], [ -121.9107858, 37.4093154 ], [ -121.911289, 37.4108263 ], [ -121.911289000455128, 37.410826301326637 ] ] } },
{ "type": "Feature", "properties": { "pm_start": 7.477911, "pm_end": 7.8863, "length": 0.408389, "lanes": 4, "on_ramp": false, "off_ramp": false, "on_ramp_name": null, "off_ramp_name": null, "caltrans_pm_start": 7.400000193, "caltrans_pm_end": 7.800000433, "length_warning": "ok", "fd_vds_id": null, "vds_id": 400088, "vds_pm": 7.775269727, "vds_lanes": 4, "vds_source": "direct", "vds_distance_mi": 0.0, "vds_n_candidates": 1, "on_ramp_vds_id": null, "off_ramp_vds_id": null, "Notes": null }, "geometry": { "type": "LineString", "coordinates": [ [ -121.911289000455128, 37.410826301326637 ], [ -121.9124745, 37.4142819 ], [ -121.9132415, 37.4165299 ], [ -121.913241501409644, 37.416529904145406 ] ] } },
{ "type": "Feature", "properties": { "pm_start": 7.8863, "pm_end": 8.251816, "length": 0.365516, "lanes": 5, "on_ramp": true, "off_ramp": true, "on_ramp_name": null, "off_ramp_name": null, "caltrans_pm_start": 7.800000433, "caltrans_pm_end": 8.100000671, "length_warning": "ok", "fd_vds_id": null, "vds_id": 413026, "vds_pm": 8.221996069, "vds_lanes": 5, "vds_source": "direct", "vds_distance_mi": 0.0, "vds_n_candidates": 1, "on_ramp_vds_id": "402940", "off_ramp_vds_id": "403185", "Notes": null }, "geometry": { "type": "LineString", "coordinates": [ [ -121.913241501409644, 37.416529904145406 ], [ -121.9143133, 37.4196818 ], [ -121.914992, 37.4216341 ], [ -121.914992001174795, 37.421634103754172 ] ] } },
{ "type": "Feature", "properties": { "pm_start": 8.251816, "pm_end": 8.618472, "length": 0.366656, "lanes": 4, "on_ramp": false, "off_ramp": false, "on_ramp_name": null, "off_ramp_name": null, "caltrans_pm_start": 8.100000671, "caltrans_pm_end": 8.499999725, "length_warning": "ok", "fd_vds_id": null, "vds_id": 401464, "vds_pm": 8.48008787, "vds_lanes": 4, "vds_source": "direct", "vds_distance_mi": 0.0, "vds_n_candidates": 1, "on_ramp_vds_id": null, "off_ramp_vds_id": null, "Notes": null }, "geometry": { "type": "LineString", "coordinates": [ [ -121.914992001174795, 37.421634103754172 ], [ -121.9150237, 37.4217354 ], [ -121.915882, 37.4242745 ], [ -121.9163165, 37.4255057 ], [ -121.916729598832916, 37.426758096461732 ] ] } },
{ "type": "Feature", "properties": { "pm_start": 8.618472, "pm_end": 8.856621, "length": 0.238149, "lanes": 4, "on_ramp": true, "off_ramp": false, "on_ramp_name": null, "off_ramp_name": null, "caltrans_pm_start": 8.499999725, "caltrans_pm_end": 8.699999755, "length_warning": "ok", "fd_vds_id": null, "vds_id": 401489, "vds_pm": 8.669556815, "vds_lanes": 4, "vds_source": "direct", "vds_distance_mi": 0.0, "vds_n_candidates": 1, "on_ramp_vds_id": "403186", "off_ramp_vds_id": null, "Notes": null }, "geometry": { "type": "LineString", "coordinates": [ [ -121.916729598832916, 37.426758096461732 ], [ -121.9167296, 37.4267581 ], [ -121.9168422, 37.4270607 ], [ -121.9169763, 37.4273802 ], [ -121.9171147, 37.427709 ], [ -121.9173833, 37.4282618 ], [ -121.9177047, 37.4289102 ], [ -121.9179193, 37.4294384 ], [ -121.91811239969482, 37.430021999077688 ] ] } },
{ "type": "Feature", "properties": { "pm_start": 8.856621, "pm_end": 9.127599, "length": 0.270978, "lanes": 4, "on_ramp": true, "off_ramp": false, "on_ramp_name": null, "off_ramp_name": null, "caltrans_pm_start": 8.699999755, "caltrans_pm_end": 9.0000000320000009, "length_warning": "ok", "fd_vds_id": 401489.0, "vds_id": 401538, "vds_pm": 8.890420729000001, "vds_lanes": 6, "vds_source": "direct", "vds_distance_mi": 0.0, "vds_n_candidates": 1, "on_ramp_vds_id": "403187", "off_ramp_vds_id": null, "Notes": null }, "geometry": { "type": "LineString", "coordinates": [ [ -121.91811239969482, 37.430021999077688 ], [ -121.9181124, 37.430022 ], [ -121.9182895, 37.4306439 ], [ -121.9184128, 37.4312446 ], [ -121.9184879, 37.4317132 ], [ -121.918783, 37.433904 ], [ -121.918783000088013, 37.433904000535648 ] ] } },
{ "type": "Feature", "properties": { "pm_start": 9.127599, "pm_end": 9.358898, "length": 0.231299, "lanes": 6, "on_ramp": true, "off_ramp": false, "on_ramp_name": null, "off_ramp_name": null, "caltrans_pm_start": 9.0000000320000009, "caltrans_pm_end": 9.2000000929999999, "length_warning": "ok", "fd_vds_id": 401489.0, "vds_id": 401538, "vds_pm": 8.890420729000001, "vds_lanes": 6, "vds_source": "nearest_upstream", "vds_distance_mi": -0.352827771, "vds_n_candidates": 0, "on_ramp_vds_id": "403188", "off_ramp_vds_id": null, "Notes": null }, "geometry": { "type": "LineString", "coordinates": [ [ -121.918783000088013, 37.433904000535648 ], [ -121.9190255, 37.4353799 ], [ -121.9193604, 37.43722 ], [ -121.919360400779851, 37.43722000393462 ] ] } },
{ "type": "Feature", "properties": { "pm_start": 9.358898, "pm_end": 10.135147, "length": 0.776249, "lanes": 6, "on_ramp": true, "off_ramp": true, "on_ramp_name": null, "off_ramp_name": null, "caltrans_pm_start": 9.2000000929999999, "caltrans_pm_end": 9.9999996719999995, "length_warning": "ok", "fd_vds_id": 401489.0, "vds_id": 401538, "vds_pm": 8.890420729000001, "vds_lanes": 6, "vds_source": "nearest_upstream", "vds_distance_mi": -0.856601771, "vds_n_candidates": 0, "on_ramp_vds_id": "v400002", "off_ramp_vds_id": "403194", "Notes": "OR missing VDS" }, "geometry": { "type": "LineString", "coordinates": [ [ -121.919360400779851, 37.43722000393462 ], [ -121.9201482, 37.4411947 ], [ -121.920335, 37.4421463 ], [ -121.9206075, 37.4434487 ], [ -121.921518, 37.4477128 ], [ -121.921627399162517, 37.448309395432872 ] ] } }
]
}
