{
"type": "FeatureCollection",
"name": "mainline",
"crs": { "type": "name", "properties": { "name": "urn:ogc:def:crs:OGC:1.3:CRS84" } },
"features": [
{ "type": "Feature", "properties": { "u": 257884249, "v": 279690421, "pm_start": 0.0, "pm_end": 0.54846419073974295, "lanes": 3 }, "geometry": { "type": "LineString", "coordinates": [ [ -121.9402897, 37.3156408 ], [ -121.9402662, 37.3159991 ], [ -121.9402514, 37.3161873 ], [ -121.9401896, 37.3170526 ], [ -121.9401556, 37.3175843 ], [ -121.9401443, 37.3179021 ], [ -121.9401372, 37.3182939 ], [ -121.9401448, 37.3186758 ], [ -121.9401601, 37.3190777 ], [ -121.9402083, 37.3197232 ], [ -121.940284, 37.3204254 ], [ -121.9404855, 37.3220197 ], [ -121.9406001, 37.3230311 ], [ -121.9406454, 37.3235584 ] ] } },
{ "type": "Feature", "properties": { "u": 279690421, "v": 289649406, "pm_start": 0.54846419073974295, "pm_end": 0.70992354585216866, "lanes": 4 }, "geometry": { "type": "LineString", "coordinates": [ [ -121.9406454, 37.3235584 ], [ -121.9407312, 37.3247317 ], [ -121.9407398, 37.325288 ], [ -121.940742, 37.3258932 ] ] } },
{ "type": "Feature", "properties": { "u": 289649406, "v": 206680206, "pm_start": 0.70992354585216866, "pm_end": 1.2886708816863366, "lanes": 4 }, "geometry": { "type": "LineString", "coordinates": [ [ -121.940742, 37.3258932 ], [ -121.9407465, 37.3264624 ], [ -121.9407517, 37.3271092 ], [ -121.9407518, 37.327276 ], [ -121.9407514, 37.3279564 ], [ -121.9407538, 37.328777 ], [ -121.9407481, 37.3289577 ], [ -121.9407371, 37.3291234 ], [ -121.9407097, 37.3293606 ], [ -121.9406728, 37.3295817 ], [ -121.9406271, 37.3297971 ], [ -121.9405707, 37.3299912 ], [ -121.9405115, 37.3301661 ], [ -121.9404511, 37.3303366 ], [ -121.9403975, 37.3304776 ], [ -121.9403048, 37.3306791 ], [ -121.9401551, 37.3309502 ], [ -121.9399904, 37.3312274 ], [ -121.9398496, 37.3314337 ], [ -121.9397083, 37.3316294 ], [ -121.9395626, 37.3318021 ], [ -121.9393265, 37.3320462 ], [ -121.9390315, 37.3323201 ], [ -121.9386078, 37.3326751 ], [ -121.9375952, 37.3334505 ] ] } },
{ "type": "Feature", "properties": { "u": 206680206, "v": 5261661337, "pm_start": 1.2886708816863366, "pm_end": 1.3861091144788558, "lanes": 4 }, "geometry": { "type": "LineString", "coordinates": [ [ -121.9375952, 37.3334505 ], [ -121.9369565, 37.3339211 ], [ -121.9365878, 37.3342081 ], [ -121.936298, 37.3344119 ] ] } },
{ "type": "Feature", "properties": { "u": 5261661337, "v": 283018947, "pm_start": 1.3861091144788558, "pm_end": 1.4889808423909392, "lanes": 3 }, "geometry": { "type": "LineString", "coordinates": [ [ -121.936298, 37.3344119 ], [ -121.9361774, 37.3345036 ], [ -121.9349508, 37.335446 ] ] } },
{ "type": "Feature", "properties": { "u": 283018947, "v": 311577375, "pm_start": 1.4889808423909392, "pm_end": 2.0478465698327191, "lanes": 4 }, "geometry": { "type": "LineString", "coordinates": [ [ -121.9349508, 37.335446 ], [ -121.9331061, 37.3368653 ], [ -121.9305938, 37.3389435 ], [ -121.9300064, 37.3394222 ], [ -121.9287699, 37.3403524 ], [ -121.9277191, 37.3411323 ] ] } },
{ "type": "Feature", "properties": { "u": 311577375, "v": 311575955, "pm_start": 2.0478465698327191, "pm_end": 2.2049023252506088, "lanes": 3 }, "geometry": { "type": "LineString", "coordinates": [ [ -121.9277191, 37.3411323 ], [ -121.9266586, 37.3419107 ], [ -121.9264065, 37.3421112 ], [ -121.926149, 37.3423265 ], [ -121.9256981, 37.342737 ] ] } },
{ "type": "Feature", "properties": { "u": 311575955, "v": 33102524, "pm_start": 2.2049023252506088, "pm_end": 2.3650163412508904, "lanes": 4 }, "geometry": { "type": "LineString", "coordinates": [ [ -121.9256981, 37.342737 ], [ -121.9252638, 37.3432349 ], [ -121.9248669, 37.3436806 ], [ -121.9246335, 37.3439322 ], [ -121.9243358, 37.3442222 ], [ -121.9241534, 37.3443864 ], [ -121.9239304, 37.3445757 ] ] } },
{ "type": "Feature", "properties": { "u": 33102524, "v": 245919614, "pm_start": 2.3650163412508904, "pm_end": 2.7226541423683619, "lanes": 4 }, "geometry": { "type": "LineString", "coordinates": [ [ -121.9239304, 37.3445757 ], [ -121.9235928, 37.3448327 ], [ -121.9234278, 37.3449511 ], [ -121.9231743, 37.345133 ], [ -121.9222485, 37.345803 ], [ -121.9217506, 37.3461652 ], [ -121.9215532, 37.3463089 ], [ -121.9200549, 37.3473884 ], [ -121.9191158, 37.3480601 ] ] } },
{ "type": "Feature", "properties": { "u": 245919614, "v": 1912088277, "pm_start": 2.7226541423683619, "pm_end": 3.0675305896474665, "lanes": 3 }, "geometry": { "type": "LineString", "coordinates": [ [ -121.9191158, 37.3480601 ], [ -121.9186495, 37.3483973 ], [ -121.9177403, 37.349054 ], [ -121.9144735, 37.351421 ] ] } },
{ "type": "Feature", "properties": { "u": 1912088277, "v": 245810016, "pm_start": 3.0675305896474665, "pm_end": 3.4844032011313408, "lanes": 3 }, "geometry": { "type": "LineString", "coordinates": [ [ -121.9144735, 37.351421 ], [ -121.9130791, 37.3524707 ], [ -121.9120183, 37.3534308 ], [ -121.9115788, 37.3538683 ], [ -121.9094676, 37.3559439 ] ] } },
{ "type": "Feature", "properties": { "u": 245810016, "v": 4977823052, "pm_start": 3.4844032011313408, "pm_end": 3.6521035915164513, "lanes": 3 }, "geometry": { "type": "LineString", "coordinates": [ [ -121.9094676, 37.3559439 ], [ -121.9075579, 37.3578378 ] ] } },
{ "type": "Feature", "properties": { "u": 4977823052, "v": 4977823050, "pm_start": 3.6521035915164513, "pm_end": 3.8680442620365594, "lanes": 3 }, "geometry": { "type": "LineString", "coordinates": [ [ -121.9075579, 37.3578378 ], [ -121.9072049, 37.3581974 ], [ -121.9069659, 37.3584318 ], [ -121.9050911, 37.3602715 ] ] } },
{ "type": "Feature", "properties": { "u": 4977823050, "v": 4977823048, "pm_start": 3.8680442620365594, "pm_end": 4.0393594037716483, "lanes": 4 }, "geometry": { "type": "LineString", "coordinates": [ [ -121.9050911, 37.3602715 ], [ -121.9047036, 37.360681 ], [ -121.9045457, 37.3608365 ], [ -121.9031455, 37.3622093 ] ] } },
{ "type": "Feature", "properties": { "u": 4977823048, "v": 65401606, "pm_start": 4.0393594037716483, "pm_end": 4.1583905333465365, "lanes": 4 }, "geometry": { "type": "LineString", "coordinates": [ [ -121.9031455, 37.3622093 ], [ -121.9030088, 37.3623471 ], [ -121.902779, 37.362612 ], [ -121.9025759, 37.3628598 ], [ -121.9022906, 37.3632532 ], [ -121.902109, 37.3635197 ], [ -121.9020063, 37.3636718 ] ] } },
{ "type": "Feature", "properties": { "u": 65401606, "v": 65394535, "pm_start": 4.1583905333465365, "pm_end": 4.2191036385660095, "lanes": 4 }, "geometry": { "type": "LineString", "coordinates": [ [ -121.9020063, 37.3636718 ], [ -121.9019499, 37.3637771 ], [ -121.9017698, 37.3641134 ], [ -121.9015937, 37.3644868 ] ] } },
{ "type": "Feature", "properties": { "u": 65394535, "v": 3742063554, "pm_start": 4.2191036385660095, "pm_end": 4.3379835431508482, "lanes": 3 }, "geometry": { "type": "LineString", "coordinates": [ [ -121.9015937, 37.3644868 ], [ -121.9015347, 37.3646209 ], [ -121.901502, 37.3646986 ], [ -121.9014106, 37.3649459 ], [ -121.9012848, 37.365304 ], [ -121.9012365, 37.3654916 ], [ -121.9011775, 37.3657496 ], [ -121.9011043, 37.3661588 ] ] } },
{ "type": "Feature", "properties": { "u": 3742063554, "v": 33102541, "pm_start": 4.3379835431508482, "pm_end": 4.4440901628479823, "lanes": 3 }, "geometry": { "type": "LineString", "coordinates": [ [ -121.9011043, 37.3661588 ], [ -121.9010847, 37.3662969 ], [ -121.9010737, 37.3663742 ], [ -121.9010228, 37.3669246 ], [ -121.9010184, 37.3671512 ], [ -121.9010207, 37.3674586 ], [ -121.9010237, 37.3676916 ] ] } },
{ "type": "Feature", "properties": { "u": 33102541, "v": 65405085, "pm_start": 4.4440901628479823, "pm_end": 4.7042306991758229, "lanes": 3 }, "geometry": { "type": "LineString", "coordinates": [ [ -121.9010237, 37.3676916 ], [ -121.9010633, 37.3681154 ], [ -121.9011101, 37.3684367 ], [ -121.9011743, 37.368729 ], [ -121.9017409, 37.3712635 ], [ -121.9017775, 37.3714063 ] ] } },
{ "type": "Feature", "properties": { "u": 65405085, "v": 65410005, "pm_start": 4.7042306991758229, "pm_end": 5.1823740706761097, "lanes": 3 }, "geometry": { "type": "LineString", "coordinates": [ [ -121.9017775, 37.3714063 ], [ -121.9019047, 37.3720081 ], [ -121.9019946, 37.3724303 ], [ -121.9027059, 37.3753497 ], [ -121.903368, 37.3782099 ] ] } },
{ "type": "Feature", "properties": { "u": 65410005, "v": 312714757, "pm_start": 5.1823740706761097, "pm_end": 5.4883805353663675, "lanes": 4 }, "geometry": { "type": "LineString", "coordinates": [ [ -121.903368, 37.3782099 ], [ -121.9037128, 37.3795544 ], [ -121.9042401, 37.3819101 ], [ -121.9043626, 37.382567 ] ] } },
{ "type": "Feature", "properties": { "u": 312714757, "v": 258474804, "pm_start": 5.4883805353663675, "pm_end": 6.4813402950921475, "lanes": 4 }, "geometry": { "type": "LineString", "coordinates": [ [ -121.9043626, 37.382567 ], [ -121.9046168, 37.3835313 ], [ -121.9054418, 37.3870166 ], [ -121.9069223, 37.3932819 ], [ -121.9076988, 37.3966914 ] ] } },
{ "type": "Feature", "properties": { "u": 258474804, "v": 1080573699, "pm_start": 6.4813402950921475, "pm_end": 7.1870898154608174, "lanes": 4 }, "geometry": { "type": "LineString", "coordinates": [ [ -121.9076988, 37.3966914 ], [ -121.9089823, 37.4020269 ], [ -121.9096938, 37.4050625 ], [ -121.9098942, 37.4059175 ], [ -121.9100861, 37.4067282 ] ] } },
{ "type": "Feature", "properties": { "u": 1080573699, "v": 247138149, "pm_start": 7.1870898154608174, "pm_end": 7.4779109049882626, "lanes": 5 }, "geometry": { "type": "LineString", "coordinates": [ [ -121.9100861, 37.4067282 ], [ -121.9107858, 37.4093154 ], [ -121.911289, 37.4108263 ] ] } },
{ "type": "Feature", "properties": { "u": 247138149, "v": 311912822, "pm_start": 7.4779109049882626, "pm_end": 7.8862997034093336, "lanes": 4 }, "geometry": { "type": "LineString", "coordinates": [ [ -121.911289, 37.4108263 ], [ -121.9124745, 37.4142819 ], [ -121.9132415, 37.4165299 ] ] } },
{ "type": "Feature", "properties": { "u": 311912822, "v": 1700446579, "pm_start": 7.8862997034093336, "pm_end": 8.2518157334367732, "lanes": 5 }, "geometry": { "type": "LineString", "coordinates": [ [ -121.9132415, 37.4165299 ], [ -121.9143133, 37.4196818 ], [ -121.914992, 37.4216341 ] ] } },
{ "type": "Feature", "properties": { "u": 1700446579, "v": 251911884, "pm_start": 8.2518157334367732, "pm_end": 8.6184722524742554, "lanes": 4 }, "geometry": { "type": "LineString", "coordinates": [ [ -121.914992, 37.4216341 ], [ -121.9150237, 37.4217354 ], [ -121.915882, 37.4242745 ], [ -121.9163165, 37.4255057 ], [ -121.9167296, 37.4267581 ] ] } },
{ "type": "Feature", "properties": { "u": 251911884, "v": 65414355, "pm_start": 8.6184722524742554, "pm_end": 8.856621065185541, "lanes": 4 }, "geometry": { "type": "LineString", "coordinates": [ [ -121.9167296, 37.4267581 ], [ -121.9168422, 37.4270607 ], [ -121.9169763, 37.4273802 ], [ -121.9171147, 37.427709 ], [ -121.9173833, 37.4282618 ], [ -121.9177047, 37.4289102 ], [ -121.9179193, 37.4294384 ], [ -121.9181124, 37.430022 ] ] } },
{ "type": "Feature", "properties": { "u": 65414355, "v": 248102910, "pm_start": 8.856621065185541, "pm_end": 9.1275989626986718, "lanes": 4 }, "geometry": { "type": "LineString", "coordinates": [ [ -121.9181124, 37.430022 ], [ -121.9182895, 37.4306439 ], [ -121.9184128, 37.4312446 ], [ -121.9184879, 37.4317132 ], [ -121.918783, 37.433904 ] ] } },
{ "type": "Feature", "properties": { "u": 248102910, "v": 1068655670, "pm_start": 9.1275989626986718, "pm_end": 9.3588977249213503, "lanes": 6 }, "geometry": { "type": "LineString", "coordinates": [ [ -121.918783, 37.433904 ], [ -121.9190255, 37.4353799 ], [ -121.9193604, 37.43722 ] ] } },
{ "type": "Feature", "properties": { "u": 1068655670, "v": 1688870550, "pm_start": 9.3588977249213503, "pm_end": 10.135147318428425, "lanes": 6 }, "geometry": { "type": "LineString", "coordinates": [ [ -121.9193604, 37.43722 ], [ -121.9201482, 37.4411947 ], [ -121.920335, 37.4421463 ], [ -121.9206075, 37.4434487 ], [ -121.921518, 37.4477128 ], [ -121.9216274, 37.4483094 ] ] } },
{ "type": "Feature", "properties": { "u": 1688870550, "v": 1080458114, "pm_start": 10.135147318428425, "pm_end": 10.905513736785412, "lanes": 5 }, "geometry": { "type": "LineString", "coordinates": [ [ -121.9216274, 37.4483094 ], [ -121.9219784, 37.4500886 ], [ -121.9223461, 37.451952 ], [ -121.9226411, 37.4534979 ], [ -121.9227464, 37.4539839 ], [ -121.9230199, 37.4553721 ], [ -121.923315, 37.45682 ], [ -121.9234008, 37.4572288 ], [ -121.9235081, 37.4576206 ], [ -121.9236368, 37.4580336 ], [ -121.9237549, 37.4583913 ], [ -121.9239212, 37.4588171 ], [ -121.9240498, 37.4592838 ] ] } },
{ "type": "Feature", "properties": { "u": 1080458114, "v": 13319043533, "pm_start": 10.905513736785412, "pm_end": 11.627741486997353, "lanes": 6 }, "geometry": { "type": "LineString", "coordinates": [ [ -121.9240498, 37.4592838 ], [ -121.9251445, 37.4615287 ], [ -121.9259467, 37.4630493 ], [ -121.9282373, 37.4677584 ], [ -121.9288607, 37.4690137 ] ] } }
]
}
