{
"type": "FeatureCollection",
"name": "mainline",
"crs": { "type": "name", "properties": { "name": "urn:ogc:def:crs:OGC:1.3:CRS84" } },
"features": [
{ "type": "Feature", "properties": { "u": 241328971, "v": 678963606, "pm_start": 0.0, "pm_end": 0.67486250009779425, "lanes": 4 }, "geometry": { "type": "LineString", "coordinates": [ [ -122.2244149, 37.7718965 ], [ -122.2240009, 37.7717151 ], [ -122.2237492, 37.7715832 ], [ -122.2235462, 37.7714586 ], [ -122.2232645, 37.771283 ], [ -122.2230433, 37.7711298 ], [ -122.2227921, 37.7709367 ], [ -122.2225685, 37.7707499 ], [ -122.2223698, 37.7705725 ], [ -122.2221752, 37.7703766 ], [ -122.2219733, 37.7701692 ], [ -122.2216702, 37.769821 ], [ -122.2188232, 37.7660287 ], [ -122.2184765, 37.7656148 ], [ -122.2181854, 37.7652808 ], [ -122.2178367, 37.7648944 ], [ -122.2175039, 37.7645355 ], [ -122.2171499, 37.764122 ] ] } },
{ "type": "Feature", "properties": { "u": 678963606, "v": 52984138, "pm_start": 0.67486250009779425, "pm_end": 1.1715555094455321, "lanes": 4 }, "geometry": { "type": "LineString", "coordinates": [ [ -122.2171499, 37.764122 ], [ -122.2151784, 37.7618723 ], [ -122.2148433, 37.7614907 ], [ -122.2146592, 37.7612808 ], [ -122.2139065, 37.760422 ], [ -122.2123539, 37.7585982 ], [ -122.2120087, 37.7581928 ] ] } },
{ "type": "Feature", "properties": { "u": 52984138, "v": 241331864, "pm_start": 1.1715555094455321, "pm_end": 1.8828827184082506, "lanes": 4 }, "geometry": { "type": "LineString", "coordinates": [ [ -122.2120087, 37.7581928 ], [ -122.2107136, 37.7567902 ], [ -122.208285, 37.7540216 ], [ -122.2080796, 37.7537874 ], [ -122.2076918, 37.7533463 ], [ -122.2073471, 37.7529546 ], [ -122.2069772, 37.752534 ], [ -122.2045459, 37.7497568 ] ] } },
{ "type": "Feature", "properties": { "u": 241331864, "v": 241335045, "pm_start": 1.8828827184082506, "pm_end": 2.4053780363112089, "lanes": 4 }, "geometry": { "type": "LineString", "coordinates": [ [ -122.2045459, 37.7497568 ], [ -122.2029003, 37.7478874 ], [ -122.2015954, 37.7464048 ], [ -122.2014502, 37.7462406 ], [ -122.2011862, 37.745939 ], [ -122.1995294, 37.7440213 ], [ -122.1991096, 37.7435353 ] ] } },
{ "type": "Feature", "properties": { "u": 241335045, "v": 241335048, "pm_start": 2.4053780363112089, "pm_end": 2.7165213531975354, "lanes": 4 }, "geometry": { "type": "LineString", "coordinates": [ [ -122.1991096, 37.7435353 ], [ -122.1973963, 37.7416204 ], [ -122.1958655, 37.7398345 ] ] } },
{ "type": "Feature", "properties": { "u": 241335048, "v": 242106766, "pm_start": 2.7165213531975354, "pm_end": 2.9295582745736488, "lanes": 4 }, "geometry": { "type": "LineString", "coordinates": [ [ -122.1958655, 37.7398345 ], [ -122.1946017, 37.7383937 ], [ -122.193665, 37.7372893 ] ] } },
{ "type": "Feature", "properties": { "u": 242106766, "v": 242106767, "pm_start": 2.9295582745736488, "pm_end": 3.1735074432951378, "lanes": 6 }, "geometry": { "type": "LineString", "coordinates": [ [ -122.193665, 37.7372893 ], [ -122.1926326, 37.7361165 ], [ -122.1911025, 37.7343981 ] ] } },
{ "type": "Feature", "properties": { "u": 242106767, "v": 242187653, "pm_start": 3.1735074432951378, "pm_end": 3.4156051072966052, "lanes": 5 }, "geometry": { "type": "LineString", "coordinates": [ [ -122.1911025, 37.7343981 ], [ -122.1898064, 37.7329619 ], [ -122.1885308, 37.7315449 ] ] } },
{ "type": "Feature", "properties": { "u": 242187653, "v": 242187655, "pm_start": 3.4156051072966052, "pm_end": 3.5431147439583706, "lanes": 5 }, "geometry": { "type": "LineString", "coordinates": [ [ -122.1885308, 37.7315449 ], [ -122.1881045, 37.730958 ], [ -122.1872574, 37.7300005 ] ] } },
{ "type": "Feature", "properties": { "u": 242187655, "v": 242414019, "pm_start": 3.5431147439583706, "pm_end": 4.3186439280975097, "lanes": 5 }, "geometry": { "type": "LineString", "coordinates": [ [ -122.1872574, 37.7300005 ], [ -122.1867923, 37.729485 ], [ -122.1856615, 37.7282299 ], [ -122.1836606, 37.7259664 ], [ -122.1832851, 37.7255336 ], [ -122.1828506, 37.7250541 ], [ -122.1825072, 37.7246892 ], [ -122.1821559, 37.7243349 ], [ -122.1818018, 37.723987 ], [ -122.1800379, 37.7221764 ], [ -122.178853, 37.72096 ] ] } },
{ "type": "Feature", "properties": { "u": 242414019, "v": 3374503918, "pm_start": 4.3186439280975097, "pm_end": 4.5083998295458949, "lanes": 5 }, "geometry": { "type": "LineString", "coordinates": [ [ -122.178853, 37.72096 ], [ -122.1783056, 37.7205044 ], [ -122.1778875, 37.720092 ], [ -122.1772629, 37.7194705 ], [ -122.1766341, 37.71885 ] ] } },
{ "type": "Feature", "properties": { "u": 3374503918, "v": 1316702496, "pm_start": 4.5083998295458949, "pm_end": 4.5997977522487172, "lanes": 5 }, "geometry": { "type": "LineString", "coordinates": [ [ -122.1766341, 37.71885 ], [ -122.1763168, 37.7185435 ], [ -122.1755831, 37.7178211 ] ] } },
{ "type": "Feature", "properties": { "u": 1316702496, "v": 242465654, "pm_start": 4.5997977522487172, "pm_end": 5.0295002996884275, "lanes": 6 }, "geometry": { "type": "LineString", "coordinates": [ [ -122.1755831, 37.7178211 ], [ -122.1732947, 37.7155445 ], [ -122.1727789, 37.7150228 ], [ -122.1725699, 37.7148136 ], [ -122.1723612, 37.7146074 ], [ -122.1721475, 37.7144044 ], [ -122.1719293, 37.7142029 ], [ -122.1717073, 37.7140048 ], [ -122.1714817, 37.7138098 ], [ -122.171246, 37.7136134 ], [ -122.1710168, 37.713429 ], [ -122.1707788, 37.7132418 ], [ -122.1705393, 37.713058 ] ] } },
{ "type": "Feature", "properties": { "u": 242465654, "v": 3701155819, "pm_start": 5.0295002996884275, "pm_end": 5.2611409222691643, "lanes": 5 }, "geometry": { "type": "LineString", "coordinates": [ [ -122.1705393, 37.713058 ], [ -122.1702904, 37.7128747 ], [ -122.1700358, 37.7126936 ], [ -122.1697924, 37.7125244 ], [ -122.1673581, 37.7108432 ] ] } },
{ "type": "Feature", "properties": { "u": 3701155819, "v": 6347940589, "pm_start": 5.2611409222691643, "pm_end": 5.4955727718601386, "lanes": 5 }, "geometry": { "type": "LineString", "coordinates": [ [ -122.1673581, 37.7108432 ], [ -122.1663933, 37.710178 ], [ -122.1658879, 37.7098352 ], [ -122.1656327, 37.7096631 ], [ -122.1653778, 37.7094916 ], [ -122.1651227, 37.7093207 ], [ -122.1648669, 37.7091487 ], [ -122.1646116, 37.7089745 ], [ -122.164363, 37.7088025 ], [ -122.1641109, 37.7086268 ] ] } }
]
}
