{
"type": "FeatureCollection",
"name": "cells",
"crs": { "type": "name", "properties": { "name": "urn:ogc:def:crs:OGC:1.3:CRS84" } },
"features": [
{ "type": "Feature", "properties": { "pm_start": 1.288671, "pm_end": 1.488981, "length": 0.20031, "lanes": 3, "on_ramp": false, "off_ramp": false, "on_ramp_name": null, "off_ramp_name": null, "caltrans_pm_start": 1.200000171, "caltrans_pm_end": 1.400000121, "length_warning": "ok", "fd_vds_id": null, "vds_id": 400057, "vds_pm": 1.445897461, "vds_lanes": 3, "vds_source": "direct", "vds_distance_mi": 0.0, "vds_n_candidates": 1, "on_ramp_vds_id": null, "off_ramp_vds_id": null, "Notes": "Check lanes" }, "geometry": { "type": "LineString", "coordinates": [ [ -121.937595198421391, 37.333450501163135 ], [ -121.9369565, 37.3339211 ], [ -121.9365878, 37.3342081 ], [ -121.936298, 37.3344119 ], [ -121.9361774, 37.3345036 ], [ -121.9349508, 37.335446 ], [ -121.934950797943287, 37.335446001582412 ] ] } },
{ "type": "Feature", "properties": { "pm_start": 1.488981, "pm_end": 2.047847, "length": 0.558866, "lanes": 4, "on_ramp": true, "off_ramp": true, "on_ramp_name": null, "off_ramp_name": null, "caltrans_pm_start": 1.400000121, "caltrans_pm_end": 1.900000528, "length_warning": "ok", "fd_vds_id": null, "vds_id": 400057, "vds_pm": 1.445897461, "vds_lanes": 3, "vds_source": "nearest_upstream", "vds_distance_mi": -0.322516539, "vds_n_candidates": 0, "on_ramp_vds_id": "413029", "off_ramp_vds_id": "413028", "Notes": null }, "geometry": { "type": "LineString", "coordinates": [ [ -121.934950797943287, 37.335446001582412 ], [ -121.9331061, 37.3368653 ], [ -121.9305938, 37.3389435 ], [ -121.9300064, 37.3394222 ], [ -121.9287699, 37.3403524 ], [ -121.9277191, 37.3411323 ], [ -121.927719094296634, 37.341132304186232 ] ] } },
{ "type": "Feature", "properties": { "pm_start": 2.047847, "pm_end": 2.365016, "length": 0.317169, "lanes": 3, "on_ramp": false, "off_ramp": false, "on_ramp_name": null, "off_ramp_name": null, "caltrans_pm_start": 1.900000528, "caltrans_pm_end": 2.199999837, "length_warning": "ok", "fd_vds_id": null, "vds_id": 400147, "vds_pm": 2.156006149, "vds_lanes": 3, "vds_source": "direct", "vds_distance_mi": 0.0, "vds_n_candidates": 1, "on_ramp_vds_id": null, "off_ramp_vds_id": null, "Notes": null }, "geometry": { "type": "LineString", "coordinates": [ [ -121.927719094296634, 37.341132304186232 ], [ -121.9266586, 37.3419107 ], [ -121.9264065, 37.3421112 ], [ -121.926149, 37.3423265 ], [ -121.9256981, 37.342737 ], [ -121.9252638, 37.3432349 ], [ -121.9248669, 37.3436806 ], [ -121.9246335, 37.3439322 ], [ -121.9243358, 37.3442222 ], [ -121.9241534, 37.3443864 ], [ -121.923930404150155, 37.344575696477015 ] ] } },
{ "type": "Feature", "properties": { "pm_start": 2.365016, "pm_end": 2.722654, "length": 0.357638, "lanes": 4, "on_ramp": true, "off_ramp": true, "on_ramp_name": null, "off_ramp_name": null, "caltrans_pm_start": 2.199999837, "caltrans_pm_end": 2.599999741, "length_warning": "ok", "fd_vds_id": 400147.0, "vds_id": 427921, "vds_pm": 2.311819167, "vds_lanes": 4, "vds_source": "nearest_upstream", "vds_distance_mi": -0.232015833, "vds_n_candidates": 0, "on_ramp_vds_id": "413027, 427922", "off_ramp_vds_id": "403263", "Notes": null }, "geometry": { "type": "LineString", "coordinates": [ [ -121.923930404150155, 37.344575696477015 ], [ -121.9239304, 37.3445757 ], [ -121.9235928, 37.3448327 ], [ -121.9234278, 37.3449511 ], [ -121.9231743, 37.345133 ], [ -121.9222485, 37.345803 ], [ -121.9217506, 37.3461652 ], [ -121.9215532, 37.3463089 ], [ -121.9200549, 37.3473884 ], [ -121.919115801924349, 37.348060098623591 ] ] } },
{ "type": "Feature", "properties": { "pm_start": 2.722654, "pm_end": 3.067531, "length": 0.344877, "lanes": 3, "on_ramp": false, "off_ramp": false, "on_ramp_name": null, "off_ramp_name": null, "caltrans_pm_start": 2.599999741, "caltrans_pm_end": 2.900000592, "length_warning": "ok", "fd_vds_id": null, "vds_id": 400343, "vds_pm": 2.81507069, "vds_lanes": 3, "vds_source": "direct", "vds_distance_mi": 0.0, "vds_n_candidates": 1, "on_ramp_vds_id": null, "off_ramp_vds_id": null, "Notes": null }, "geometry": { "type": "LineString", "coordinates": [ [ -121.919115801924349, 37.348060098623591 ], [ -121.9191158, 37.3480601 ], [ -121.9186495, 37.3483973 ], [ -121.9177403, 37.349054 ], [ -121.9144735, 37.351421 ], [ -121.914473494686192, 37.351421004000215 ] ] } },
{ "type": "Feature", "properties": { "pm_start": 3.067531, "pm_end": 3.484403, "length": 0.416872, "lanes": 3, "on_ramp": true, "off_ramp": true, "on_ramp_name": null, "off_ramp_name": null, "caltrans_pm_start": 2.900000592, "caltrans_pm_end": 3.399999859, "length_warning": "ok", "fd_vds_id": null, "vds_id": 400343, "vds_pm": 2.81507069, "vds_lanes": 3, "vds_source": "nearest_upstream", "vds_distance_mi": -0.46089631, "vds_n_candidates": 0, "on_ramp_vds_id": "402937", "off_ramp_vds_id": "418852", "Notes": null }, "geometry": { "type": "LineString", "coordinates": [ [ -121.914473494686192, 37.351421004000215 ], [ -121.9130791, 37.3524707 ], [ -121.9120183, 37.3534308 ], [ -121.9115788, 37.3538683 ], [ -121.90946760232471, 37.355943897714496 ] ] } },
{ "type": "Feature", "properties": { "pm_start": 3.484403, "pm_end": 3.838044, "length": 0.353641, "lanes": 3, "on_ramp": false, "off_ramp": false, "on_ramp_name": null, "off_ramp_name": null, "caltrans_pm_start": 3.399999859, "caltrans_pm_end": 3.799999586, "length_warning": "ok", "fd_vds_id": null, "vds_id": 401560, "vds_pm": 3.623976503, "vds_lanes": 3, "vds_source": "direct", "vds_distance_mi": 0.0, "vds_n_candidates": 1, "on_ramp_vds_id": null, "off_ramp_vds_id": null, "Notes": "Artificially shortened to lend 0.03 miles to downstream cell" }, "geometry": { "type": "LineString", "coordinates": [ [ -121.90946760232471, 37.355943897714496 ], [ -121.9094676, 37.3559439 ], [ -121.9075579, 37.3578378 ], [ -121.9072049, 37.3581974 ], [ -121.9069659, 37.3584318 ], [ -121.905434725650437, 37.359934307707981 ] ] } },
{ "type": "Feature", "properties": { "pm_start": 3.838044, "pm_end": 4.039359, "length": 0.201315, "lanes": 4, "on_ramp": true, "off_ramp": true, "on_ramp_name": null, "off_ramp_name": null, "caltrans_pm_start": 3.799999586, "caltrans_pm_end": 3.899999864, "length_warning": "ok", "fd_vds_id": null, "vds_id": 422357, "vds_pm": 3.72366026, "vds_lanes": 4, "vds_source": "nearest_upstream", "vds_distance_mi": -0.23004124, "vds_n_candidates": 0, "on_ramp_vds_id": "418851, 422358", "off_ramp_vds_id": "408411, 408404", "Notes": "Artificially lengthened by borrowing 0.03 miles from upstream cell; OR to 101N moved upward into this cell" }, "geometry": { "type": "LineString", "coordinates": [ [ -121.905434725650437, 37.359934307707981 ], [ -121.9050911, 37.3602715 ], [ -121.9047036, 37.360681 ], [ -121.9045457, 37.3608365 ], [ -121.903145504621904, 37.362209295468539 ] ] } },
{ "type": "Feature", "properties": { "pm_start": 4.039359, "pm_end": 4.337984, "length": 0.298625, "lanes": 4, "on_ramp": false, "off_ramp": true, "on_ramp_name": null, "off_ramp_name": null, "caltrans_pm_start": 3.899999864, "caltrans_pm_end": 4.200000241, "length_warning": "ok", "fd_vds_id": null, "vds_id": 400045, "vds_pm": 4.135918476, "vds_lanes": 4, "vds_source": "direct_tiebreak", "vds_distance_mi": 0.0, "vds_n_candidates": 2, "on_ramp_vds_id": null, "off_ramp_vds_id": "418849", "Notes": "FR moved up to fulfill (a), (b), (e)" }, "geometry": { "type": "LineString", "coordinates": [ [ -121.903145504621904, 37.362209295468539 ], [ -121.9031455, 37.3622093 ], [ -121.9030088, 37.3623471 ], [ -121.902779, 37.362612 ], [ -121.9025759, 37.3628598 ], [ -121.9022906, 37.3632532 ], [ -121.902109, 37.3635197 ], [ -121.9020063, 37.3636718 ], [ -121.9019499, 37.3637771 ], [ -121.9017698, 37.3641134 ], [ -121.9015937, 37.3644868 ], [ -121.9015347, 37.3646209 ], [ -121.901502, 37.3646986 ], [ -121.9014106, 37.3649459 ], [ -121.9012848, 37.365304 ], [ -121.9012365, 37.3654916 ], [ -121.9011775, 37.3657496 ], [ -121.9011043, 37.3661588 ], [ -121.901104299069871, 37.366158806553628 ] ] } },
{ "type": "Feature", "properties": { "pm_start": 4.337984, "pm_end": 4.704231, "length": 0.366247, "lanes": 3, "on_ramp": true, "off_ramp": false, "on_ramp_name": null, "off_ramp_name": null, "caltrans_pm_start": 4.200000241, "caltrans_pm_end": 4.600000215, "length_warning": "ok", "fd_vds_id": null, "vds_id": 401541, "vds_pm": 4.619767599, "vds_lanes": 3, "vds_source": "direct", "vds_distance_mi": 0.0, "vds_n_candidates": 1, "on_ramp_vds_id": "408437, 408438", "off_ramp_vds_id": null, "Notes": null }, "geometry": { "type": "LineString", "coordinates": [ [ -121.901104299069871, 37.366158806553628 ], [ -121.9010847, 37.3662969 ], [ -121.9010737, 37.3663742 ], [ -121.9010228, 37.3669246 ], [ -121.9010184, 37.3671512 ], [ -121.9010207, 37.3674586 ], [ -121.9010237, 37.3676916 ], [ -121.9010633, 37.3681154 ], [ -121.9011101, 37.3684367 ], [ -121.9011743, 37.368729 ], [ -121.9017409, 37.3712635 ], [ -121.9017775, 37.3714063 ], [ -121.901777500909105, 37.371406304301097 ] ] } },
{ "type": "Feature", "properties": { "pm_start": 4.704231, "pm_end": 5.182374, "length": 0.478143, "lanes": 3, "on_ramp": true, "off_ramp": true, "on_ramp_name": null, "off_ramp_name": null, "caltrans_pm_start": 4.600000215, "caltrans_pm_end": 5.099999826, "length_warning": "ok", "fd_vds_id": null, "vds_id": 401541, "vds_pm": 4.619767599, "vds_lanes": 3, "vds_source": "nearest_upstream", "vds_distance_mi": -0.323534901, "vds_n_candidates": 0, "on_ramp_vds_id": "418850", "off_ramp_vds_id": "422361", "Notes": null }, "geometry": { "type": "LineString", "coordinates": [ [ -121.901777500909105, 37.371406304301097 ], [ -121.9019047, 37.3720081 ], [ -121.9019946, 37.3724303 ], [ -121.9027059, 37.3753497 ], [ -121.90336799976707, 37.378209898993774 ] ] } },
{ "type": "Feature", "properties": { "pm_start": 5.182374, "pm_end": 5.488381, "length": 0.306007, "lanes": 4, "on_ramp": false, "off_ramp": false, "on_ramp_name": null, "off_ramp_name": null, "caltrans_pm_start": 5.099999826, "caltrans_pm_end": 5.400000568, "length_warning": "ok", "fd_vds_id": null, "vds_id": 422359, "vds_pm": 5.374095996, "vds_lanes": 4, "vds_source": "direct", "vds_distance_mi": 0.0, "vds_n_candidates": 1, "on_ramp_vds_id": null, "off_ramp_vds_id": null, "Notes": null }, "geometry": { "type": "LineString", "coordinates": [ [ -121.90336799976707, 37.378209898993774 ], [ -121.903368, 37.3782099 ], [ -121.9037128, 37.3795544 ], [ -121.9042401, 37.3819101 ], [ -121.9043626, 37.382567 ], [ -121.904362601731108, 37.382567006566937 ] ] } },
{ "type": "Feature", "properties": { "pm_start": 5.488381, "pm_end": 6.48134, "length": 0.992959, "lanes": 4, "on_ramp": true, "off_ramp": true, "on_ramp_name": null, "off_ramp_name": null, "caltrans_pm_start": 5.400000568, "caltrans_pm_end": 6.399999803, "length_warning": "ok", "fd_vds_id": null, "vds_id": 422359, "vds_pm": 5.374095996, "vds_lanes": 4, "vds_source": "nearest_upstream", "vds_distance_mi": -0.610764504, "vds_n_candidates": 0, "on_ramp_vds_id": "422360", "off_ramp_vds_id": "v400001", "Notes": "FR missing VDS" }, "geometry": { "type": "LineString", "coordinates": [ [ -121.904362601731108, 37.382567006566937 ], [ -121.9046168, 37.3835313 ], [ -121.9054418, 37.3870166 ], [ -121.9069223, 37.3932819 ], [ -121.907698799042223, 37.396691395794505 ] ] } },
{ "type": "Feature", "properties": { "pm_start": 6.48134, "pm_end": 7.18709, "length": 0.70575, "lanes": 4, "on_ramp": false, "off_ramp": false, "on_ramp_name": null, "off_ramp_name": null, "caltrans_pm_start": 6.399999803, "caltrans_pm_end": 7.10000009, "length_warning": "ok", "fd_vds_id": null, "vds_id": 423139, "vds_pm": 6.982526671, "vds_lanes": 4, "vds_source": "direct", "vds_distance_mi": 0.0, "vds_n_candidates": 1, "on_ramp_vds_id": null, "off_ramp_vds_id": null, "Notes": null }, "geometry": { "type": "LineString", "coordinates": [ [ -121.907698799042223, 37.396691395794505 ], [ -121.9076988, 37.3966914 ], [ -121.9089823, 37.4020269 ], [ -121.9096938, 37.4050625 ], [ -121.9098942, 37.4059175 ], [ -121.9100861, 37.4067282 ], [ -121.910086100707801, 37.406728202617167 ] ] } },
{ "type": "Feature", "properties": { "pm_start": 7.18709, "pm_end": 7.477911, "length": 0.290821, "lanes": 5, "on_ramp": true, "off_ramp": true, "on_ramp_name": null, "off_ramp_name": null, "caltrans_pm_start": 7.10000009, "caltrans_pm_end": 7.400000193, "length_warning": "ok", "fd_vds_id": null, "vds_id": 423139, "vds_pm": 6.982526671, "vds_lanes": 5, "vds_source": "nearest_upstream", "vds_distance_mi": -0.349973829, "vds_n_candidates": 0, "on_ramp_vds_id": "423140", "off_ramp_vds_id": "402939", "Notes": null }, "geometry": { "type": "LineString", "coordinates": [ [ -121.910086100707801, 37.406728202617167 ], [ -121.9107858, 37.4093154 ], [ -121.911289, 37.4108263 ], [ -121.911289000455128, 37.410826301326637 ] ] } },
{ "type": "Feature", "properties": { "pm_start": 7.477911, "pm_end": 7.8863, "length": 0.408389, "lanes": 4, "on_ramp": false, "off_ramp": false, "on_ramp_name": null, "off_ramp_name": null, "caltrans_pm_start": 7.400000193, "caltrans_pm_end": 7.800000433, "length_warning": "ok", "fd_vds_id": null, "vds_id": 400088, "vds_pm": 7.775269727, "vds_lanes": 4, "vds_source": "direct", "vds_distance_mi": 0.0, "vds_n_candidates": 1, "on_ramp_vds_id": null, "off_ramp_vds_id": null, "Notes": null }, "geometry": { "type": "LineString", "coordinates": [ [ -121.911289000455128, 37.410826301326637 ], [ -121.9124745, 37.4142819 ], [ -121.9132415, 37.4165299 ], [ -121.913241501409644, 37.416529904145406 ] ] } },
{ "type": "Feature", "properties": { "pm_start": 7.8863, "pm_end": 8.251816, "length": 0.365516, "lanes": 5, "on_ramp": true, "off_ramp": true, "on_ramp_name": null, "off_ramp_name": null, "caltrans_pm_start": 7.800000433, "caltrans_pm_end": 8.100000671, "length_warning": "ok", "fd_vds_id": null, "vds_id": 413026, "vds_pm": 8.221996069, "vds_lanes": 5, "vds_source": "direct", "vds_distance_mi": 0.0, "vds_n_candidates": 1, "on_ramp_vds_id": "402940", "off_ramp_vds_id": "403185", "Notes": null }, "geometry": { "type": "LineString", "coordinates": [ [ -121.913241501409644, 37.416529904145406 ], [ -121.9143133, 37.4196818 ], [ -121.914992, 37.4216341 ], [ -121.914992001174795, 37.421634103754172 ] ] } },
{ "type": "Feature", "properties": { "pm_start": 8.251816, "pm_end": 8.618472, "length": 0.366656, "lanes": 4, "on_ramp": false, "off_ramp": false, "on_ramp_name": null, "off_ramp_name": null, "caltrans_pm_start": 8.100000671, "caltrans_pm_end": 8.499999725, "length_warning": "ok", "fd_vds_id": null, "vds_id": 401464, "vds_pm": 8.48008787, "vds_lanes": 4, "vds_source": "direct", "vds_distance_mi": 0.0, "vds_n_candidates": 1, "on_ramp_vds_id": null, "off_ramp_vds_id": null, "Notes": null }, "geometry": { "type": "LineString", "coordinates": [ [ -121.914992001174795, 37.421634103754172 ], [ -121.9150237, 37.4217354 ], [ -121.915882, 37.4242745 ], [ -121.9163165, 37.4255057 ], [ -121.916729598832916, 37.426758096461732 ] ] } },
{ "type": "Feature", "properties": { "pm_start": 8.618472, "pm_end": 8.856621, "length": 0.238149, "lanes": 4, "on_ramp": true, "off_ramp": false, "on_ramp_name": null, "off_ramp_name": null, "caltrans_pm_start": 8.499999725, "caltrans_pm_end": 8.699999755, "length_warning": "ok", "fd_vds_id": null, "vds_id": 401489, "vds_pm": 8.669556815, "vds_lanes": 4, "vds_source": "direct", "vds_distance_mi": 0.0, "vds_n_candidates": 1, "on_ramp_vds_id": "403186", "off_ramp_vds_id": null, "Notes": null }, "geometry": { "type": "LineString", "coordinates": [ [ -121.916729598832916, 37.426758096461732 ], [ -121.9167296, 37.4267581 ], [ -121.9168422, 37.4270607 ], [ -121.9169763, 37.4273802 ], [ -121.9171147, 37.427709 ], [ -121.9173833, 37.4282618 ], [ -121.9177047, 37.4289102 ], [ -121.9179193, 37.4294384 ], [ -121.91811239969482, 37.430021999077688 ] ] } },
{ "type": "Feature", "properties": { "pm_start": 8.856621, "pm_end": 9.127599, "length": 0.270978, "lanes": 6, "on_ramp": true, "off_ramp": false, "on_ramp_name": null, "off_ramp_name": null, "caltrans_pm_start": 8.699999755, "caltrans_pm_end": 9.0000000320000009, "length_warning": "ok", "fd_vds_id": 401489.0, "vds_id": 401538, "vds_pm": 8.890420729000001, "vds_lanes": 6, "vds_source": "direct", "vds_distance_mi": 0.0, "vds_n_candidates": 1, "on_ramp_vds_id": "403187", "off_ramp_vds_id": null, "Notes": null }, "geometry": { "type": "LineString", "coordinates": [ [ -121.91811239969482, 37.430021999077688 ], [ -121.9181124, 37.430022 ], [ -121.9182895, 37.4306439 ], [ -121.9184128, 37.4312446 ], [ -121.9184879, 37.4317132 ], [ -121.918783, 37.433904 ], [ -121.918783000088013, 37.433904000535648 ] ] } },
{ "type": "Feature", "properties": { "pm_start": 9.127599, "pm_end": 9.358898, "length": 0.231299, "lanes": 6, "on_ramp": true, "off_ramp": false, "on_ramp_name": null, "off_ramp_name": null, "caltrans_pm_start": 9.0000000320000009, "caltrans_pm_end": 9.2000000929999999, "length_warning": "ok", "fd_vds_id": 401489.0, "vds_id": 401538, "vds_pm": 8.890420729000001, "vds_lanes": 6, "vds_source": "nearest_upstream", "vds_distance_mi": -0.352827771, "vds_n_candidates": 0, "on_ramp_vds_id": "403188", "off_ramp_vds_id": null, "Notes": null }, "geometry": { "type": "LineString", "coordinates": [ [ -121.918783000088013, 37.433904000535648 ], [ -121.9190255, 37.4353799 ], [ -121.9193604, 37.43722 ], [ -121.919360400779851, 37.43722000393462 ] ] } },
{ "type": "Feature", "properties": { "pm_start": 9.358898, "pm_end": 10.135147, "length": 0.776249, "lanes": 6, "on_ramp": true, "off_ramp": true, "on_ramp_name": null, "off_ramp_name": null, "caltrans_pm_start": 9.2000000929999999, "caltrans_pm_end": 9.9999996719999995, "length_warning": "ok", "fd_vds_id": 401489.0, "vds_id": 401538, "vds_pm": 8.890420729000001, "vds_lanes": 6, "vds_source": "nearest_upstream", "vds_distance_mi": -0.856601771, "vds_n_candidates": 0, "on_ramp_vds_id": "v400002", "off_ramp_vds_id": "403194", "Notes": "OR missing VDS" }, "geometry": { "type": "LineString", "coordinates": [ [ -121.919360400779851, 37.43722000393462 ], [ -121.9201482, 37.4411947 ], [ -121.920335, 37.4421463 ], [ -121.9206075, 37.4434487 ], [ -121.921518, 37.4477128 ], [ -121.921627399162517, 37.448309395432872 ] ] } },
{ "type": "Feature", "properties": { "pm_start": 10.135147, "pm_end": 10.905514, "length": 0.770367, "lanes": 5, "on_ramp": false, "off_ramp": false, "on_ramp_name": null, "off_ramp_name": null, "caltrans_pm_start": 9.9999996719999995, "caltrans_pm_end": 0.300000265, "length_warning": "ok", "fd_vds_id": null, "vds_id": 401643, "vds_pm": 10.69914419, "vds_lanes": 5, "vds_source": "direct", "vds_distance_mi": 0.0, "vds_n_candidates": 1, "on_ramp_vds_id": null, "off_ramp_vds_id": null, "Notes": null }, "geometry": { "type": "LineString", "coordinates": [ [ -121.921627399162517, 37.448309395432872 ], [ -121.9216274, 37.4483094 ], [ -121.9219784, 37.4500886 ], [ -121.9223461, 37.451952 ], [ -121.9226411, 37.4534979 ], [ -121.9227464, 37.4539839 ], [ -121.9230199, 37.4553721 ], [ -121.923315, 37.45682 ], [ -121.9234008, 37.4572288 ], [ -121.9235081, 37.4576206 ], [ -121.9236368, 37.4580336 ], [ -121.9237549, 37.4583913 ], [ -121.9239212, 37.4588171 ], [ -121.9240498, 37.4592838 ], [ -121.924049801733972, 37.459283803555849 ] ] } },
{ "type": "Feature", "properties": { "pm_start": 10.905514, "pm_end": 11.627741, "length": 0.722227, "lanes": 6, "on_ramp": true, "off_ramp": false, "on_ramp_name": null, "off_ramp_name": null, "caltrans_pm_start": 0.300000265, "caltrans_pm_end": 0.99999952800000003, "length_warning": "ok", "fd_vds_id": null, "vds_id": 402800, "vds_pm": 11.18484194, "vds_lanes": 6, "vds_source": "direct_tiebreak", "vds_distance_mi": 0.0, "vds_n_candidates": 2, "on_ramp_vds_id": "403199, 403200", "off_ramp_vds_id": null, "Notes": null }, "geometry": { "type": "LineString", "coordinates": [ [ -121.924049801733972, 37.459283803555849 ], [ -121.9251445, 37.4615287 ], [ -121.9259467, 37.4630493 ], [ -121.9282373, 37.4677584 ], [ -121.928860696744366, 37.469013693444353 ] ] } },
{ "type": "Feature", "properties": { "pm_start": 11.627741, "pm_end": 12.223033, "length": 0.595292, "lanes": 6, "on_ramp": false, "off_ramp": true, "on_ramp_name": null, "off_ramp_name": "CA 262", "caltrans_pm_start": 0.99999952800000003, "caltrans_pm_end": 1.4999999909999999, "length_warning": "ok", "fd_vds_id": null, "vds_id": 407219, "vds_pm": 11.18484194, "vds_lanes": 6, "vds_source": "direct", "vds_distance_mi": 0.0, "vds_n_candidates": 1, "on_ramp_vds_id": null, "off_ramp_vds_id": "420002", "Notes": null }, "geometry": { "type": "LineString", "coordinates": [ [ -121.928860696744366, 37.469013693444353 ], [ -121.9288607, 37.4690137 ], [ -121.9297208, 37.4707753 ], [ -121.9320536, 37.4755529 ], [ -121.93281979992544, 37.477035799855699 ] ] } },
{ "type": "Feature", "properties": { "pm_start": 12.223033, "pm_end": 12.486685, "length": 0.263652, "lanes": 4, "on_ramp": false, "off_ramp": true, "on_ramp_name": null, "off_ramp_name": null, "caltrans_pm_start": 1.4999999909999999, "caltrans_pm_end": 1.800000522, "length_warning": "ok", "fd_vds_id": null, "vds_id": 402789, "vds_pm": 12.33838034, "vds_lanes": 4, "vds_source": "direct_tiebreak", "vds_distance_mi": 0.0, "vds_n_candidates": 2, "on_ramp_vds_id": null, "off_ramp_vds_id": "420001", "Notes": null }, "geometry": { "type": "LineString", "coordinates": [ [ -121.93281979992544, 37.477035799855699 ], [ -121.9328198, 37.4770358 ], [ -121.9346045, 37.4805791 ], [ -121.934604502512755, 37.480579104693447 ] ] } },
{ "type": "Feature", "properties": { "pm_start": 12.486685, "pm_end": 12.898275, "length": 0.41159, "lanes": 4, "on_ramp": false, "off_ramp": false, "on_ramp_name": null, "off_ramp_name": null, "caltrans_pm_start": 1.800000522, "caltrans_pm_end": 2.499999798, "length_warning": "ok", "fd_vds_id": null, "vds_id": 408755, "vds_pm": 12.65900868, "vds_lanes": 4, "vds_source": "direct_tiebreak", "vds_distance_mi": 0.0, "vds_n_candidates": 3, "on_ramp_vds_id": null, "off_ramp_vds_id": null, "Notes": null }, "geometry": { "type": "LineString", "coordinates": [ [ -121.934604502512755, 37.480579104693447 ], [ -121.9348406, 37.4810201 ], [ -121.9349823, 37.4812799 ], [ -121.935127, 37.4815302 ], [ -121.935289, 37.4817827 ], [ -121.935467, 37.4820517 ], [ -121.9356347, 37.4823192 ], [ -121.9358381, 37.4825787 ], [ -121.9360245, 37.4828182 ], [ -121.9362101, 37.4830423 ], [ -121.9364166, 37.4832813 ], [ -121.9366255, 37.4834956 ], [ -121.936832, 37.4837155 ], [ -121.9370805, 37.483949 ], [ -121.9373283, 37.4841716 ], [ -121.9375845, 37.4843912 ], [ -121.9378431, 37.4846005 ], [ -121.9380385, 37.4847488 ], [ -121.9388738985228, 37.485406298837368 ] ] } },
{ "type": "Feature", "properties": { "pm_start": 12.898275, "pm_end": 13.384404, "length": 0.486129, "lanes": 4, "on_ramp": true, "off_ramp": true, "on_ramp_name": null, "off_ramp_name": null, "caltrans_pm_start": 2.499999798, "caltrans_pm_end": 3.000000574, "length_warning": "ok", "fd_vds_id": 400189.0, "vds_id": 408756, "vds_pm": 12.727, "vds_lanes": 4, "vds_source": "ff_assignment", "vds_distance_mi": 0.0, "vds_n_candidates": 3, "on_ramp_vds_id": "418449, 425000", "off_ramp_vds_id": "402947", "Notes": null }, "geometry": { "type": "LineString", "coordinates": [ [ -121.9388738985228, 37.485406298837368 ], [ -121.9388739, 37.4854063 ], [ -121.9406517, 37.4867736 ], [ -121.9418066, 37.4876648 ], [ -121.9435661, 37.4890166 ], [ -121.9452337, 37.490309 ], [ -121.945233706429931, 37.490309004887358 ] ] } },
{ "type": "Feature", "properties": { "pm_start": 13.384404, "pm_end": 13.724622, "length": 0.340218, "lanes": 4, "on_ramp": false, "off_ramp": false, "on_ramp_name": null, "off_ramp_name": null, "caltrans_pm_start": 3.000000574, "caltrans_pm_end": 3.399999733, "length_warning": "ok", "fd_vds_id": null, "vds_id": 400189, "vds_pm": 13.66477312, "vds_lanes": 4, "vds_source": "direct", "vds_distance_mi": 0.0, "vds_n_candidates": 1, "on_ramp_vds_id": null, "off_ramp_vds_id": null, "Notes": null }, "geometry": { "type": "LineString", "coordinates": [ [ -121.945233706429931, 37.490309004887358 ], [ -121.9472841, 37.4918675 ], [ -121.949695895915141, 37.493731096843632 ] ] } },
{ "type": "Feature", "properties": { "pm_start": 13.724622, "pm_end": 13.930324, "length": 0.205702, "lanes": 4, "on_ramp": true, "off_ramp": false, "on_ramp_name": null, "off_ramp_name": null, "caltrans_pm_start": 3.399999733, "caltrans_pm_end": 3.500000488, "length_warning": "ok", "fd_vds_id": null, "vds_id": 400309, "vds_pm": 13.85187751, "vds_lanes": 4, "vds_source": "direct", "vds_distance_mi": 0.0, "vds_n_candidates": 1, "on_ramp_vds_id": "402948", "off_ramp_vds_id": null, "Notes": "Borrowed 0.05 miles from next cell" }, "geometry": { "type": "LineString", "coordinates": [ [ -121.949695895915141, 37.493731096843632 ], [ -121.9496959, 37.4937311 ], [ -121.9517307, 37.4953033 ], [ -121.952392321503567, 37.495801282222494 ] ] } },
{ "type": "Feature", "properties": { "pm_start": 13.930324, "pm_end": 14.758835, "length": 0.828511, "lanes": 4, "on_ramp": true, "off_ramp": true, "on_ramp_name": null, "off_ramp_name": null, "caltrans_pm_start": 3.500000488, "caltrans_pm_end": 4.399999839, "length_warning": "ok", "fd_vds_id": null, "vds_id": 400417, "vds_pm": 14.4042856, "vds_lanes": 4, "vds_source": "direct", "vds_distance_mi": 0.0, "vds_n_candidates": 1, "on_ramp_vds_id": "402949", "off_ramp_vds_id": "402951", "Notes": "Loaned 0.05 miles to previous cell" }, "geometry": { "type": "LineString", "coordinates": [ [ -121.952392321503567, 37.495801282222494 ], [ -121.9540721, 37.4970656 ], [ -121.9542676, 37.4972153 ], [ -121.9573482, 37.499601 ], [ -121.9590389, 37.5009146 ], [ -121.9590828, 37.5009491 ], [ -121.963248196337872, 37.504144597190589 ] ] } },
{ "type": "Feature", "properties": { "pm_start": 14.758835, "pm_end": 15.14776, "length": 0.388925, "lanes": 4, "on_ramp": false, "off_ramp": false, "on_ramp_name": null, "off_ramp_name": null, "caltrans_pm_start": 4.399999839, "caltrans_pm_end": 4.799999824, "length_warning": "ok", "fd_vds_id": null, "vds_id": 400249, "vds_pm": 15.02576428, "vds_lanes": 4, "vds_source": "direct", "vds_distance_mi": 0.0, "vds_n_candidates": 1, "on_ramp_vds_id": null, "off_ramp_vds_id": null, "Notes": null }, "geometry": { "type": "LineString", "coordinates": [ [ -121.963248196337872, 37.504144597190589 ], [ -121.9632482, 37.5041446 ], [ -121.9664321, 37.5067042 ], [ -121.968232895432322, 37.508150696330993 ] ] } },
{ "type": "Feature", "properties": { "pm_start": 15.14776, "pm_end": 15.352213, "length": 0.204453, "lanes": 4, "on_ramp": true, "off_ramp": false, "on_ramp_name": null, "off_ramp_name": null, "caltrans_pm_start": 4.799999824, "caltrans_pm_end": 4.9999996040000001, "length_warning": "ok", "fd_vds_id": null, "vds_id": 401639, "vds_pm": 15.16539949, "vds_lanes": 4, "vds_source": "direct", "vds_distance_mi": 0.0, "vds_n_candidates": 1, "on_ramp_vds_id": "402952", "off_ramp_vds_id": null, "Notes": "Borrowed 0.01 miles from next cell" }, "geometry": { "type": "LineString", "coordinates": [ [ -121.968232895432322, 37.508150696330993 ], [ -121.9682329, 37.5081507 ], [ -121.9707069, 37.5101679 ], [ -121.970834709106114, 37.510271443462152 ] ] } },
{ "type": "Feature", "properties": { "pm_start": 15.352213, "pm_end": 16.324028, "length": 0.971815, "lanes": 4, "on_ramp": true, "off_ramp": true, "on_ramp_name": null, "off_ramp_name": null, "caltrans_pm_start": 4.9999996040000001, "caltrans_pm_end": 5.95302441, "length_warning": "ok", "fd_vds_id": null, "vds_id": 401639, "vds_pm": 15.16539949, "vds_lanes": 4, "vds_source": "nearest_upstream", "vds_distance_mi": -0.667721013, "vds_n_candidates": 0, "on_ramp_vds_id": "402943", "off_ramp_vds_id": "402956", "Notes": "Loaned 0.01 miles to previous cell" }, "geometry": { "type": "LineString", "coordinates": [ [ -121.970834709106114, 37.510271443462152 ], [ -121.9718941, 37.5111297 ], [ -121.9721369, 37.5113188 ], [ -121.9751079, 37.5137085 ], [ -121.9822259, 37.5194484 ], [ -121.9827663, 37.5198645 ], [ -121.9833101, 37.5202658 ], [ -121.983310104817193, 37.520265803094716 ] ] } },
{ "type": "Feature", "properties": { "pm_start": 16.324028, "pm_end": 16.672628, "length": 0.3486, "lanes": 4, "on_ramp": false, "off_ramp": false, "on_ramp_name": null, "off_ramp_name": null, "caltrans_pm_start": 5.95302441, "caltrans_pm_end": 6.300000786, "length_warning": "ok", "fd_vds_id": null, "vds_id": 400662, "vds_pm": 16.54664407, "vds_lanes": 4, "vds_source": "direct", "vds_distance_mi": 0.0, "vds_n_candidates": 1, "on_ramp_vds_id": null, "off_ramp_vds_id": null, "Notes": null }, "geometry": { "type": "LineString", "coordinates": [ [ -121.983310104817193, 37.520265803094716 ], [ -121.9837805, 37.520568 ], [ -121.983981, 37.5206889 ], [ -121.9843579, 37.5209052 ], [ -121.9849686, 37.5212486 ], [ -121.9855747, 37.5215608 ], [ -121.9886083, 37.5230499 ], [ -121.988608307423505, 37.523049903737082 ] ] } },
{ "type": "Feature", "properties": { "pm_start": 16.672628, "pm_end": 17.317284, "length": 0.644656, "lanes": 3, "on_ramp": true, "off_ramp": true, "on_ramp_name": null, "off_ramp_name": null, "caltrans_pm_start": 6.300000786, "caltrans_pm_end": 6.899999996, "length_warning": "ok", "fd_vds_id": null, "vds_id": 400141, "vds_pm": 16.73664891, "vds_lanes": 4, "vds_source": "nearest_upstream", "vds_distance_mi": -0.339159086, "vds_n_candidates": 0, "on_ramp_vds_id": "402957, 402960", "off_ramp_vds_id": "402962", "Notes": "Combined due to short distance after 402957" }, "geometry": { "type": "LineString", "coordinates": [ [ -121.988608307423505, 37.523049903737082 ], [ -121.9910997, 37.5243041 ], [ -121.9966334, 37.5270065 ], [ -121.9975559, 37.5274581 ], [ -121.998603198043213, 37.527970899041875 ] ] } },
{ "type": "Feature", "properties": { "pm_start": 17.317284, "pm_end": 17.639585, "length": 0.322301, "lanes": 4, "on_ramp": false, "off_ramp": false, "on_ramp_name": null, "off_ramp_name": null, "caltrans_pm_start": 6.899999996, "caltrans_pm_end": 7.300000122, "length_warning": "ok", "fd_vds_id": null, "vds_id": 400761, "vds_pm": 17.49364965, "vds_lanes": 4, "vds_source": "direct", "vds_distance_mi": 0.0, "vds_n_candidates": 1, "on_ramp_vds_id": null, "off_ramp_vds_id": null, "Notes": null }, "geometry": { "type": "LineString", "coordinates": [ [ -121.998603198043213, 37.527970899041875 ], [ -121.9986032, 37.5279709 ], [ -121.9989273, 37.5281417 ], [ -121.9997092, 37.5285546 ], [ -122.0004717, 37.5289699 ], [ -122.003473399171085, 37.530586599553544 ] ] } },
{ "type": "Feature", "properties": { "pm_start": 17.639585, "pm_end": 18.2, "length": 0.560415, "lanes": 4, "on_ramp": true, "off_ramp": false, "on_ramp_name": null, "off_ramp_name": null, "caltrans_pm_start": 7.300000122, "caltrans_pm_end": 7.400000385, "length_warning": "ok", "fd_vds_id": null, "vds_id": 400490, "vds_pm": 17.72348384, "vds_lanes": 4, "vds_source": "nearest_upstream", "vds_distance_mi": 0.0, "vds_n_candidates": 1, "on_ramp_vds_id": "402963, 402965", "off_ramp_vds_id": null, "Notes": "Combined ORs, borrowed 0.384044 miles from next cell" }, "geometry": { "type": "LineString", "coordinates": [ [ -122.003473399171085, 37.530586599553544 ], [ -122.0034734, 37.5305866 ], [ -122.0051031, 37.5314718 ], [ -122.0061082, 37.5320525 ], [ -122.01166089396007, 37.535035613390747 ] ] } },
{ "type": "Feature", "properties": { "pm_start": 18.2, "pm_end": 18.968856, "length": 0.768856, "lanes": 5, "on_ramp": true, "off_ramp": true, "on_ramp_name": null, "off_ramp_name": null, "caltrans_pm_start": 7.400000385, "caltrans_pm_end": 8.60000065, "length_warning": "ok", "fd_vds_id": null, "vds_id": 401888, "vds_pm": 18.80098639, "vds_lanes": 5, "vds_source": "nearest_upstream", "vds_distance_mi": 0.0, "vds_n_candidates": 1, "on_ramp_vds_id": null, "off_ramp_vds_id": "402967", "Notes": "Split cell, loaned 0.384044 to previous cell" }, "geometry": { "type": "LineString", "coordinates": [ [ -122.01166089396007, 37.535035613390747 ], [ -122.0128179, 37.5356572 ], [ -122.0134006, 37.5359813 ], [ -122.0139531, 37.536311 ], [ -122.0144815, 37.5366662 ], [ -122.0150314, 37.5370809 ], [ -122.0155222, 37.5374893 ], [ -122.0159836, 37.5379062 ], [ -122.01641, 37.5383443 ], [ -122.0168124, 37.5388122 ], [ -122.0171423, 37.5392269 ], [ -122.0174582, 37.5396417 ], [ -122.020506, 37.5437682 ], [ -122.020506002805519, 37.543768203587625 ] ] } },
{ "type": "Feature", "properties": { "pm_start": 18.968856, "pm_end": 19.29353, "length": 0.324674, "lanes": 4, "on_ramp": false, "off_ramp": false, "on_ramp_name": null, "off_ramp_name": null, "caltrans_pm_start": 8.60000065, "caltrans_pm_end": 8.899999852000001, "length_warning": "ok", "fd_vds_id": null, "vds_id": 400137, "vds_pm": 19.19073029, "vds_lanes": 4, "vds_source": "direct", "vds_distance_mi": 0.0, "vds_n_candidates": 1, "on_ramp_vds_id": null, "off_ramp_vds_id": null, "Notes": null }, "geometry": { "type": "LineString", "coordinates": [ [ -122.020506002805519, 37.543768203587625 ], [ -122.0215592, 37.545115 ], [ -122.0235655, 37.5477925 ], [ -122.023565502326335, 37.547792503098684 ] ] } },
{ "type": "Feature", "properties": { "pm_start": 19.29353, "pm_end": 19.508119, "length": 0.214589, "lanes": 4, "on_ramp": true, "off_ramp": false, "on_ramp_name": null, "off_ramp_name": null, "caltrans_pm_start": 8.899999852000001, "caltrans_pm_end": 9.10000058, "length_warning": "ok", "fd_vds_id": null, "vds_id": 400716, "vds_pm": 19.39028443, "vds_lanes": 4, "vds_source": "direct", "vds_distance_mi": 0.0, "vds_n_candidates": 1, "on_ramp_vds_id": "402968", "off_ramp_vds_id": null, "Notes": null }, "geometry": { "type": "LineString", "coordinates": [ [ -122.023565502326335, 37.547792503098684 ], [ -122.0255691, 37.5504613 ], [ -122.025569101811399, 37.550461302430087 ] ] } },
{ "type": "Feature", "properties": { "pm_start": 19.508119, "pm_end": 20.364195, "length": 0.856076, "lanes": 5, "on_ramp": true, "off_ramp": true, "on_ramp_name": null, "off_ramp_name": "CA 84", "caltrans_pm_start": 9.10000058, "caltrans_pm_end": 9.9999997900000004, "length_warning": "ok", "fd_vds_id": null, "vds_id": 401545, "vds_pm": 20.25557172, "vds_lanes": 5, "vds_source": "direct", "vds_distance_mi": 0.0, "vds_n_candidates": 1, "on_ramp_vds_id": "402964", "off_ramp_vds_id": "402972", "Notes": null }, "geometry": { "type": "LineString", "coordinates": [ [ -122.025569101811399, 37.550461302430087 ], [ -122.0272857, 37.5527642 ], [ -122.0275153, 37.5530639 ], [ -122.0277674, 37.5533829 ], [ -122.0280115, 37.5536848 ], [ -122.0282851, 37.5540123 ], [ -122.0285372, 37.5542972 ], [ -122.0288188, 37.5545971 ], [ -122.0290924, 37.5548777 ], [ -122.029378, 37.555161 ], [ -122.034906997679684, 37.560356597819592 ] ] } },
{ "type": "Feature", "properties": { "pm_start": 20.364195, "pm_end": 20.711067, "length": 0.346872, "lanes": 4, "on_ramp": false, "off_ramp": false, "on_ramp_name": null, "off_ramp_name": null, "caltrans_pm_start": 9.9999997900000004, "caltrans_pm_end": 10.40000008, "length_warning": "ok", "fd_vds_id": null, "vds_id": 401011, "vds_pm": 20.63623381, "vds_lanes": 4, "vds_source": "direct", "vds_distance_mi": 0.0, "vds_n_candidates": 1, "on_ramp_vds_id": null, "off_ramp_vds_id": null, "Notes": null }, "geometry": { "type": "LineString", "coordinates": [ [ -122.034906997679684, 37.560356597819592 ], [ -122.034907, 37.5603566 ], [ -122.0378511, 37.5630834 ], [ -122.0390232, 37.564172 ], [ -122.039023205612494, 37.564172005290949 ] ] } },
{ "type": "Feature", "properties": { "pm_start": 20.711067, "pm_end": 20.92066, "length": 0.209593, "lanes": 4, "on_ramp": true, "off_ramp": false, "on_ramp_name": null, "off_ramp_name": null, "caltrans_pm_start": 10.40000008, "caltrans_pm_end": 10.60000043, "length_warning": "ok", "fd_vds_id": null, "vds_id": 400674, "vds_pm": 20.84793866, "vds_lanes": 4, "vds_source": "direct", "vds_distance_mi": 0.0, "vds_n_candidates": 1, "on_ramp_vds_id": "402973", "off_ramp_vds_id": null, "Notes": null }, "geometry": { "type": "LineString", "coordinates": [ [ -122.039023205612494, 37.564172005290949 ], [ -122.0414861, 37.5664938 ], [ -122.041486100685347, 37.566493800623974 ] ] } },
{ "type": "Feature", "properties": { "pm_start": 20.92066, "pm_end": 21.537, "length": 0.61634, "lanes": 5, "on_ramp": true, "off_ramp": true, "on_ramp_name": null, "off_ramp_name": null, "caltrans_pm_start": 10.60000043, "caltrans_pm_end": 11.31, "length_warning": "ok", "fd_vds_id": null, "vds_id": 400539, "vds_pm": 21.277, "vds_lanes": 5, "vds_source": "direct", "vds_distance_mi": 0.0, "vds_n_candidates": 1, "on_ramp_vds_id": "402976", "off_ramp_vds_id": "402980", "Notes": "Splitting cell at FR Abs_PM" }, "geometry": { "type": "LineString", "coordinates": [ [ -122.041486100685347, 37.566493800623974 ], [ -122.0426428, 37.5675469 ], [ -122.0429646, 37.5678621 ], [ -122.0433447, 37.5682693 ], [ -122.0437385, 37.5686941 ], [ -122.044055, 37.5690768 ], [ -122.0443903, 37.5695084 ], [ -122.0446934, 37.5699357 ], [ -122.0449697, 37.5703587 ], [ -122.0452164, 37.5707839 ], [ -122.0454525, 37.571224 ], [ -122.0456778, 37.5716768 ], [ -122.0458763, 37.5721339 ], [ -122.0460694, 37.5726249 ], [ -122.0462062, 37.573014 ], [ -122.04661209695351, 37.574243349656292 ] ] } },
{ "type": "Feature", "properties": { "pm_start": 21.537, "pm_end": 21.887, "length": 0.35, "lanes": 4, "on_ramp": false, "off_ramp": false, "on_ramp_name": null, "off_ramp_name": null, "caltrans_pm_start": 11.31, "caltrans_pm_end": 11.66, "length_warning": "ok", "fd_vds_id": null, "vds_id": 400534, "vds_pm": 21.887, "vds_lanes": 4, "vds_source": "direct", "vds_distance_mi": 0.0, "vds_n_candidates": 1, "on_ramp_vds_id": null, "off_ramp_vds_id": null, "Notes": "Splitting cell at OR Abs_PM" }, "geometry": { "type": "LineString", "coordinates": [ [ -122.04661209695351, 37.574243349656292 ], [ -122.0470139, 37.5754603 ], [ -122.0475536, 37.576953 ], [ -122.0480096, 37.5782752 ], [ -122.048312455817936, 37.5791782497596 ] ] } },
{ "type": "Feature", "properties": { "pm_start": 21.887, "pm_end": 22.377, "length": 0.49, "lanes": 4, "on_ramp": true, "off_ramp": false, "on_ramp_name": null, "off_ramp_name": null, "caltrans_pm_start": 11.66, "caltrans_pm_end": 12.15, "length_warning": "ok", "fd_vds_id": null, "vds_id": 401062, "vds_pm": 22.227, "vds_lanes": 4, "vds_source": "direct", "vds_distance_mi": 0.0, "vds_n_candidates": 1, "on_ramp_vds_id": "402981", "off_ramp_vds_id": null, "Notes": "Splitting cell 0.15 miles downstream of ML Abs_PM" }, "geometry": { "type": "LineString", "coordinates": [ [ -122.048312455817936, 37.5791782497596 ], [ -122.0487945, 37.5806156 ], [ -122.0489635, 37.5810663 ], [ -122.0491432, 37.5815212 ], [ -122.0492352, 37.5817555 ], [ -122.0498164, 37.5829836 ], [ -122.0500337, 37.5833874 ], [ -122.050267, 37.5838019 ], [ -122.0505274, 37.5842364 ], [ -122.0507929, 37.5846552 ], [ -122.0510719, 37.5850675 ], [ -122.051594148208409, 37.585800291717604 ] ] } },
{ "type": "Feature", "properties": { "pm_start": 22.377, "pm_end": 23.134879, "length": 0.757879, "lanes": 4, "on_ramp": false, "off_ramp": true, "on_ramp_name": null, "off_ramp_name": null, "caltrans_pm_start": 12.15, "caltrans_pm_end": 12.80000049, "length_warning": "ok", "fd_vds_id": null, "vds_id": 401613, "vds_pm": 22.777, "vds_lanes": 4, "vds_source": "direct_tiebreak", "vds_distance_mi": 0.0, "vds_n_candidates": 2, "on_ramp_vds_id": "v400003", "off_ramp_vds_id": null, "Notes": "FR missing VDS" }, "geometry": { "type": "LineString", "coordinates": [ [ -122.051594148208409, 37.585800291717604 ], [ -122.0563826, 37.5925192 ], [ -122.0583625, 37.595308 ], [ -122.058362503047405, 37.595308003697298 ] ] } },
{ "type": "Feature", "properties": { "pm_start": 23.134879, "pm_end": 23.545269, "length": 0.41039, "lanes": 4, "on_ramp": false, "off_ramp": false, "on_ramp_name": null, "off_ramp_name": null, "caltrans_pm_start": 12.80000049, "caltrans_pm_end": 13.19999945, "length_warning": "ok", "fd_vds_id": null, "vds_id": 400536, "vds_pm": 23.52801994, "vds_lanes": 4, "vds_source": "direct", "vds_distance_mi": 0.0, "vds_n_candidates": 1, "on_ramp_vds_id": null, "off_ramp_vds_id": null, "Notes": null }, "geometry": { "type": "LineString", "coordinates": [ [ -122.058362503047405, 37.595308003697298 ], [ -122.0584877, 37.5954599 ], [ -122.0588537, 37.5959792 ], [ -122.0602906, 37.597998 ], [ -122.062022196729075, 37.600491195290438 ] ] } },
{ "type": "Feature", "properties": { "pm_start": 23.545269, "pm_end": 23.808398, "length": 0.263129, "lanes": 5, "on_ramp": true, "off_ramp": true, "on_ramp_name": null, "off_ramp_name": null, "caltrans_pm_start": 13.19999945, "caltrans_pm_end": 13.39999931, "length_warning": "ok", "fd_vds_id": null, "vds_id": 400536, "vds_pm": 23.52801994, "vds_lanes": 5, "vds_source": "nearest_upstream", "vds_distance_mi": -0.148813561, "vds_n_candidates": 0, "on_ramp_vds_id": "402985", "off_ramp_vds_id": "402986", "Notes": null }, "geometry": { "type": "LineString", "coordinates": [ [ -122.062022196729075, 37.600491195290438 ], [ -122.0620222, 37.6004912 ], [ -122.0633671, 37.6023098 ], [ -122.064387496485281, 37.603805894846772 ] ] } },
{ "type": "Feature", "properties": { "pm_start": 23.808398, "pm_end": 24.253221, "length": 0.444823, "lanes": 5, "on_ramp": false, "off_ramp": false, "on_ramp_name": null, "off_ramp_name": null, "caltrans_pm_start": 13.39999931, "caltrans_pm_end": 13.89999953, "length_warning": "ok", "fd_vds_id": null, "vds_id": 400488, "vds_pm": 24.14566975, "vds_lanes": 5, "vds_source": "direct", "vds_distance_mi": 0.0, "vds_n_candidates": 1, "on_ramp_vds_id": null, "off_ramp_vds_id": null, "Notes": null }, "geometry": { "type": "LineString", "coordinates": [ [ -122.064387496485281, 37.603805894846772 ], [ -122.0643875, 37.6038059 ], [ -122.0664523, 37.6066417 ], [ -122.0667017, 37.6069902 ], [ -122.0674205, 37.6079973 ], [ -122.0678255, 37.6085647 ], [ -122.0682297, 37.6091562 ], [ -122.06839499928634, 37.609406198920681 ] ] } },
{ "type": "Feature", "properties": { "pm_start": 24.253221, "pm_end": 25.10998, "length": 0.856759, "lanes": 5, "on_ramp": true, "off_ramp": false, "on_ramp_name": null, "off_ramp_name": null, "caltrans_pm_start": 13.89999953, "caltrans_pm_end": 14.70000024, "length_warning": "ok", "fd_vds_id": null, "vds_id": 401561, "vds_pm": 24.61662129, "vds_lanes": 5, "vds_source": "direct_tiebreak", "vds_distance_mi": 0.0, "vds_n_candidates": 2, "on_ramp_vds_id": "402989", "off_ramp_vds_id": null, "Notes": "Combined with upstream due to shortness of upstream" }, "geometry": { "type": "LineString", "coordinates": [ [ -122.06839499928634, 37.609406198920681 ], [ -122.068395, 37.6094062 ], [ -122.0695491, 37.6110326 ], [ -122.070386, 37.6121959 ], [ -122.0714133, 37.6136333 ], [ -122.0716506, 37.6139796 ], [ -122.0720825, 37.6145735 ], [ -122.0723492, 37.6149477 ], [ -122.0732919, 37.616251 ], [ -122.074354, 37.6177211 ], [ -122.0751776, 37.6188727 ], [ -122.0760932, 37.6202028 ], [ -122.076093203542968, 37.620202804956449 ] ] } },
{ "type": "Feature", "properties": { "pm_start": 25.10998, "pm_end": 25.728113, "length": 0.618133, "lanes": 5, "on_ramp": true, "off_ramp": true, "on_ramp_name": null, "off_ramp_name": null, "caltrans_pm_start": 14.70000024, "caltrans_pm_end": 15.400000070000001, "length_warning": "ok", "fd_vds_id": null, "vds_id": 400928, "vds_pm": 25.31852019, "vds_lanes": 5, "vds_source": "direct", "vds_distance_mi": 0.0, "vds_n_candidates": 1, "on_ramp_vds_id": "402990", "off_ramp_vds_id": "403170", "Notes": "Combined with upstream due to shortness of upstream" }, "geometry": { "type": "LineString", "coordinates": [ [ -122.076093203542968, 37.620202804956449 ], [ -122.0772214, 37.6217811 ], [ -122.08098, 37.6270484 ], [ -122.0816779, 37.6279789 ], [ -122.081677904062019, 37.627978905674404 ] ] } },
{ "type": "Feature", "properties": { "pm_start": 25.728113, "pm_end": 26.226392, "length": 0.498279, "lanes": 4, "on_ramp": false, "off_ramp": false, "on_ramp_name": null, "off_ramp_name": null, "caltrans_pm_start": 15.400000070000001, "caltrans_pm_end": 15.89999993, "length_warning": "ok", "fd_vds_id": null, "vds_id": 400284, "vds_pm": 25.90973164, "vds_lanes": 4, "vds_source": "direct_tiebreak", "vds_distance_mi": 0.0, "vds_n_candidates": 2, "on_ramp_vds_id": null, "off_ramp_vds_id": null, "Notes": null }, "geometry": { "type": "LineString", "coordinates": [ [ -122.081677904062019, 37.627978905674404 ], [ -122.0842901, 37.631628 ], [ -122.0843539, 37.6317171 ], [ -122.0844258, 37.6318175 ], [ -122.0861328, 37.6342685 ], [ -122.086132802838776, 37.634268503969324 ] ] } },
{ "type": "Feature", "properties": { "pm_start": 26.226392, "pm_end": 26.734478, "length": 0.508086, "lanes": 5, "on_ramp": true, "off_ramp": true, "on_ramp_name": null, "off_ramp_name": null, "caltrans_pm_start": 15.89999993, "caltrans_pm_end": 16.39999956, "length_warning": "ok", "fd_vds_id": null, "vds_id": 408133, "vds_pm": 26.45913228, "vds_lanes": 5, "vds_source": "direct_tiebreak", "vds_distance_mi": 0.0, "vds_n_candidates": 2, "on_ramp_vds_id": "402995, 402996", "off_ramp_vds_id": "412639, 412640", "Notes": null }, "geometry": { "type": "LineString", "coordinates": [ [ -122.086132802838776, 37.634268503969324 ], [ -122.090708999408747, 37.640667199173272 ] ] } },
{ "type": "Feature", "properties": { "pm_start": 26.734478, "pm_end": 27.262933, "length": 0.528455, "lanes": 4, "on_ramp": false, "off_ramp": false, "on_ramp_name": null, "off_ramp_name": null, "caltrans_pm_start": 16.39999956, "caltrans_pm_end": 16.89999962, "length_warning": "ok", "fd_vds_id": null, "vds_id": 417665, "vds_pm": 26.92878708, "vds_lanes": 4, "vds_source": "direct_tiebreak", "vds_distance_mi": 0.0, "vds_n_candidates": 3, "on_ramp_vds_id": null, "off_ramp_vds_id": null, "Notes": null }, "geometry": { "type": "LineString", "coordinates": [ [ -122.090708999408747, 37.640667199173272 ], [ -122.090709, 37.6406672 ], [ -122.092121, 37.6425969 ], [ -122.0935265, 37.6445742 ], [ -122.0940951, 37.6453716 ], [ -122.0950017, 37.6466236 ], [ -122.0954686, 37.6473221 ], [ -122.095468600012921, 37.647322100018009 ] ] } },
{ "type": "Feature", "properties": { "pm_start": 27.262933, "pm_end": 27.679722, "length": 0.416789, "lanes": 6, "on_ramp": true, "off_ramp": true, "on_ramp_name": null, "off_ramp_name": null, "caltrans_pm_start": 16.89999962, "caltrans_pm_end": 17.31028389, "length_warning": "ok", "fd_vds_id": null, "vds_id": 408134, "vds_pm": 27.63748151, "vds_lanes": 6, "vds_source": "direct", "vds_distance_mi": 0.0, "vds_n_candidates": 1, "on_ramp_vds_id": "412638, 417667", "off_ramp_vds_id": "403113, 403114", "Notes": "Combined with upstream, downstream due to shortness of each" }, "geometry": { "type": "LineString", "coordinates": [ [ -122.095468600012921, 37.647322100018009 ], [ -122.0959594, 37.6480062 ], [ -122.0962124, 37.6483432 ], [ -122.0964961, 37.6487284 ], [ -122.0966685, 37.6489654 ], [ -122.0968246, 37.6491893 ], [ -122.0971599, 37.6496883 ], [ -122.0975045, 37.6502486 ], [ -122.0989249, 37.6525272 ], [ -122.099007296741291, 37.652660994708569 ] ] } },
{ "type": "Feature", "properties": { "pm_start": 27.679722, "pm_end": 28.261569, "length": 0.581847, "lanes": 5, "on_ramp": false, "off_ramp": false, "on_ramp_name": null, "off_ramp_name": null, "caltrans_pm_start": 17.31028389, "caltrans_pm_end": 17.89999936, "length_warning": "ok", "fd_vds_id": null, "vds_id": 400685, "vds_pm": 27.84771514, "vds_lanes": 5, "vds_source": "direct_tiebreak", "vds_distance_mi": 0.0, "vds_n_candidates": 2, "on_ramp_vds_id": null, "off_ramp_vds_id": null, "Notes": null }, "geometry": { "type": "LineString", "coordinates": [ [ -122.099007296741291, 37.652660994708569 ], [ -122.0990073, 37.652661 ], [ -122.0995873, 37.6535639 ], [ -122.101261, 37.6562799 ], [ -122.103673097940273, 37.660228596628151 ] ] } },
{ "type": "Feature", "properties": { "pm_start": 28.261569, "pm_end": 28.529337, "length": 0.267768, "lanes": 5, "on_ramp": true, "off_ramp": true, "on_ramp_name": null, "off_ramp_name": null, "caltrans_pm_start": 17.89999936, "caltrans_pm_end": 18.20000025, "length_warning": "ok", "fd_vds_id": null, "vds_id": 400898, "vds_pm": 28.39579513, "vds_lanes": 5, "vds_source": "direct", "vds_distance_mi": 0.0, "vds_n_candidates": 1, "on_ramp_vds_id": "403002", "off_ramp_vds_id": "403005", "Notes": null }, "geometry": { "type": "LineString", "coordinates": [ [ -122.103673097940273, 37.660228596628151 ], [ -122.1036731, 37.6602286 ], [ -122.105835996346158, 37.663705294126721 ] ] } },
{ "type": "Feature", "properties": { "pm_start": 28.529337, "pm_end": 28.990659, "length": 0.461322, "lanes": 5, "on_ramp": false, "off_ramp": false, "on_ramp_name": null, "off_ramp_name": null, "caltrans_pm_start": 18.20000025, "caltrans_pm_end": 18.60000016, "length_warning": "ok", "fd_vds_id": null, "vds_id": 400275, "vds_pm": 28.84463699, "vds_lanes": 5, "vds_source": "direct", "vds_distance_mi": 0.0, "vds_n_candidates": 1, "on_ramp_vds_id": null, "off_ramp_vds_id": null, "Notes": null }, "geometry": { "type": "LineString", "coordinates": [ [ -122.105835996346158, 37.663705294126721 ], [ -122.105836, 37.6637053 ], [ -122.1073281, 37.6661152 ], [ -122.1075702, 37.6664728 ], [ -122.109565697964456, 37.669693596714552 ] ] } },
{ "type": "Feature", "properties": { "pm_start": 28.990659, "pm_end": 29.687937, "length": 0.697278, "lanes": 5, "on_ramp": true, "off_ramp": false, "on_ramp_name": null, "off_ramp_name": null, "caltrans_pm_start": 18.60000016, "caltrans_pm_end": 19.29727816, "length_warning": "ok", "fd_vds_id": null, "vds_id": 400939, "vds_pm": 29.73048313, "vds_lanes": 5, "vds_source": "direct_tiebreak", "vds_distance_mi": 0.0, "vds_n_candidates": 2, "on_ramp_vds_id": "403006", "off_ramp_vds_id": null, "Notes": "Artificially split halfway" }, "geometry": { "type": "LineString", "coordinates": [ [ -122.109565697964456, 37.669693596714552 ], [ -122.1095657, 37.6696936 ], [ -122.1099508, 37.6702972 ], [ -122.1102122, 37.6706999 ], [ -122.1104497, 37.6710402 ], [ -122.1107393, 37.6714096 ], [ -122.111038, 37.6717535 ], [ -122.1113214, 37.6720635 ], [ -122.111654, 37.6724011 ], [ -122.1119705, 37.6726962 ], [ -122.1123165, 37.6729977 ], [ -122.1126544, 37.6732715 ], [ -122.113046, 37.6735666 ], [ -122.1134055, 37.6738235 ], [ -122.1139955, 37.6742269 ], [ -122.1144032, 37.6745113 ], [ -122.1147385, 37.6747619 ], [ -122.1150492, 37.6749984 ], [ -122.1151482, 37.6750964 ], [ -122.1163713, 37.6760411 ], [ -122.1168085, 37.6763659 ], [ -122.1171921, 37.6766398 ], [ -122.1176159, 37.6769306 ], [ -122.1180665, 37.6772214 ], [ -122.118119949770019, 37.677254523595778 ] ] } },
{ "type": "Feature", "properties": { "pm_start": 29.687937, "pm_end": 30.385215, "length": 0.697278, "lanes": 5, "on_ramp": false, "off_ramp": true, "on_ramp_name": null, "off_ramp_name": null, "caltrans_pm_start": 19.29727816, "caltrans_pm_end": 19.999999509999999, "length_warning": "ok", "fd_vds_id": null, "vds_id": 400990, "vds_pm": 29.907, "vds_lanes": 5, "vds_source": "direct_tiebreak", "vds_distance_mi": 0.0, "vds_n_candidates": 3, "on_ramp_vds_id": null, "off_ramp_vds_id": "405735, 402168", "Notes": "Artificially split halfway" }, "geometry": { "type": "LineString", "coordinates": [ [ -122.118119949770019, 37.677254523595778 ], [ -122.1191662, 37.6779029 ], [ -122.1196061, 37.6781767 ], [ -122.1200325, 37.6784463 ], [ -122.120459, 37.6787265 ], [ -122.1236709, 37.6809472 ], [ -122.1240022, 37.6811762 ], [ -122.127651293440238, 37.683726695415132 ] ] } },
{ "type": "Feature", "properties": { "pm_start": 30.385215, "pm_end": 30.893983, "length": 0.508768, "lanes": 4, "on_ramp": false, "off_ramp": true, "on_ramp_name": null, "off_ramp_name": null, "caltrans_pm_start": 19.999999509999999, "caltrans_pm_end": 20.50000059, "length_warning": "ok", "fd_vds_id": null, "vds_id": 400252, "vds_pm": 30.78795668, "vds_lanes": 4, "vds_source": "direct", "vds_distance_mi": 0.0, "vds_n_candidates": 1, "on_ramp_vds_id": null, "off_ramp_vds_id": "403008", "Notes": null }, "geometry": { "type": "LineString", "coordinates": [ [ -122.127651293440238, 37.683726695415132 ], [ -122.1276513, 37.6837267 ], [ -122.1288758, 37.684528 ], [ -122.1289442, 37.6845732 ], [ -122.1291994, 37.6847523 ], [ -122.1295141, 37.6849674 ], [ -122.1301713, 37.6854174 ], [ -122.1318864, 37.6865881 ], [ -122.1321455, 37.6867678 ], [ -122.13388, 37.687962 ], [ -122.1347032, 37.68853 ], [ -122.134703205589503, 37.688530003866688 ] ] } },
{ "type": "Feature", "properties": { "pm_start": 30.893983, "pm_end": 31.426419, "length": 0.532436, "lanes": 4, "on_ramp": true, "off_ramp": false, "on_ramp_name": null, "off_ramp_name": null, "caltrans_pm_start": 20.50000059, "caltrans_pm_end": 21.10000075, "length_warning": "ok", "fd_vds_id": null, "vds_id": 400788, "vds_pm": 31.1954031, "vds_lanes": 4, "vds_source": "direct", "vds_distance_mi": 0.0, "vds_n_candidates": 1, "on_ramp_vds_id": "418451", "off_ramp_vds_id": null, "Notes": null }, "geometry": { "type": "LineString", "coordinates": [ [ -122.134703205589503, 37.688530003866688 ], [ -122.1350802, 37.6887908 ], [ -122.1356496, 37.6891858 ], [ -122.1372312, 37.6902795 ], [ -122.1385763, 37.6912055 ], [ -122.1407719, 37.6927268 ], [ -122.1420237, 37.6936118 ], [ -122.142023705444714, 37.69361180376513 ] ] } }
]
}
