{
"type": "FeatureCollection",
"name": "ramps",
"crs": { "type": "name", "properties": { "name": "urn:ogc:def:crs:OGC:1.3:CRS84" } },
"features": [
{ "type": "Feature", "properties": { "kind": "off", "postmile": 0.0, "mainline_node": 257884249, "ramp_terminus_node": 65401713, "lanes": 2, "name": null }, "geometry": { "type": "Point", "coordinates": [ -121.9402897, 37.3156408 ] } },
{ "type": "Feature", "properties": { "kind": "on", "postmile": 0.54846419073974295, "mainline_node": 279690421, "ramp_terminus_node": 3664025652, "lanes": 2, "name": null }, "geometry": { "type": "Point", "coordinates": [ -121.9406454, 37.3235584 ] } },
{ "type": "Feature", "properties": { "kind": "on", "postmile": 0.70992354585216866, "mainline_node": 289649406, "ramp_terminus_node": 65408099, "lanes": 1, "name": null }, "geometry": { "type": "Point", "coordinates": [ -121.940742, 37.3258932 ] } },
{ "type": "Feature", "properties": { "kind": "off", "postmile": 1.2886708816863366, "mainline_node": 206680206, "ramp_terminus_node": 651296352, "lanes": 1, "name": null }, "geometry": { "type": "Point", "coordinates": [ -121.9375952, 37.3334505 ] } },
{ "type": "Feature", "properties": { "kind": "off", "postmile": 1.3861091144788558, "mainline_node": 5261661337, "ramp_terminus_node": 65390685, "lanes": 1, "name": null }, "geometry": { "type": "Point", "coordinates": [ -121.936298, 37.3344119 ] } },
{ "type": "Feature", "properties": { "kind": "on", "postmile": 1.4889808423909392, "mainline_node": 283018947, "ramp_terminus_node": 283018946, "lanes": 1, "name": null }, "geometry": { "type": "Point", "coordinates": [ -121.9349508, 37.335446 ] } },
{ "type": "Feature", "properties": { "kind": "off", "postmile": 2.0478465698327191, "mainline_node": 311577375, "ramp_terminus_node": 652373711, "lanes": 1, "name": null }, "geometry": { "type": "Point", "coordinates": [ -121.9277191, 37.3411323 ] } },
{ "type": "Feature", "properties": { "kind": "on", "postmile": 2.2049023252506088, "mainline_node": 311575955, "ramp_terminus_node": 666730382, "lanes": 1, "name": null }, "geometry": { "type": "Point", "coordinates": [ -121.9256981, 37.342737 ] } },
{ "type": "Feature", "properties": { "kind": "on", "postmile": 2.3650163412508904, "mainline_node": 33102524, "ramp_terminus_node": 652373711, "lanes": 1, "name": null }, "geometry": { "type": "Point", "coordinates": [ -121.9239304, 37.3445757 ] } },
{ "type": "Feature", "properties": { "kind": "off", "postmile": 2.7226541423683619, "mainline_node": 245919614, "ramp_terminus_node": 3668281721, "lanes": 2, "name": null }, "geometry": { "type": "Point", "coordinates": [ -121.9191158, 37.3480601 ] } },
{ "type": "Feature", "properties": { "kind": "on", "postmile": 3.0675305896474665, "mainline_node": 1912088277, "ramp_terminus_node": 3668281720, "lanes": 1, "name": null }, "geometry": { "type": "Point", "coordinates": [ -121.9144735, 37.351421 ] } },
{ "type": "Feature", "properties": { "kind": "off", "postmile": 3.4844032011313408, "mainline_node": 245810016, "ramp_terminus_node": 3971606272, "lanes": 1, "name": null }, "geometry": { "type": "Point", "coordinates": [ -121.9094676, 37.3559439 ] } },
{ "type": "Feature", "properties": { "kind": "on", "postmile": 3.6521035915164513, "mainline_node": 4977823052, "ramp_terminus_node": 245812738, "lanes": 1, "name": null }, "geometry": { "type": "Point", "coordinates": [ -121.9075579, 37.3578378 ] } },
{ "type": "Feature", "properties": { "kind": "on", "postmile": 3.8680442620365594, "mainline_node": 4977823050, "ramp_terminus_node": 1831022619, "lanes": 1, "name": null }, "geometry": { "type": "Point", "coordinates": [ -121.9050911, 37.3602715 ] } },
{ "type": "Feature", "properties": { "kind": "off", "postmile": 4.0393594037716483, "mainline_node": 4977823048, "ramp_terminus_node": 245812727, "lanes": 1, "name": null }, "geometry": { "type": "Point", "coordinates": [ -121.9031455, 37.3622093 ] } },
{ "type": "Feature", "properties": { "kind": "on", "postmile": 4.1583905333465365, "mainline_node": 65401606, "ramp_terminus_node": 245812719, "lanes": 1, "name": null }, "geometry": { "type": "Point", "coordinates": [ -121.9020063, 37.3636718 ] } },
{ "type": "Feature", "properties": { "kind": "off", "postmile": 4.2191036385660095, "mainline_node": 65394535, "ramp_terminus_node": 25457976, "lanes": 1, "name": null }, "geometry": { "type": "Point", "coordinates": [ -121.9015937, 37.3644868 ] } },
{ "type": "Feature", "properties": { "kind": "on", "postmile": 4.3379835431508482, "mainline_node": 3742063554, "ramp_terminus_node": 65415943, "lanes": 1, "name": null }, "geometry": { "type": "Point", "coordinates": [ -121.9011043, 37.3661588 ] } },
{ "type": "Feature", "properties": { "kind": "off", "postmile": 4.4440901628479823, "mainline_node": 33102541, "ramp_terminus_node": 65405104, "lanes": 1, "name": null }, "geometry": { "type": "Point", "coordinates": [ -121.9010237, 37.3676916 ] } },
{ "type": "Feature", "properties": { "kind": "on", "postmile": 4.7042306991758229, "mainline_node": 65405085, "ramp_terminus_node": 65405104, "lanes": 1, "name": null }, "geometry": { "type": "Point", "coordinates": [ -121.9017775, 37.3714063 ] } },
{ "type": "Feature", "properties": { "kind": "off", "postmile": 5.1823740706761097, "mainline_node": 65410005, "ramp_terminus_node": 312711615, "lanes": 1, "name": null }, "geometry": { "type": "Point", "coordinates": [ -121.903368, 37.3782099 ] } },
{ "type": "Feature", "properties": { "kind": "on", "postmile": 5.4883805353663675, "mainline_node": 312714757, "ramp_terminus_node": 312711624, "lanes": 1, "name": null }, "geometry": { "type": "Point", "coordinates": [ -121.9043626, 37.382567 ] } },
{ "type": "Feature", "properties": { "kind": "off", "postmile": 6.4813402950921475, "mainline_node": 258474804, "ramp_terminus_node": 258474896, "lanes": 1, "name": null }, "geometry": { "type": "Point", "coordinates": [ -121.9076988, 37.3966914 ] } },
{ "type": "Feature", "properties": { "kind": "on", "postmile": 7.1870898154608174, "mainline_node": 1080573699, "ramp_terminus_node": 252005211, "lanes": 1, "name": null }, "geometry": { "type": "Point", "coordinates": [ -121.9100861, 37.4067282 ] } },
{ "type": "Feature", "properties": { "kind": "off", "postmile": 7.4779109049882626, "mainline_node": 247138149, "ramp_terminus_node": 311912389, "lanes": 1, "name": null }, "geometry": { "type": "Point", "coordinates": [ -121.911289, 37.4108263 ] } },
{ "type": "Feature", "properties": { "kind": "on", "postmile": 7.8862997034093336, "mainline_node": 311912822, "ramp_terminus_node": 311913151, "lanes": 1, "name": null }, "geometry": { "type": "Point", "coordinates": [ -121.9132415, 37.4165299 ] } },
{ "type": "Feature", "properties": { "kind": "off", "postmile": 8.2518157334367732, "mainline_node": 1700446579, "ramp_terminus_node": 1700446627, "lanes": 2, "name": null }, "geometry": { "type": "Point", "coordinates": [ -121.914992, 37.4216341 ] } },
{ "type": "Feature", "properties": { "kind": "on", "postmile": 8.6184722524742554, "mainline_node": 251911884, "ramp_terminus_node": 251911859, "lanes": 1, "name": null }, "geometry": { "type": "Point", "coordinates": [ -121.9167296, 37.4267581 ] } },
{ "type": "Feature", "properties": { "kind": "on", "postmile": 8.856621065185541, "mainline_node": 65414355, "ramp_terminus_node": 65391785, "lanes": 1, "name": null }, "geometry": { "type": "Point", "coordinates": [ -121.9181124, 37.430022 ] } },
{ "type": "Feature", "properties": { "kind": "on", "postmile": 9.1275989626986718, "mainline_node": 248102910, "ramp_terminus_node": 1389052694, "lanes": 2, "name": null }, "geometry": { "type": "Point", "coordinates": [ -121.918783, 37.433904 ] } },
{ "type": "Feature", "properties": { "kind": "on", "postmile": 9.3588977249213503, "mainline_node": 1068655670, "ramp_terminus_node": 1389052694, "lanes": 1, "name": null }, "geometry": { "type": "Point", "coordinates": [ -121.9193604, 37.43722 ] } },
{ "type": "Feature", "properties": { "kind": "off", "postmile": 10.135147318428425, "mainline_node": 1688870550, "ramp_terminus_node": 1688870553, "lanes": 2, "name": null }, "geometry": { "type": "Point", "coordinates": [ -121.9216274, 37.4483094 ] } },
{ "type": "Feature", "properties": { "kind": "on", "postmile": 10.905513736785412, "mainline_node": 1080458114, "ramp_terminus_node": 248102521, "lanes": 1, "name": null }, "geometry": { "type": "Point", "coordinates": [ -121.9240498, 37.4592838 ] } },
{ "type": "Feature", "properties": { "kind": "off", "postmile": 12.22303301080805, "mainline_node": 258131276, "ramp_terminus_node": 258132827, "lanes": 2, "name": "CA 262" }, "geometry": { "type": "Point", "coordinates": [ -121.9328198, 37.4770358 ] } },
{ "type": "Feature", "properties": { "kind": "off", "postmile": 12.486684663778158, "mainline_node": 257365586, "ramp_terminus_node": 569047498, "lanes": 1, "name": null }, "geometry": { "type": "Point", "coordinates": [ -121.9346045, 37.4805791 ] } },
{ "type": "Feature", "properties": { "kind": "on", "postmile": 12.898275118722669, "mainline_node": 1316891063, "ramp_terminus_node": 569057021, "lanes": 1, "name": null }, "geometry": { "type": "Point", "coordinates": [ -121.9388739, 37.4854063 ] } },
{ "type": "Feature", "properties": { "kind": "on", "postmile": 13.034014153996212, "mainline_node": 53013990, "ramp_terminus_node": 569057060, "lanes": 2, "name": null }, "geometry": { "type": "Point", "coordinates": [ -121.9406517, 37.4867736 ] } },
{ "type": "Feature", "properties": { "kind": "off", "postmile": 13.384403511365081, "mainline_node": 53003583, "ramp_terminus_node": 1080403880, "lanes": 2, "name": null }, "geometry": { "type": "Point", "coordinates": [ -121.9452337, 37.490309 ] } },
{ "type": "Feature", "properties": { "kind": "on", "postmile": 13.724622312318358, "mainline_node": 257396637, "ramp_terminus_node": 257396595, "lanes": 1, "name": null }, "geometry": { "type": "Point", "coordinates": [ -121.9496959, 37.4937311 ] } },
{ "type": "Feature", "properties": { "kind": "on", "postmile": 13.880323532200173, "mainline_node": 53006862, "ramp_terminus_node": 3872585913, "lanes": 1, "name": null }, "geometry": { "type": "Point", "coordinates": [ -121.9517307, 37.4953033 ] } },
{ "type": "Feature", "properties": { "kind": "off", "postmile": 14.75883527924508, "mainline_node": 257395936, "ramp_terminus_node": 350562319, "lanes": 1, "name": null }, "geometry": { "type": "Point", "coordinates": [ -121.9632482, 37.5041446 ] } },
{ "type": "Feature", "properties": { "kind": "on", "postmile": 15.14776035631381, "mainline_node": 257396024, "ramp_terminus_node": 350565717, "lanes": 1, "name": null }, "geometry": { "type": "Point", "coordinates": [ -121.9682329, 37.5081507 ] } },
{ "type": "Feature", "properties": { "kind": "on", "postmile": 15.34221338512625, "mainline_node": 257395669, "ramp_terminus_node": 350562025, "lanes": 1, "name": null }, "geometry": { "type": "Point", "coordinates": [ -121.9707069, 37.5101679 ] } },
{ "type": "Feature", "properties": { "kind": "off", "postmile": 16.324027660926589, "mainline_node": 257395447, "ramp_terminus_node": 1666847606, "lanes": 1, "name": null }, "geometry": { "type": "Point", "coordinates": [ -121.9833101, 37.5202658 ] } },
{ "type": "Feature", "properties": { "kind": "on", "postmile": 16.672627518177283, "mainline_node": 257395440, "ramp_terminus_node": 257395446, "lanes": 1, "name": null }, "geometry": { "type": "Point", "coordinates": [ -121.9886083, 37.5230499 ] } },
{ "type": "Feature", "properties": { "kind": "on", "postmile": 16.834331681739418, "mainline_node": 53013547, "ramp_terminus_node": 1666847604, "lanes": 1, "name": null }, "geometry": { "type": "Point", "coordinates": [ -121.9910997, 37.5243041 ] } },
{ "type": "Feature", "properties": { "kind": "off", "postmile": 17.317284125993982, "mainline_node": 257395058, "ramp_terminus_node": 3958737417, "lanes": 2, "name": null }, "geometry": { "type": "Point", "coordinates": [ -121.9986032, 37.5279709 ] } },
{ "type": "Feature", "properties": { "kind": "on", "postmile": 17.639585054890652, "mainline_node": 257395031, "ramp_terminus_node": 490122587, "lanes": 1, "name": null }, "geometry": { "type": "Point", "coordinates": [ -122.0034734, 37.5305866 ] } },
{ "type": "Feature", "properties": { "kind": "on", "postmile": 17.81595572603538, "mainline_node": 257395023, "ramp_terminus_node": 1316773653, "lanes": 1, "name": null }, "geometry": { "type": "Point", "coordinates": [ -122.0061082, 37.5320525 ] } },
{ "type": "Feature", "properties": { "kind": "off", "postmile": 18.96885570751089, "mainline_node": 53016700, "ramp_terminus_node": 1673750673, "lanes": 2, "name": null }, "geometry": { "type": "Point", "coordinates": [ -122.020506, 37.5437682 ] } },
{ "type": "Feature", "properties": { "kind": "on", "postmile": 19.293529750845323, "mainline_node": 257394434, "ramp_terminus_node": 601720953, "lanes": 1, "name": null }, "geometry": { "type": "Point", "coordinates": [ -122.0235655, 37.5477925 ] } },
{ "type": "Feature", "properties": { "kind": "on", "postmile": 19.508118809835171, "mainline_node": 53002300, "ramp_terminus_node": 53002311, "lanes": 1, "name": null }, "geometry": { "type": "Point", "coordinates": [ -122.0255691, 37.5504613 ] } },
{ "type": "Feature", "properties": { "kind": "off", "postmile": 20.364195199770883, "mainline_node": 295570836, "ramp_terminus_node": 721672725, "lanes": 1, "name": "CA 84" }, "geometry": { "type": "Point", "coordinates": [ -122.034907, 37.5603566 ] } },
{ "type": "Feature", "properties": { "kind": "on", "postmile": 20.711066522375688, "mainline_node": 32785488, "ramp_terminus_node": 32784720, "lanes": 1, "name": null }, "geometry": { "type": "Point", "coordinates": [ -122.0390232, 37.564172 ] } },
{ "type": "Feature", "properties": { "kind": "on", "postmile": 20.920659939569873, "mainline_node": 257360302, "ramp_terminus_node": 721672724, "lanes": 1, "name": null }, "geometry": { "type": "Point", "coordinates": [ -122.0414861, 37.5664938 ] } },
{ "type": "Feature", "properties": { "kind": "off", "postmile": 23.134878690132474, "mainline_node": 720615761, "ramp_terminus_node": 52982389, "lanes": 1, "name": null }, "geometry": { "type": "Point", "coordinates": [ -122.0583625, 37.595308 ] } },
{ "type": "Feature", "properties": { "kind": "on", "postmile": 23.545269370834379, "mainline_node": 52982404, "ramp_terminus_node": 52982389, "lanes": 1, "name": null }, "geometry": { "type": "Point", "coordinates": [ -122.0620222, 37.6004912 ] } },
{ "type": "Feature", "properties": { "kind": "off", "postmile": 23.808398402993763, "mainline_node": 720618433, "ramp_terminus_node": 720626971, "lanes": 1, "name": null }, "geometry": { "type": "Point", "coordinates": [ -122.0643875, 37.6038059 ] } },
{ "type": "Feature", "properties": { "kind": "on", "postmile": 24.38213246266281, "mainline_node": 257391140, "ramp_terminus_node": 720619307, "lanes": 1, "name": null }, "geometry": { "type": "Point", "coordinates": [ -122.0695491, 37.6110326 ] } },
{ "type": "Feature", "properties": { "kind": "on", "postmile": 25.109979606414615, "mainline_node": 33155441, "ramp_terminus_node": 33155470, "lanes": 1, "name": null }, "geometry": { "type": "Point", "coordinates": [ -122.0760932, 37.6202028 ] } },
{ "type": "Feature", "properties": { "kind": "off", "postmile": 25.728112548860462, "mainline_node": 33154450, "ramp_terminus_node": 1684055114, "lanes": 1, "name": null }, "geometry": { "type": "Point", "coordinates": [ -122.0816779, 37.6279789 ] } },
{ "type": "Feature", "properties": { "kind": "on", "postmile": 26.226391684817099, "mainline_node": 33154454, "ramp_terminus_node": 33154542, "lanes": 1, "name": null }, "geometry": { "type": "Point", "coordinates": [ -122.0861328, 37.6342685 ] } },
{ "type": "Feature", "properties": { "kind": "off", "postmile": 26.734478065646201, "mainline_node": 33144561, "ramp_terminus_node": 33144905, "lanes": 2, "name": null }, "geometry": { "type": "Point", "coordinates": [ -122.090709, 37.6406672 ] } },
{ "type": "Feature", "properties": { "kind": "on", "postmile": 27.262932998568466, "mainline_node": 3974818880, "ramp_terminus_node": 1642975894, "lanes": 2, "name": null }, "geometry": { "type": "Point", "coordinates": [ -122.0954686, 37.6473221 ] } },
{ "type": "Feature", "properties": { "kind": "on", "postmile": 27.317293664751894, "mainline_node": 33153573, "ramp_terminus_node": 33144364, "lanes": 1, "name": null }, "geometry": { "type": "Point", "coordinates": [ -122.0959594, 37.6480062 ] } },
{ "type": "Feature", "properties": { "kind": "off", "postmile": 27.679722406746837, "mainline_node": 257389901, "ramp_terminus_node": 601724128, "lanes": 1, "name": null }, "geometry": { "type": "Point", "coordinates": [ -122.0990073, 37.652661 ] } },
{ "type": "Feature", "properties": { "kind": "on", "postmile": 28.261569258586878, "mainline_node": 298394145, "ramp_terminus_node": 601724126, "lanes": 1, "name": null }, "geometry": { "type": "Point", "coordinates": [ -122.1036731, 37.6602286 ] } },
{ "type": "Feature", "properties": { "kind": "off", "postmile": 28.529337452347583, "mainline_node": 257389826, "ramp_terminus_node": 2423707603, "lanes": 1, "name": null }, "geometry": { "type": "Point", "coordinates": [ -122.105836, 37.6637053 ] } },
{ "type": "Feature", "properties": { "kind": "on", "postmile": 28.990659252719592, "mainline_node": 257389827, "ramp_terminus_node": 2423707603, "lanes": 1, "name": null }, "geometry": { "type": "Point", "coordinates": [ -122.1095657, 37.6696936 ] } },
{ "type": "Feature", "properties": { "kind": "off", "postmile": 30.385215484269914, "mainline_node": 343861492, "ramp_terminus_node": 826956484, "lanes": 1, "name": null }, "geometry": { "type": "Point", "coordinates": [ -122.1276513, 37.6837267 ] } },
{ "type": "Feature", "properties": { "kind": "off", "postmile": 30.518357019199076, "mainline_node": 242855731, "ramp_terminus_node": 596003453, "lanes": 2, "name": null }, "geometry": { "type": "Point", "coordinates": [ -122.1295141, 37.6849674 ] } },
{ "type": "Feature", "properties": { "kind": "on", "postmile": 30.89398259399886, "mainline_node": 38503213, "ramp_terminus_node": 3449474225, "lanes": 1, "name": null }, "geometry": { "type": "Point", "coordinates": [ -122.1347032, 37.68853 ] } },
{ "type": "Feature", "properties": { "kind": "off", "postmile": 30.962763177271995, "mainline_node": 38503223, "ramp_terminus_node": 52987003, "lanes": 1, "name": null }, "geometry": { "type": "Point", "coordinates": [ -122.1356496, 37.6891858 ] } },
{ "type": "Feature", "properties": { "kind": "on", "postmile": 31.426418604770998, "mainline_node": 242584794, "ramp_terminus_node": 52987013, "lanes": 1, "name": null }, "geometry": { "type": "Point", "coordinates": [ -122.1420237, 37.6936118 ] } },
{ "type": "Feature", "properties": { "kind": "off", "postmile": 33.028135178641811, "mainline_node": 38503240, "ramp_terminus_node": 242575619, "lanes": 1, "name": null }, "geometry": { "type": "Point", "coordinates": [ -122.1641026, 37.7088509 ] } },
{ "type": "Feature", "properties": { "kind": "off", "postmile": 33.144823494456375, "mainline_node": 1316693137, "ramp_terminus_node": 354832798, "lanes": 1, "name": null }, "geometry": { "type": "Point", "coordinates": [ -122.1656923, 37.7099775 ] } },
{ "type": "Feature", "properties": { "kind": "on", "postmile": 33.39320919368749, "mainline_node": 38503247, "ramp_terminus_node": 3733468239, "lanes": 1, "name": null }, "geometry": { "type": "Point", "coordinates": [ -122.1691341, 37.7123245 ] } },
{ "type": "Feature", "properties": { "kind": "off", "postmile": 33.663091837047276, "mainline_node": 242460445, "ramp_terminus_node": 53002323, "lanes": 1, "name": null }, "geometry": { "type": "Point", "coordinates": [ -122.172559, 37.7151285 ] } },
{ "type": "Feature", "properties": { "kind": "on", "postmile": 34.135828157637512, "mainline_node": 242414017, "ramp_terminus_node": 242441804, "lanes": 1, "name": null }, "geometry": { "type": "Point", "coordinates": [ -122.1779532, 37.7204762 ] } },
{ "type": "Feature", "properties": { "kind": "off", "postmile": 34.888317165390944, "mainline_node": 1316698418, "ramp_terminus_node": 242208492, "lanes": 1, "name": null }, "geometry": { "type": "Point", "coordinates": [ -122.1862199, 37.7291766 ] } },
{ "type": "Feature", "properties": { "kind": "on", "postmile": 35.151393921146607, "mainline_node": 242199573, "ramp_terminus_node": 242197029, "lanes": 1, "name": null }, "geometry": { "type": "Point", "coordinates": [ -122.1889241, 37.7323267 ] } },
{ "type": "Feature", "properties": { "kind": "on", "postmile": 35.358783286104504, "mainline_node": 38503280, "ramp_terminus_node": 53003540, "lanes": 1, "name": null }, "geometry": { "type": "Point", "coordinates": [ -122.1910842, 37.7347947 ] } },
{ "type": "Feature", "properties": { "kind": "off", "postmile": 35.558533402771481, "mainline_node": 242106025, "ramp_terminus_node": 52989137, "lanes": 1, "name": null }, "geometry": { "type": "Point", "coordinates": [ -122.193198, 37.7371534 ] } },
{ "type": "Feature", "properties": { "kind": "on", "postmile": 35.950249559542833, "mainline_node": 241334544, "ramp_terminus_node": 241931697, "lanes": 1, "name": null }, "geometry": { "type": "Point", "coordinates": [ -122.1972982, 37.7418039 ] } },
{ "type": "Feature", "properties": { "kind": "on", "postmile": 36.013192809774615, "mainline_node": 241334543, "ramp_terminus_node": 53009096, "lanes": 1, "name": null }, "geometry": { "type": "Point", "coordinates": [ -122.197961, 37.742549 ] } },
{ "type": "Feature", "properties": { "kind": "off", "postmile": 36.345687462035961, "mainline_node": 241333761, "ramp_terminus_node": 241263363, "lanes": 1, "name": null }, "geometry": { "type": "Point", "coordinates": [ -122.2014385, 37.7464982 ] } },
{ "type": "Feature", "properties": { "kind": "on", "postmile": 37.264346693216524, "mainline_node": 678963615, "ramp_terminus_node": 240817739, "lanes": 1, "name": null }, "geometry": { "type": "Point", "coordinates": [ -122.211004, 37.7574331 ] } },
{ "type": "Feature", "properties": { "kind": "off", "postmile": 37.818222419560819, "mainline_node": 240432279, "ramp_terminus_node": 240432368, "lanes": 1, "name": null }, "geometry": { "type": "Point", "coordinates": [ -122.216816, 37.7640019 ] } },
{ "type": "Feature", "properties": { "kind": "on", "postmile": 38.476992141744212, "mainline_node": 222892864, "ramp_terminus_node": 222906235, "lanes": 1, "name": null }, "geometry": { "type": "Point", "coordinates": [ -122.2236425, 37.7717566 ] } },
{ "type": "Feature", "properties": { "kind": "off", "postmile": 38.903161882400347, "mainline_node": 233564953, "ramp_terminus_node": 6949521885, "lanes": 1, "name": null }, "geometry": { "type": "Point", "coordinates": [ -122.2307883, 37.774223 ] } },
{ "type": "Feature", "properties": { "kind": "on", "postmile": 39.133345781114969, "mainline_node": 6302855160, "ramp_terminus_node": 233573569, "lanes": 1, "name": null }, "geometry": { "type": "Point", "coordinates": [ -122.2345753, 37.7756688 ] } },
{ "type": "Feature", "properties": { "kind": "off", "postmile": 39.234794521190153, "mainline_node": 233563999, "ramp_terminus_node": 7701974135, "lanes": 1, "name": null }, "geometry": { "type": "Point", "coordinates": [ -122.2359665, 37.7766371 ] } },
{ "type": "Feature", "properties": { "kind": "on", "postmile": 39.628134387846785, "mainline_node": 233713013, "ramp_terminus_node": 6550674720, "lanes": 1, "name": null }, "geometry": { "type": "Point", "coordinates": [ -122.2388108, 37.7818009 ] } },
{ "type": "Feature", "properties": { "kind": "off", "postmile": 40.626956583734092, "mainline_node": 52982920, "ramp_terminus_node": 53012596, "lanes": 1, "name": null }, "geometry": { "type": "Point", "coordinates": [ -122.2539658, 37.7893015 ] } },
{ "type": "Feature", "properties": { "kind": "off", "postmile": 41.225600047967518, "mainline_node": 311886570, "ramp_terminus_node": 53029700, "lanes": 1, "name": null }, "geometry": { "type": "Point", "coordinates": [ -122.2633498, 37.7931934 ] } },
{ "type": "Feature", "properties": { "kind": "off", "postmile": 41.482198067826651, "mainline_node": 1172074088, "ramp_terminus_node": 231167499, "lanes": 1, "name": null }, "geometry": { "type": "Point", "coordinates": [ -122.2669978, 37.7954988 ] } },
{ "type": "Feature", "properties": { "kind": "on", "postmile": 41.885739477169096, "mainline_node": 53043955, "ramp_terminus_node": 233799080, "lanes": 1, "name": null }, "geometry": { "type": "Point", "coordinates": [ -122.2736216, 37.7980885 ] } },
{ "type": "Feature", "properties": { "kind": "off", "postmile": 42.285064596851932, "mainline_node": 53060708, "ramp_terminus_node": 558625064, "lanes": 2, "name": null }, "geometry": { "type": "Point", "coordinates": [ -122.2801676, 37.8006665 ] } },
{ "type": "Feature", "properties": { "kind": "on", "postmile": 43.295694164643855, "mainline_node": 53060682, "ramp_terminus_node": 231145972, "lanes": 1, "name": null }, "geometry": { "type": "Point", "coordinates": [ -122.2979437, 37.8022507 ] } },
{ "type": "Feature", "properties": { "kind": "off", "postmile": 43.555431981891715, "mainline_node": 53060679, "ramp_terminus_node": 53039810, "lanes": 2, "name": null }, "geometry": { "type": "Point", "coordinates": [ -122.3020943, 37.8039847 ] } },
{ "type": "Feature", "properties": { "kind": "off", "postmile": 44.37230528517766, "mainline_node": 53060659, "ramp_terminus_node": 30362160, "lanes": 3, "name": null }, "geometry": { "type": "Point", "coordinates": [ -122.300684, 37.8142381 ] } },
{ "type": "Feature", "properties": { "kind": "on", "postmile": 45.217969891672247, "mainline_node": 53060647, "ramp_terminus_node": 312115195, "lanes": 1, "name": null }, "geometry": { "type": "Point", "coordinates": [ -122.2912885, 37.823753 ] } },
{ "type": "Feature", "properties": { "kind": "on", "postmile": 46.164101548674665, "mainline_node": 99569284, "ramp_terminus_node": 1378905424, "lanes": 1, "name": null }, "geometry": { "type": "Point", "coordinates": [ -122.2958782, 37.8364149 ] } }
]
}
