{
"type": "FeatureCollection",
"name": "cells",
"crs": { "type": "name", "properties": { "name": "urn:ogc:def:crs:OGC:1.3:CRS84" } },
"features": [
{ "type": "Feature", "properties": { "pm_start": 0.0, "pm_end": 0.674863, "length": 0.674863, "lanes": 4, "on_ramp": false, "off_ramp": false, "on_ramp_name": null, "off_ramp_name": null, "caltrans_pm_start": 28.20000076, "caltrans_pm_end": 27.499999496769437, "length_warning": "ok", "vds_id": 400190, "vds_pm": 0.083192144531720483, "vds_lanes": 4, "vds_source": "direct_tiebreak", "vds_distance_mi": 0.0, "vds_n_candidates": 2, "on_ramp_vds_id": null, "off_ramp_vds_id": null }, "geometry": { "type": "LineString", "coordinates": [ [ -122.2244149, 37.7718965 ], [ -122.2240009, 37.7717151 ], [ -122.2237492, 37.7715832 ], [ -122.2235462, 37.7714586 ], [ -122.2232645, 37.771283 ], [ -122.2230433, 37.7711298 ], [ -122.2227921, 37.7709367 ], [ -122.2225685, 37.7707499 ], [ -122.2223698, 37.7705725 ], [ -122.2221752, 37.7703766 ], [ -122.2219733, 37.7701692 ], [ -122.2216702, 37.769821 ], [ -122.2188232, 37.7660287 ], [ -122.2184765, 37.7656148 ], [ -122.2181854, 37.7652808 ], [ -122.2178367, 37.7648944 ], [ -122.2175039, 37.7645355 ], [ -122.2171499, 37.764122 ], [ -122.21714989479419, 37.7641219940596 ] ] } },
{ "type": "Feature", "properties": { "pm_start": 0.674863, "pm_end": 1.171556, "length": 0.496693, "lanes": 4, "on_ramp": true, "off_ramp": true, "on_ramp_name": null, "off_ramp_name": null, "caltrans_pm_start": 27.499999496769437, "caltrans_pm_end": 26.999999517256622, "length_warning": "ok", "vds_id": 400190, "vds_pm": 0.083192144531720483, "vds_lanes": 4, "vds_source": "nearest_upstream", "vds_distance_mi": -0.84001735546827949, "vds_n_candidates": 0, "on_ramp_vds_id": 403031, "off_ramp_vds_id": null }, "geometry": { "type": "LineString", "coordinates": [ [ -122.21714989479419, 37.7641219940596 ], [ -122.2151784, 37.7618723 ], [ -122.2148433, 37.7614907 ], [ -122.2146592, 37.7612808 ], [ -122.2139065, 37.760422 ], [ -122.2123539, 37.7585982 ], [ -122.2120087, 37.7581928 ], [ -122.212008694730372, 37.758192794292974 ] ] } },
{ "type": "Feature", "properties": { "pm_start": 1.171556, "pm_end": 1.882883, "length": 0.711327, "lanes": 4, "on_ramp": false, "off_ramp": false, "on_ramp_name": null, "off_ramp_name": null, "caltrans_pm_start": 26.999999517256622, "caltrans_pm_end": 26.29999924, "length_warning": "ok", "vds_id": 400956, "vds_pm": 1.8112996802765631, "vds_lanes": 4, "vds_source": "direct", "vds_distance_mi": 0.0, "vds_n_candidates": 1, "on_ramp_vds_id": null, "off_ramp_vds_id": null }, "geometry": { "type": "LineString", "coordinates": [ [ -122.212008694730372, 37.758192794292974 ], [ -122.2107136, 37.7567902 ], [ -122.208285, 37.7540216 ], [ -122.2080796, 37.7537874 ], [ -122.2076918, 37.7533463 ], [ -122.2073471, 37.7529546 ], [ -122.2069772, 37.752534 ], [ -122.2045459, 37.7497568 ] ] } }
]
}
