{
"type": "FeatureCollection",
"name": "ramps",
"crs": { "type": "name", "properties": { "name": "urn:ogc:def:crs:OGC:1.3:CRS84" } },
"features": [
{ "type": "Feature", "properties": { "kind": "off", "postmile": 0.0, "mainline_node": 241328971, "ramp_terminus_node": 2196976146, "lanes": 1, "name": null }, "geometry": { "type": "Point", "coordinates": [ -122.2244149, 37.7718965 ] } },
{ "type": "Feature", "properties": { "kind": "on", "postmile": 0.67486250009779425, "mainline_node": 678963606, "ramp_terminus_node": 53008231, "lanes": 1, "name": null }, "geometry": { "type": "Point", "coordinates": [ -122.2171499, 37.764122 ] } },
{ "type": "Feature", "properties": { "kind": "off", "postmile": 1.1715555094455321, "mainline_node": 52984138, "ramp_terminus_node": 52984139, "lanes": 2, "name": null }, "geometry": { "type": "Point", "coordinates": [ -122.2120087, 37.7581928 ] } },
{ "type": "Feature", "properties": { "kind": "on", "postmile": 1.8828827184082506, "mainline_node": 241331864, "ramp_terminus_node": 52984188, "lanes": 1, "name": null }, "geometry": { "type": "Point", "coordinates": [ -122.2045459, 37.7497568 ] } }
]
}
