{
"type": "FeatureCollection",
"name": "ramps",
"crs": { "type": "name", "properties": { "name": "urn:ogc:def:crs:OGC:1.3:CRS84" } },
"features": [
{ "type": "Feature", "properties": { "kind": "off", "postmile": 0.34616206191527382, "mainline_node": 52983612, "ramp_terminus_node": 312115169, "lanes": 2, "name": null }, "geometry": { "type": "Point", "coordinates": [ -122.2911936, 37.8252924 ] } },
{ "type": "Feature", "properties": { "kind": "on", "postmile": 1.289411805173365, "mainline_node": 52983639, "ramp_terminus_node": 30365459, "lanes": 2, "name": null }, "geometry": { "type": "Point", "coordinates": [ -122.301139, 37.8144809 ] } },
{ "type": "Feature", "properties": { "kind": "on", "postmile": 2.1396180449018636, "mainline_node": 30365826, "ramp_terminus_node": 436645371, "lanes": 1, "name": null }, "geometry": { "type": "Point", "coordinates": [ -122.3022792, 37.8037097 ] } },
{ "type": "Feature", "properties": { "kind": "off", "postmile": 2.4807327570275972, "mainline_node": 231185717, "ramp_terminus_node": 53060695, "lanes": 2, "name": null }, "geometry": { "type": "Point", "coordinates": [ -122.2966438, 37.8018367 ] } },
{ "type": "Feature", "properties": { "kind": "on", "postmile": 3.4517292647040669, "mainline_node": 30374151, "ramp_terminus_node": 30374146, "lanes": 1, "name": null }, "geometry": { "type": "Point", "coordinates": [ -122.2796066, 37.8002676 ] } },
{ "type": "Feature", "properties": { "kind": "on", "postmile": 3.930657169967902, "mainline_node": 30371941, "ramp_terminus_node": 231190233, "lanes": 2, "name": null }, "geometry": { "type": "Point", "coordinates": [ -122.2717688, 37.7971557 ] } },
{ "type": "Feature", "properties": { "kind": "on", "postmile": 4.0325863355202793, "mainline_node": 1172077872, "ramp_terminus_node": 231205692, "lanes": 1, "name": null }, "geometry": { "type": "Point", "coordinates": [ -122.2700889, 37.7965121 ] } },
{ "type": "Feature", "properties": { "kind": "on", "postmile": 4.4673547690330384, "mainline_node": 678338867, "ramp_terminus_node": 52987661, "lanes": 2, "name": null }, "geometry": { "type": "Point", "coordinates": [ -122.2635291, 37.7930608 ] } },
{ "type": "Feature", "properties": { "kind": "on", "postmile": 5.2244835796290579, "mainline_node": 234253732, "ramp_terminus_node": 312058693, "lanes": 1, "name": null }, "geometry": { "type": "Point", "coordinates": [ -122.2513816, 37.7884986 ] } },
{ "type": "Feature", "properties": { "kind": "off", "postmile": 5.4422510898892265, "mainline_node": 234253736, "ramp_terminus_node": 243172866, "lanes": 1, "name": null }, "geometry": { "type": "Point", "coordinates": [ -122.2477217, 37.787251 ] } },
{ "type": "Feature", "properties": { "kind": "off", "postmile": 6.1215421408602833, "mainline_node": 52990173, "ramp_terminus_node": 311684852, "lanes": 1, "name": null }, "geometry": { "type": "Point", "coordinates": [ -122.2386813, 37.7809313 ] } },
{ "type": "Feature", "properties": { "kind": "on", "postmile": 6.5773951316092347, "mainline_node": 234262368, "ramp_terminus_node": 2853385454, "lanes": 1, "name": null }, "geometry": { "type": "Point", "coordinates": [ -122.2344997, 37.7754247 ] } },
{ "type": "Feature", "properties": { "kind": "on", "postmile": 6.7220446305113164, "mainline_node": 1937129091, "ramp_terminus_node": 311188867, "lanes": 1, "name": null }, "geometry": { "type": "Point", "coordinates": [ -122.2321308, 37.7744958 ] } },
{ "type": "Feature", "properties": { "kind": "off", "postmile": 6.7344940980268158, "mainline_node": 233568674, "ramp_terminus_node": 52997041, "lanes": 1, "name": null }, "geometry": { "type": "Point", "coordinates": [ -122.231922, 37.7744235 ] } },
{ "type": "Feature", "properties": { "kind": "off", "postmile": 7.180269006468424, "mainline_node": 241328971, "ramp_terminus_node": 2196976146, "lanes": 1, "name": null }, "geometry": { "type": "Point", "coordinates": [ -122.2244149, 37.7718965 ] } },
{ "type": "Feature", "properties": { "kind": "on", "postmile": 7.8551315065662184, "mainline_node": 678963606, "ramp_terminus_node": 53008231, "lanes": 1, "name": null }, "geometry": { "type": "Point", "coordinates": [ -122.2171499, 37.764122 ] } },
{ "type": "Feature", "properties": { "kind": "off", "postmile": 8.3518245159139557, "mainline_node": 52984138, "ramp_terminus_node": 52984139, "lanes": 2, "name": null }, "geometry": { "type": "Point", "coordinates": [ -122.2120087, 37.7581928 ] } },
{ "type": "Feature", "properties": { "kind": "on", "postmile": 9.0631517248766738, "mainline_node": 241331864, "ramp_terminus_node": 52984188, "lanes": 1, "name": null }, "geometry": { "type": "Point", "coordinates": [ -122.2045459, 37.7497568 ] } },
{ "type": "Feature", "properties": { "kind": "off", "postmile": 9.5856470427796321, "mainline_node": 241335045, "ramp_terminus_node": 242127339, "lanes": 2, "name": null }, "geometry": { "type": "Point", "coordinates": [ -122.1991096, 37.7435353 ] } },
{ "type": "Feature", "properties": { "kind": "on", "postmile": 9.8967903596659585, "mainline_node": 241335048, "ramp_terminus_node": 53058085, "lanes": 1, "name": null }, "geometry": { "type": "Point", "coordinates": [ -122.1958655, 37.7398345 ] } },
{ "type": "Feature", "properties": { "kind": "on", "postmile": 10.109827281042072, "mainline_node": 242106766, "ramp_terminus_node": 241784813, "lanes": 1, "name": null }, "geometry": { "type": "Point", "coordinates": [ -122.193665, 37.7372893 ] } },
{ "type": "Feature", "properties": { "kind": "off", "postmile": 10.353776449763561, "mainline_node": 242106767, "ramp_terminus_node": 242197026, "lanes": 1, "name": null }, "geometry": { "type": "Point", "coordinates": [ -122.1911025, 37.7343981 ] } },
{ "type": "Feature", "properties": { "kind": "on", "postmile": 10.595874113765028, "mainline_node": 242187653, "ramp_terminus_node": 343924935, "lanes": 1, "name": null }, "geometry": { "type": "Point", "coordinates": [ -122.1885308, 37.7315449 ] } },
{ "type": "Feature", "properties": { "kind": "on", "postmile": 10.723383750426793, "mainline_node": 242187655, "ramp_terminus_node": 12019346454, "lanes": 1, "name": null }, "geometry": { "type": "Point", "coordinates": [ -122.1872574, 37.7300005 ] } },
{ "type": "Feature", "properties": { "kind": "off", "postmile": 11.498912934565933, "mainline_node": 242414019, "ramp_terminus_node": 242443102, "lanes": 1, "name": null }, "geometry": { "type": "Point", "coordinates": [ -122.178853, 37.72096 ] } },
{ "type": "Feature", "properties": { "kind": "on", "postmile": 11.688668836014319, "mainline_node": 3374503918, "ramp_terminus_node": 3374503919, "lanes": 1, "name": null }, "geometry": { "type": "Point", "coordinates": [ -122.1766341, 37.71885 ] } },
{ "type": "Feature", "properties": { "kind": "on", "postmile": 11.780066758717142, "mainline_node": 1316702496, "ramp_terminus_node": 242440514, "lanes": 1, "name": null }, "geometry": { "type": "Point", "coordinates": [ -122.1755831, 37.7178211 ] } },
{ "type": "Feature", "properties": { "kind": "off", "postmile": 12.209769306156852, "mainline_node": 242465654, "ramp_terminus_node": 4306929026, "lanes": 1, "name": null }, "geometry": { "type": "Point", "coordinates": [ -122.1705393, 37.713058 ] } },
{ "type": "Feature", "properties": { "kind": "off", "postmile": 12.441409928737588, "mainline_node": 3701155819, "ramp_terminus_node": 3733468241, "lanes": 1, "name": null }, "geometry": { "type": "Point", "coordinates": [ -122.1673581, 37.7108432 ] } },
{ "type": "Feature", "properties": { "kind": "on", "postmile": 12.675841778328563, "mainline_node": 6347940589, "ramp_terminus_node": 5850987064, "lanes": 1, "name": null }, "geometry": { "type": "Point", "coordinates": [ -122.1641109, 37.7086268 ] } },
{ "type": "Feature", "properties": { "kind": "off", "postmile": 14.170899927947062, "mainline_node": 242850841, "ramp_terminus_node": 52986992, "lanes": 2, "name": null }, "geometry": { "type": "Point", "coordinates": [ -122.1435017, 37.6944029 ] } },
{ "type": "Feature", "properties": { "kind": "on", "postmile": 14.729562303526041, "mainline_node": 242851788, "ramp_terminus_node": 52986986, "lanes": 1, "name": null }, "geometry": { "type": "Point", "coordinates": [ -122.1358245, 37.6890674 ] } },
{ "type": "Feature", "properties": { "kind": "off", "postmile": 14.771300892638269, "mainline_node": 242856251, "ramp_terminus_node": 3957354407, "lanes": 1, "name": null }, "geometry": { "type": "Point", "coordinates": [ -122.1352529, 37.688667 ] } },
{ "type": "Feature", "properties": { "kind": "on", "postmile": 15.218810654302146, "mainline_node": 242856001, "ramp_terminus_node": 242857213, "lanes": 2, "name": null }, "geometry": { "type": "Point", "coordinates": [ -122.1291085, 37.6843893 ] } },
{ "type": "Feature", "properties": { "kind": "on", "postmile": 15.388706761329207, "mainline_node": 53005340, "ramp_terminus_node": 53118443, "lanes": 1, "name": null }, "geometry": { "type": "Point", "coordinates": [ -122.1267868, 37.6827553 ] } },
{ "type": "Feature", "properties": { "kind": "off", "postmile": 16.764115692787932, "mainline_node": 257389219, "ramp_terminus_node": 2423644873, "lanes": 1, "name": null }, "geometry": { "type": "Point", "coordinates": [ -122.1092963, 37.6687134 ] } },
{ "type": "Feature", "properties": { "kind": "on", "postmile": 17.144881739292327, "mainline_node": 257389670, "ramp_terminus_node": 2423644873, "lanes": 1, "name": null }, "geometry": { "type": "Point", "coordinates": [ -122.1062425, 37.6637614 ] } },
{ "type": "Feature", "properties": { "kind": "off", "postmile": 17.352358042441725, "mainline_node": 257389852, "ramp_terminus_node": 53000810, "lanes": 1, "name": null }, "geometry": { "type": "Point", "coordinates": [ -122.1045439, 37.6610765 ] } },
{ "type": "Feature", "properties": { "kind": "on", "postmile": 18.045526797415196, "mainline_node": 257389899, "ramp_terminus_node": 601724127, "lanes": 1, "name": null }, "geometry": { "type": "Point", "coordinates": [ -122.0989801, 37.6520629 ] } },
{ "type": "Feature", "properties": { "kind": "off", "postmile": 18.317973816372547, "mainline_node": 33144662, "ramp_terminus_node": 547963197, "lanes": 2, "name": null }, "geometry": { "type": "Point", "coordinates": [ -122.0966984, 37.6485597 ] } },
{ "type": "Feature", "properties": { "kind": "on", "postmile": 18.740201089182325, "mainline_node": 1243945808, "ramp_terminus_node": 33144374, "lanes": 1, "name": null }, "geometry": { "type": "Point", "coordinates": [ -122.0928828, 37.6432498 ] } },
{ "type": "Feature", "properties": { "kind": "on", "postmile": 18.910599459309594, "mainline_node": 3974818867, "ramp_terminus_node": 1642975892, "lanes": 1, "name": null }, "geometry": { "type": "Point", "coordinates": [ -122.0913517, 37.6411023 ] } },
{ "type": "Feature", "properties": { "kind": "off", "postmile": 19.409371059500295, "mainline_node": 33154458, "ramp_terminus_node": 1684055401, "lanes": 1, "name": null }, "geometry": { "type": "Point", "coordinates": [ -122.0868459, 37.634827 ] } },
{ "type": "Feature", "properties": { "kind": "on", "postmile": 19.951158165573126, "mainline_node": 33154553, "ramp_terminus_node": 1684055115, "lanes": 1, "name": null }, "geometry": { "type": "Point", "coordinates": [ -122.0819979, 37.6279899 ] } },
{ "type": "Feature", "properties": { "kind": "off", "postmile": 20.490846796345782, "mainline_node": 33155431, "ramp_terminus_node": 33155445, "lanes": 1, "name": null }, "geometry": { "type": "Point", "coordinates": [ -122.0771415, 37.6211916 ] } },
{ "type": "Feature", "properties": { "kind": "on", "postmile": 20.885389273049558, "mainline_node": 33155435, "ramp_terminus_node": 33155422, "lanes": 1, "name": null }, "geometry": { "type": "Point", "coordinates": [ -122.0736046, 37.6162158 ] } },
{ "type": "Feature", "properties": { "kind": "off", "postmile": 21.459419866675624, "mainline_node": 52990182, "ramp_terminus_node": 52990207, "lanes": 2, "name": null }, "geometry": { "type": "Point", "coordinates": [ -122.0684542, 37.6089786 ] } },
{ "type": "Feature", "properties": { "kind": "on", "postmile": 21.856922001061857, "mainline_node": 3974638968, "ramp_terminus_node": 610811229, "lanes": 1, "name": null }, "geometry": { "type": "Point", "coordinates": [ -122.0648526, 37.6039832 ] } },
{ "type": "Feature", "properties": { "kind": "off", "postmile": 22.044325370567503, "mainline_node": 53004575, "ramp_terminus_node": 53004584, "lanes": 1, "name": null }, "geometry": { "type": "Point", "coordinates": [ -122.0631684, 37.6016219 ] } },
{ "type": "Feature", "properties": { "kind": "on", "postmile": 22.301793742180198, "mainline_node": 13366441491, "ramp_terminus_node": 7110956589, "lanes": 1, "name": null }, "geometry": { "type": "Point", "coordinates": [ -122.0608634, 37.5983737 ] } },
{ "type": "Feature", "properties": { "kind": "on", "postmile": 22.53922614106839, "mainline_node": 720616987, "ramp_terminus_node": 610811997, "lanes": 1, "name": null }, "geometry": { "type": "Point", "coordinates": [ -122.0587407, 37.5953774 ] } },
{ "type": "Feature", "properties": { "kind": "off", "postmile": 23.529854576644126, "mainline_node": 52982439, "ramp_terminus_node": 660036211, "lanes": 1, "name": null }, "geometry": { "type": "Point", "coordinates": [ -122.0500149, 37.5828242 ] } },
{ "type": "Feature", "properties": { "kind": "on", "postmile": 23.832477256078132, "mainline_node": 1080537030, "ramp_terminus_node": 660036207, "lanes": 1, "name": null }, "geometry": { "type": "Point", "coordinates": [ -122.0483944, 37.5786399 ] } },
{ "type": "Feature", "properties": { "kind": "on", "postmile": 24.034173998457209, "mainline_node": 257362967, "ramp_terminus_node": 5058029099, "lanes": 1, "name": null }, "geometry": { "type": "Point", "coordinates": [ -122.0474514, 37.575818 ] } },
{ "type": "Feature", "properties": { "kind": "off", "postmile": 24.800252060697456, "mainline_node": 52991329, "ramp_terminus_node": 52991332, "lanes": 1, "name": null }, "geometry": { "type": "Point", "coordinates": [ -122.0413401, 37.5660276 ] } },
{ "type": "Feature", "properties": { "kind": "on", "postmile": 25.113821437542331, "mainline_node": 32816469, "ramp_terminus_node": 341668907, "lanes": 1, "name": null }, "geometry": { "type": "Point", "coordinates": [ -122.0376606, 37.5625511 ] } },
{ "type": "Feature", "properties": { "kind": "on", "postmile": 25.295974377453469, "mainline_node": 257360278, "ramp_terminus_node": 32784711, "lanes": 1, "name": "CA 84" }, "geometry": { "type": "Point", "coordinates": [ -122.0354495, 37.5605818 ] } },
{ "type": "Feature", "properties": { "kind": "off", "postmile": 26.24669108440489, "mainline_node": 257394319, "ramp_terminus_node": 53001524, "lanes": 1, "name": null }, "geometry": { "type": "Point", "coordinates": [ -122.0251737, 37.5495409 ] } },
{ "type": "Feature", "properties": { "kind": "on", "postmile": 26.57239363590179, "mainline_node": 257394436, "ramp_terminus_node": 725437321, "lanes": 1, "name": null }, "geometry": { "type": "Point", "coordinates": [ -122.0221452, 37.5454846 ] } },
{ "type": "Feature", "properties": { "kind": "on", "postmile": 26.802197724903447, "mainline_node": 601720947, "ramp_terminus_node": 725438834, "lanes": 1, "name": null }, "geometry": { "type": "Point", "coordinates": [ -122.0199767, 37.5426375 ] } },
{ "type": "Feature", "properties": { "kind": "off", "postmile": 27.876178718784455, "mainline_node": 257395021, "ramp_terminus_node": 257395104, "lanes": 1, "name": null }, "geometry": { "type": "Point", "coordinates": [ -122.0063014, 37.5318913 ] } },
{ "type": "Feature", "properties": { "kind": "on", "postmile": 28.253592268787543, "mainline_node": 32816479, "ramp_terminus_node": 490122607, "lanes": 1, "name": null }, "geometry": { "type": "Point", "coordinates": [ -122.0006144, 37.5288095 ] } },
{ "type": "Feature", "properties": { "kind": "on", "postmile": 28.455222267303224, "mainline_node": 257395063, "ramp_terminus_node": 52994613, "lanes": 1, "name": null }, "geometry": { "type": "Point", "coordinates": [ -121.9975331, 37.5272149 ] } },
{ "type": "Feature", "properties": { "kind": "off", "postmile": 28.817748188149444, "mainline_node": 257395232, "ramp_terminus_node": 257395292, "lanes": 1, "name": null }, "geometry": { "type": "Point", "coordinates": [ -121.9919082, 37.5244528 ] } },
{ "type": "Feature", "properties": { "kind": "on", "postmile": 29.161412124434609, "mainline_node": 257395396, "ramp_terminus_node": 3679821270, "lanes": 1, "name": null }, "geometry": { "type": "Point", "coordinates": [ -121.9865805, 37.5218288 ] } },
{ "type": "Feature", "properties": { "kind": "on", "postmile": 29.355343408577621, "mainline_node": 32816481, "ramp_terminus_node": 52994651, "lanes": 1, "name": null }, "geometry": { "type": "Point", "coordinates": [ -121.9836887, 37.5202201 ] } },
{ "type": "Feature", "properties": { "kind": "off", "postmile": 30.32082398319238, "mainline_node": 257395657, "ramp_terminus_node": 52990948, "lanes": 2, "name": null }, "geometry": { "type": "Point", "coordinates": [ -121.9712732, 37.5103118 ] } },
{ "type": "Feature", "properties": { "kind": "on", "postmile": 30.665158700123794, "mainline_node": 257395638, "ramp_terminus_node": 350562028, "lanes": 1, "name": null }, "geometry": { "type": "Point", "coordinates": [ -121.9668664, 37.5067599 ] } },
{ "type": "Feature", "properties": { "kind": "on", "postmile": 30.795592567949669, "mainline_node": 257395601, "ramp_terminus_node": 8785475495, "lanes": 1, "name": null }, "geometry": { "type": "Point", "coordinates": [ -121.9651999, 37.5054123 ] } },
{ "type": "Feature", "properties": { "kind": "off", "postmile": 31.086817157970856, "mainline_node": 6858093607, "ramp_terminus_node": 6858093610, "lanes": 1, "name": null }, "geometry": { "type": "Point", "coordinates": [ -121.9614251, 37.5024465 ] } },
{ "type": "Feature", "properties": { "kind": "on", "postmile": 31.583294384526447, "mainline_node": 6858093618, "ramp_terminus_node": 6858093613, "lanes": 1, "name": null }, "geometry": { "type": "Point", "coordinates": [ -121.9549119, 37.4974533 ] } },
{ "type": "Feature", "properties": { "kind": "off", "postmile": 31.831943152904909, "mainline_node": 257396279, "ramp_terminus_node": 53010715, "lanes": 1, "name": null }, "geometry": { "type": "Point", "coordinates": [ -121.9516748, 37.4949325 ] } },
{ "type": "Feature", "properties": { "kind": "on", "postmile": 32.18822826645593, "mainline_node": 257396194, "ramp_terminus_node": 3872585901, "lanes": 1, "name": null }, "geometry": { "type": "Point", "coordinates": [ -121.9469914, 37.4913573 ] } },
{ "type": "Feature", "properties": { "kind": "on", "postmile": 32.370741902854292, "mainline_node": 257396283, "ramp_terminus_node": 4882628579, "lanes": 1, "name": null }, "geometry": { "type": "Point", "coordinates": [ -121.944608, 37.489513 ] } },
{ "type": "Feature", "properties": { "kind": "off", "postmile": 32.616874268113662, "mainline_node": 258133918, "ramp_terminus_node": 568992434, "lanes": 2, "name": null }, "geometry": { "type": "Point", "coordinates": [ -121.941399, 37.4870217 ] } },
{ "type": "Feature", "properties": { "kind": "on", "postmile": 33.178568455360491, "mainline_node": 1316890807, "ramp_terminus_node": 568992434, "lanes": 1, "name": null }, "geometry": { "type": "Point", "coordinates": [ -121.9349832, 37.4807887 ] } },
{ "type": "Feature", "properties": { "kind": "off", "postmile": 34.830089545501501, "mainline_node": 258130532, "ramp_terminus_node": 1937137790, "lanes": 2, "name": null }, "geometry": { "type": "Point", "coordinates": [ -121.9240826, 37.4585093 ] } },
{ "type": "Feature", "properties": { "kind": "on", "postmile": 35.290225025767199, "mainline_node": 330144959, "ramp_terminus_node": 1688870586, "lanes": 2, "name": null }, "geometry": { "type": "Point", "coordinates": [ -121.9226304, 37.4519563 ] } },
{ "type": "Feature", "properties": { "kind": "on", "postmile": 35.443181615825601, "mainline_node": 1080426063, "ramp_terminus_node": 330144655, "lanes": 1, "name": null }, "geometry": { "type": "Point", "coordinates": [ -121.9222229, 37.4497663 ] } },
{ "type": "Feature", "properties": { "kind": "off", "postmile": 36.381843856708485, "mainline_node": 32791319, "ramp_terminus_node": 13321598272, "lanes": 1, "name": null }, "geometry": { "type": "Point", "coordinates": [ -121.919578, 37.4363445 ] } },
{ "type": "Feature", "properties": { "kind": "off", "postmile": 36.58177932781625, "mainline_node": 311735106, "ramp_terminus_node": 1068644387, "lanes": 2, "name": null }, "geometry": { "type": "Point", "coordinates": [ -121.9191945, 37.4334673 ] } },
{ "type": "Feature", "properties": { "kind": "off", "postmile": 36.848059882535935, "mainline_node": 251911885, "ramp_terminus_node": 251911897, "lanes": 1, "name": null }, "geometry": { "type": "Point", "coordinates": [ -121.918537, 37.4296549 ] } },
{ "type": "Feature", "properties": { "kind": "on", "postmile": 37.780269173045426, "mainline_node": 248092076, "ramp_terminus_node": 311733927, "lanes": 2, "name": null }, "geometry": { "type": "Point", "coordinates": [ -121.9135988, 37.4167694 ] } },
{ "type": "Feature", "properties": { "kind": "off", "postmile": 38.58144931394375, "mainline_node": 248093005, "ramp_terminus_node": 248093000, "lanes": 1, "name": null }, "geometry": { "type": "Point", "coordinates": [ -121.9100485, 37.4055297 ] } },
{ "type": "Feature", "properties": { "kind": "on", "postmile": 39.192729449531498, "mainline_node": 288072859, "ramp_terminus_node": 288072858, "lanes": 1, "name": null }, "geometry": { "type": "Point", "coordinates": [ -121.9080046, 37.3968342 ] } },
{ "type": "Feature", "properties": { "kind": "off", "postmile": 39.934888275506893, "mainline_node": 65381898, "ramp_terminus_node": 65381883, "lanes": 1, "name": null }, "geometry": { "type": "Point", "coordinates": [ -121.905513, 37.3862773 ] } },
{ "type": "Feature", "properties": { "kind": "on", "postmile": 40.516196005358957, "mainline_node": 65388338, "ramp_terminus_node": 65388315, "lanes": 1, "name": null }, "geometry": { "type": "Point", "coordinates": [ -121.9035701, 37.3780073 ] } },
{ "type": "Feature", "properties": { "kind": "off", "postmile": 40.983913490406977, "mainline_node": 65391242, "ramp_terminus_node": 1708555151, "lanes": 1, "name": null }, "geometry": { "type": "Point", "coordinates": [ -121.9020057, 37.3713531 ] } },
{ "type": "Feature", "properties": { "kind": "on", "postmile": 41.252215382626829, "mainline_node": 26404564, "ramp_terminus_node": 312119654, "lanes": 2, "name": null }, "geometry": { "type": "Point", "coordinates": [ -121.9012296, 37.3675252 ] } },
{ "type": "Feature", "properties": { "kind": "on", "postmile": 41.446862478550791, "mainline_node": 26404567, "ramp_terminus_node": 68218060, "lanes": 1, "name": null }, "geometry": { "type": "Point", "coordinates": [ -121.9017089, 37.3647518 ] } },
{ "type": "Feature", "properties": { "kind": "off", "postmile": 41.535995276294571, "mainline_node": 312118657, "ramp_terminus_node": 65401537, "lanes": 1, "name": null }, "geometry": { "type": "Point", "coordinates": [ -121.9023285, 37.363561 ] } },
{ "type": "Feature", "properties": { "kind": "on", "postmile": 41.649588054073106, "mainline_node": 52140457, "ramp_terminus_node": 245812729, "lanes": 1, "name": null }, "geometry": { "type": "Point", "coordinates": [ -121.9034458, 37.3621831 ] } },
{ "type": "Feature", "properties": { "kind": "on", "postmile": 41.94939214020286, "mainline_node": 4977823055, "ramp_terminus_node": 614042733, "lanes": 1, "name": null }, "geometry": { "type": "Point", "coordinates": [ -121.9068419, 37.3587861 ] } },
{ "type": "Feature", "properties": { "kind": "off", "postmile": 42.617809125057477, "mainline_node": 287826065, "ramp_terminus_node": 287826043, "lanes": 2, "name": null }, "geometry": { "type": "Point", "coordinates": [ -121.9147199, 37.3514284 ] } },
{ "type": "Feature", "properties": { "kind": "on", "postmile": 42.951142410440731, "mainline_node": 3678154056, "ramp_terminus_node": 3633625502, "lanes": 1, "name": null }, "geometry": { "type": "Point", "coordinates": [ -121.9192224, 37.3481942 ] } },
{ "type": "Feature", "properties": { "kind": "on", "postmile": 43.103819980484211, "mainline_node": 245917505, "ramp_terminus_node": 1070170033, "lanes": 1, "name": null }, "geometry": { "type": "Point", "coordinates": [ -121.9212822, 37.3467105 ] } },
{ "type": "Feature", "properties": { "kind": "off", "postmile": 43.310560796730499, "mainline_node": 65397622, "ramp_terminus_node": 65397639, "lanes": 1, "name": null }, "geometry": { "type": "Point", "coordinates": [ -121.9240595, 37.3446914 ] } },
{ "type": "Feature", "properties": { "kind": "on", "postmile": 43.476857819350727, "mainline_node": 65390120, "ramp_terminus_node": 311576187, "lanes": 1, "name": null }, "geometry": { "type": "Point", "coordinates": [ -121.9259094, 37.3427879 ] } },
{ "type": "Feature", "properties": { "kind": "on", "postmile": 43.642850332148981, "mainline_node": 6439958932, "ramp_terminus_node": 4176826264, "lanes": 1, "name": null }, "geometry": { "type": "Point", "coordinates": [ -121.9280294, 37.3410809 ] } },
{ "type": "Feature", "properties": { "kind": "off", "postmile": 44.173412363902401, "mainline_node": 65390614, "ramp_terminus_node": 65390610, "lanes": 1, "name": null }, "geometry": { "type": "Point", "coordinates": [ -121.9348918, 37.3356815 ] } },
{ "type": "Feature", "properties": { "kind": "on", "postmile": 44.273138011287159, "mainline_node": 65390602, "ramp_terminus_node": 65390610, "lanes": 1, "name": null }, "geometry": { "type": "Point", "coordinates": [ -121.936194, 37.3346759 ] } },
{ "type": "Feature", "properties": { "kind": "on", "postmile": 44.338120031289876, "mainline_node": 65417082, "ramp_terminus_node": 3605735026, "lanes": 1, "name": null }, "geometry": { "type": "Point", "coordinates": [ -121.9370484, 37.3340255 ] } },
{ "type": "Feature", "properties": { "kind": "off", "postmile": 44.907875640763962, "mainline_node": 305549799, "ramp_terminus_node": 3664025657, "lanes": 2, "name": null }, "geometry": { "type": "Point", "coordinates": [ -121.9409015, 37.3268323 ] } },
{ "type": "Feature", "properties": { "kind": "off", "postmile": 45.229961308250672, "mainline_node": 65495541, "ramp_terminus_node": 1299142181, "lanes": 1, "name": null }, "geometry": { "type": "Point", "coordinates": [ -121.9406589, 37.3221766 ] } },
{ "type": "Feature", "properties": { "kind": "on", "postmile": 45.575158752644313, "mainline_node": 8893433765, "ramp_terminus_node": 279690369, "lanes": 1, "name": null }, "geometry": { "type": "Point", "coordinates": [ -121.9403617, 37.3171923 ] } },
{ "type": "Feature", "properties": { "kind": "on", "postmile": 45.892510935748604, "mainline_node": 65401698, "ramp_terminus_node": 65378119, "lanes": 3, "name": null }, "geometry": { "type": "Point", "coordinates": [ -121.9406487, 37.312605 ] } }
]
}
