{
"type": "FeatureCollection",
"name": "cells",
"crs": { "type": "name", "properties": { "name": "urn:ogc:def:crs:OGC:1.3:CRS84" } },
"features": [
{ "type": "Feature", "properties": { "pm_start": 1.288671, "pm_end": 1.488981, "length": 0.20031, "lanes": 3, "on_ramp": false, "off_ramp": false, "on_ramp_name": null, "off_ramp_name": null, "caltrans_pm_start": 1.20000017, "caltrans_pm_end": 1.40000012, "length_warning": "ok", "fd_vds_id": null, "vds_id": 400057, "vds_pm": 1.44589746, "vds_lanes": 3, "vds_source": "direct", "vds_distance_mi": 0.0, "vds_n_candidates": 1, "on_ramp_vds_id": null, "off_ramp_vds_id": null, "Notes": "Check lanes" }, "geometry": { "type": "LineString", "coordinates": [ [ -121.937595198421391, 37.333450501163135 ], [ -121.9369565, 37.3339211 ], [ -121.9365878, 37.3342081 ], [ -121.936298, 37.3344119 ], [ -121.9361774, 37.3345036 ], [ -121.9349508, 37.335446 ] ] } },
{ "type": "Feature", "properties": { "pm_start": 1.488981, "pm_end": 2.047847, "length": 0.558866, "lanes": 4, "on_ramp": true, "off_ramp": true, "on_ramp_name": null, "off_ramp_name": null, "caltrans_pm_start": 1.40000012, "caltrans_pm_end": 1.90000053, "length_warning": "ok", "fd_vds_id": null, "vds_id": 400057, "vds_pm": 1.44589746, "vds_lanes": 3, "vds_source": "nearest_upstream", "vds_distance_mi": -0.3225165, "vds_n_candidates": 0, "on_ramp_vds_id": 413029.0, "off_ramp_vds_id": 413028.0, "Notes": null }, "geometry": { "type": "Point", "coordinates": [ -121.9349508, 37.335446 ] } },
{ "type": "Feature", "properties": { "pm_start": 2.047847, "pm_end": 2.365016, "length": 0.317169, "lanes": 3, "on_ramp": false, "off_ramp": false, "on_ramp_name": null, "off_ramp_name": null, "caltrans_pm_start": 1.90000053, "caltrans_pm_end": 2.19999984, "length_warning": "ok", "fd_vds_id": null, "vds_id": 400147, "vds_pm": 2.15600615, "vds_lanes": 3, "vds_source": "direct", "vds_distance_mi": 0.0, "vds_n_candidates": 1, "on_ramp_vds_id": null, "off_ramp_vds_id": null, "Notes": null }, "geometry": { "type": "Point", "coordinates": [ -121.9349508, 37.335446 ] } }
]
}
