{
"type": "FeatureCollection",
"name": "mainline",
"crs": { "type": "name", "properties": { "name": "urn:ogc:def:crs:OGC:1.3:CRS84" } },
"features": [
{ "type": "Feature", "properties": { "u": 257884249, "v": 279690421, "pm_start": 0.0, "pm_end": 0.54846419073974295, "lanes": 3 }, "geometry": { "type": "LineString", "coordinates": [ [ -121.9402897, 37.3156408 ], [ -121.9402662, 37.3159991 ], [ -121.9402514, 37.3161873 ], [ -121.9401896, 37.3170526 ], [ -121.9401556, 37.3175843 ], [ -121.9401443, 37.3179021 ], [ -121.9401372, 37.3182939 ], [ -121.9401448, 37.3186758 ], [ -121.9401601, 37.3190777 ], [ -121.9402083, 37.3197232 ], [ -121.940284, 37.3204254 ], [ -121.9404855, 37.3220197 ], [ -121.9406001, 37.3230311 ], [ -121.9406454, 37.3235584 ] ] } },
{ "type": "Feature", "properties": { "u": 279690421, "v": 289649406, "pm_start": 0.54846419073974295, "pm_end": 0.70992354585216866, "lanes": 4 }, "geometry": { "type": "LineString", "coordinates": [ [ -121.9406454, 37.3235584 ], [ -121.9407312, 37.3247317 ], [ -121.9407398, 37.325288 ], [ -121.940742, 37.3258932 ] ] } },
{ "type": "Feature", "properties": { "u": 289649406, "v": 206680206, "pm_start": 0.70992354585216866, "pm_end": 1.2886708816863366, "lanes": 4 }, "geometry": { "type": "LineString", "coordinates": [ [ -121.940742, 37.3258932 ], [ -121.9407465, 37.3264624 ], [ -121.9407517, 37.3271092 ], [ -121.9407518, 37.327276 ], [ -121.9407514, 37.3279564 ], [ -121.9407538, 37.328777 ], [ -121.9407481, 37.3289577 ], [ -121.9407371, 37.3291234 ], [ -121.9407097, 37.3293606 ], [ -121.9406728, 37.3295817 ], [ -121.9406271, 37.3297971 ], [ -121.9405707, 37.3299912 ], [ -121.9405115, 37.3301661 ], [ -121.9404511, 37.3303366 ], [ -121.9403975, 37.3304776 ], [ -121.9403048, 37.3306791 ], [ -121.9401551, 37.3309502 ], [ -121.9399904, 37.3312274 ], [ -121.9398496, 37.3314337 ], [ -121.9397083, 37.3316294 ], [ -121.9395626, 37.3318021 ], [ -121.9393265, 37.3320462 ], [ -121.9390315, 37.3323201 ], [ -121.9386078, 37.3326751 ], [ -121.9375952, 37.3334505 ] ] } },
{ "type": "Feature", "properties": { "u": 206680206, "v": 5261661337, "pm_start": 1.2886708816863366, "pm_end": 1.3861091144788558, "lanes": 4 }, "geometry": { "type": "LineString", "coordinates": [ [ -121.9375952, 37.3334505 ], [ -121.9369565, 37.3339211 ], [ -121.9365878, 37.3342081 ], [ -121.936298, 37.3344119 ] ] } },
{ "type": "Feature", "properties": { "u": 5261661337, "v": 283018947, "pm_start": 1.3861091144788558, "pm_end": 1.4889808423909392, "lanes": 3 }, "geometry": { "type": "LineString", "coordinates": [ [ -121.936298, 37.3344119 ], [ -121.9361774, 37.3345036 ], [ -121.9349508, 37.335446 ] ] } }
]
}
