{
"type": "FeatureCollection",
"name": "ramps",
"crs": { "type": "name", "properties": { "name": "urn:ogc:def:crs:OGC:1.3:CRS84" } },
"features": [
{ "type": "Feature", "properties": { "kind": "off", "postmile": 0.0, "mainline_node": 257884249, "ramp_terminus_node": 65401713, "lanes": 2, "name": null }, "geometry": { "type": "Point", "coordinates": [ -121.9402897, 37.3156408 ] } },
{ "type": "Feature", "properties": { "kind": "on", "postmile": 0.54846419073974295, "mainline_node": 279690421, "ramp_terminus_node": 3664025652, "lanes": 2, "name": null }, "geometry": { "type": "Point", "coordinates": [ -121.9406454, 37.3235584 ] } },
{ "type": "Feature", "properties": { "kind": "on", "postmile": 0.70992354585216866, "mainline_node": 289649406, "ramp_terminus_node": 65408099, "lanes": 1, "name": null }, "geometry": { "type": "Point", "coordinates": [ -121.940742, 37.3258932 ] } },
{ "type": "Feature", "properties": { "kind": "off", "postmile": 1.2886708816863366, "mainline_node": 206680206, "ramp_terminus_node": 651296352, "lanes": 1, "name": null }, "geometry": { "type": "Point", "coordinates": [ -121.9375952, 37.3334505 ] } },
{ "type": "Feature", "properties": { "kind": "off", "postmile": 1.3861091144788558, "mainline_node": 5261661337, "ramp_terminus_node": 65390685, "lanes": 1, "name": null }, "geometry": { "type": "Point", "coordinates": [ -121.936298, 37.3344119 ] } },
{ "type": "Feature", "properties": { "kind": "on", "postmile": 1.4889808423909392, "mainline_node": 283018947, "ramp_terminus_node": 283018946, "lanes": 1, "name": null }, "geometry": { "type": "Point", "coordinates": [ -121.9349508, 37.335446 ] } }
]
}
