{
"type": "FeatureCollection",
"name": "cells",
"crs": { "type": "name", "properties": { "name": "urn:ogc:def:crs:OGC:1.3:CRS84" } },
"features": [
{ "type": "Feature", "properties": { "pm_start": 0.0, "pm_end": 0.674863, "length": 0.674863, "lanes": 4, "on_ramp": false, "off_ramp": false, "on_ramp_name": null, "off_ramp_name": null, "caltrans_pm_start": 28.20000076, "caltrans_pm_end": 27.499999496769437, "length_warning": "ok", "vds_id": 400190, "vds_pm": 0.083192144531720483, "vds_lanes": 4, "vds_source": "direct_tiebreak", "vds_distance_mi": 0.0, "vds_n_candidates": 2, "on_ramp_vds_id": null, "off_ramp_vds_id": null }, "geometry": { "type": "LineString", "coordinates": [ [ -122.2244149, 37.7718965 ], [ -122.2240009, 37.7717151 ], [ -122.2237492, 37.7715832 ], [ -122.2235462, 37.7714586 ], [ -122.2232645, 37.771283 ], [ -122.2230433, 37.7711298 ], [ -122.2227921, 37.7709367 ], [ -122.2225685, 37.7707499 ], [ -122.2223698, 37.7705725 ], [ -122.2221752, 37.7703766 ], [ -122.2219733, 37.7701692 ], [ -122.2216702, 37.769821 ], [ -122.2188232, 37.7660287 ], [ -122.2184765, 37.7656148 ], [ -122.2181854, 37.7652808 ], [ -122.2178367, 37.7648944 ], [ -122.2175039, 37.7645355 ], [ -122.2171499, 37.764122 ], [ -122.21714989479419, 37.7641219940596 ] ] } },
{ "type": "Feature", "properties": { "pm_start": 0.674863, "pm_end": 1.171556, "length": 0.496693, "lanes": 4, "on_ramp": true, "off_ramp": true, "on_ramp_name": null, "off_ramp_name": null, "caltrans_pm_start": 27.499999496769437, "caltrans_pm_end": 26.999999517256622, "length_warning": "ok", "vds_id": 400190, "vds_pm": 0.083192144531720483, "vds_lanes": 4, "vds_source": "nearest_upstream", "vds_distance_mi": -0.84001735546827949, "vds_n_candidates": 0, "on_ramp_vds_id": 403031, "off_ramp_vds_id": null }, "geometry": { "type": "LineString", "coordinates": [ [ -122.21714989479419, 37.7641219940596 ], [ -122.2151784, 37.7618723 ], [ -122.2148433, 37.7614907 ], [ -122.2146592, 37.7612808 ], [ -122.2139065, 37.760422 ], [ -122.2123539, 37.7585982 ], [ -122.2120087, 37.7581928 ], [ -122.212008694730372, 37.758192794292974 ] ] } },
{ "type": "Feature", "properties": { "pm_start": 1.171556, "pm_end": 1.882883, "length": 0.711327, "lanes": 4, "on_ramp": false, "off_ramp": false, "on_ramp_name": null, "off_ramp_name": null, "caltrans_pm_start": 26.999999517256622, "caltrans_pm_end": 26.299998916638973, "length_warning": "ok", "vds_id": 400956, "vds_pm": 1.8112996802765631, "vds_lanes": 4, "vds_source": "direct", "vds_distance_mi": 0.0, "vds_n_candidates": 1, "on_ramp_vds_id": null, "off_ramp_vds_id": null }, "geometry": { "type": "LineString", "coordinates": [ [ -122.212008694730372, 37.758192794292974 ], [ -122.2107136, 37.7567902 ], [ -122.208285, 37.7540216 ], [ -122.2080796, 37.7537874 ], [ -122.2076918, 37.7533463 ], [ -122.2073471, 37.7529546 ], [ -122.2069772, 37.752534 ], [ -122.2045459, 37.7497568 ], [ -122.204545897057869, 37.749756796657742 ] ] } },
{ "type": "Feature", "properties": { "pm_start": 1.882883, "pm_end": 2.405378, "length": 0.522495, "lanes": 4, "on_ramp": true, "off_ramp": true, "on_ramp_name": null, "off_ramp_name": null, "caltrans_pm_start": 26.299998916638973, "caltrans_pm_end": 25.700000801697353, "length_warning": "ok", "vds_id": 400956, "vds_pm": 1.8112996802765631, "vds_lanes": 4, "vds_source": "nearest_upstream", "vds_distance_mi": -0.33283081972343709, "vds_n_candidates": 0, "on_ramp_vds_id": 403027, "off_ramp_vds_id": null }, "geometry": { "type": "LineString", "coordinates": [ [ -122.204545897057869, 37.749756796657742 ], [ -122.2029003, 37.7478874 ], [ -122.2015954, 37.7464048 ], [ -122.2014502, 37.7462406 ], [ -122.2011862, 37.745939 ], [ -122.1995294, 37.7440213 ], [ -122.199109600375337, 37.743535300434516 ] ] } },
{ "type": "Feature", "properties": { "pm_start": 2.405378, "pm_end": 2.716521, "length": 0.311143, "lanes": 4, "on_ramp": false, "off_ramp": false, "on_ramp_name": null, "off_ramp_name": null, "caltrans_pm_start": 25.700000801697353, "caltrans_pm_end": 25.399999960549376, "length_warning": "ok", "vds_id": 400793, "vds_pm": 2.6218766577951782, "vds_lanes": 4, "vds_source": "direct", "vds_distance_mi": 0.0, "vds_n_candidates": 1, "on_ramp_vds_id": null, "off_ramp_vds_id": null }, "geometry": { "type": "LineString", "coordinates": [ [ -122.199109600375337, 37.743535300434516 ], [ -122.1991096, 37.7435353 ], [ -122.1973963, 37.7416204 ], [ -122.195865503635929, 37.739834504241848 ] ] } },
{ "type": "Feature", "properties": { "pm_start": 2.716521, "pm_end": 2.929558, "length": 0.213037, "lanes": 4, "on_ramp": true, "off_ramp": false, "on_ramp_name": null, "off_ramp_name": null, "caltrans_pm_start": 25.399999960549376, "caltrans_pm_end": 25.200001017769484, "length_warning": "ok", "vds_id": 400740, "vds_pm": 2.8118017535969888, "vds_lanes": 5, "vds_source": "direct", "vds_distance_mi": 0.0, "vds_n_candidates": 1, "on_ramp_vds_id": 410372, "off_ramp_vds_id": null }, "geometry": { "type": "LineString", "coordinates": [ [ -122.195865503635929, 37.739834504241848 ], [ -122.1958655, 37.7398345 ], [ -122.1946017, 37.7383937 ], [ -122.19366500280502, 37.737289303307215 ] ] } },
{ "type": "Feature", "properties": { "pm_start": 2.929558, "pm_end": 3.173507, "length": 0.243949, "lanes": 6, "on_ramp": true, "off_ramp": true, "on_ramp_name": null, "off_ramp_name": null, "caltrans_pm_start": 25.200001017769484, "caltrans_pm_end": 25.000000363433763, "length_warning": "ok", "vds_id": 400740, "vds_pm": 2.8118017535969888, "vds_lanes": 5, "vds_source": "nearest_upstream", "vds_distance_mi": -0.23973074640301117, "vds_n_candidates": 0, "on_ramp_vds_id": null, "off_ramp_vds_id": null }, "geometry": { "type": "LineString", "coordinates": [ [ -122.19366500280502, 37.737289303307215 ], [ -122.193665, 37.7372893 ], [ -122.1926326, 37.7361165 ], [ -122.191102504668549, 37.734398105243088 ] ] } },
{ "type": "Feature", "properties": { "pm_start": 3.173507, "pm_end": 3.415605, "length": 0.242098, "lanes": 5, "on_ramp": false, "off_ramp": false, "on_ramp_name": null, "off_ramp_name": null, "caltrans_pm_start": 25.000000363433763, "caltrans_pm_end": 24.700000892958329, "length_warning": "ok", "vds_id": 400134, "vds_pm": 3.3937138207878639, "vds_lanes": 5, "vds_source": "direct", "vds_distance_mi": 0.0, "vds_n_candidates": 1, "on_ramp_vds_id": null, "off_ramp_vds_id": null }, "geometry": { "type": "LineString", "coordinates": [ [ -122.191102504668549, 37.734398105243088 ], [ -122.1911025, 37.7343981 ], [ -122.1898064, 37.7329619 ], [ -122.188530801138981, 37.731544901265238 ] ] } },
{ "type": "Feature", "properties": { "pm_start": 3.415605, "pm_end": 3.543115, "length": 0.12751, "lanes": 5, "on_ramp": true, "off_ramp": false, "on_ramp_name": null, "off_ramp_name": null, "caltrans_pm_start": 24.700000892958329, "caltrans_pm_end": 24.600000115878935, "length_warning": "too_short", "vds_id": 400442, "vds_pm": 3.5431147439583706, "vds_lanes": 5, "vds_source": "direct", "vds_distance_mi": 0.0, "vds_n_candidates": 1, "on_ramp_vds_id": 403023, "off_ramp_vds_id": null }, "geometry": { "type": "LineString", "coordinates": [ [ -122.188530801138981, 37.731544901265238 ], [ -122.1885308, 37.7315449 ], [ -122.1881045, 37.730958 ], [ -122.1872574, 37.7300005 ], [ -122.187257397269278, 37.730000496973382 ] ] } },
{ "type": "Feature", "properties": { "pm_start": 3.543115, "pm_end": 4.318644, "length": 0.775529, "lanes": 5, "on_ramp": true, "off_ramp": true, "on_ramp_name": null, "off_ramp_name": null, "caltrans_pm_start": 24.600000115878935, "caltrans_pm_end": 23.799999164216235, "length_warning": "ok", "vds_id": 410370, "vds_pm": 4.1119498442527247, "vds_lanes": 5, "vds_source": "direct", "vds_distance_mi": 0.0, "vds_n_candidates": 1, "on_ramp_vds_id": 403019, "off_ramp_vds_id": 403013 }, "geometry": { "type": "LineString", "coordinates": [ [ -122.187257397269278, 37.730000496973382 ], [ -122.1867923, 37.729485 ], [ -122.1856615, 37.7282299 ], [ -122.1836606, 37.7259664 ], [ -122.1832851, 37.7255336 ], [ -122.1828506, 37.7250541 ], [ -122.1825072, 37.7246892 ], [ -122.1821559, 37.7243349 ], [ -122.1818018, 37.723987 ], [ -122.1800379, 37.7221764 ], [ -122.178853, 37.72096 ], [ -122.178852999107633, 37.720959999257282 ] ] } },
{ "type": "Feature", "properties": { "pm_start": 4.318644, "pm_end": 4.5084, "length": 0.189756, "lanes": 5, "on_ramp": false, "off_ramp": false, "on_ramp_name": null, "off_ramp_name": null, "caltrans_pm_start": 23.799999164216235, "caltrans_pm_end": 23.600000193502598, "length_warning": "too_short", "vds_id": 410370, "vds_pm": 4.1119498442527247, "vds_lanes": 5, "vds_source": "nearest_upstream", "vds_distance_mi": -0.30157215574727569, "vds_n_candidates": 0, "on_ramp_vds_id": null, "off_ramp_vds_id": null }, "geometry": { "type": "LineString", "coordinates": [ [ -122.178852999107633, 37.720959999257282 ], [ -122.1783056, 37.7205044 ], [ -122.1778875, 37.720092 ], [ -122.1772629, 37.7194705 ], [ -122.1766341, 37.71885 ], [ -122.176634098027122, 37.718849998094271 ] ] } },
{ "type": "Feature", "properties": { "pm_start": 4.5084, "pm_end": 4.599798, "length": 0.091398, "lanes": 5, "on_ramp": true, "off_ramp": false, "on_ramp_name": null, "off_ramp_name": null, "caltrans_pm_start": 23.600000193502598, "caltrans_pm_end": 23.499999769374373, "length_warning": "too_short", "vds_id": 410370, "vds_pm": 4.1119498442527247, "vds_lanes": 5, "vds_source": "nearest_upstream", "vds_distance_mi": -0.4421491557472752, "vds_n_candidates": 0, "on_ramp_vds_id": 403015, "off_ramp_vds_id": null }, "geometry": { "type": "LineString", "coordinates": [ [ -122.176634098027122, 37.718849998094271 ], [ -122.1763168, 37.7185435 ], [ -122.1755831, 37.7178211 ], [ -122.175583097161734, 37.717821097176376 ] ] } },
{ "type": "Feature", "properties": { "pm_start": 4.599798, "pm_end": 5.0295, "length": 0.429702, "lanes": 6, "on_ramp": true, "off_ramp": true, "on_ramp_name": null, "off_ramp_name": null, "caltrans_pm_start": 23.499999769374373, "caltrans_pm_end": 23.100000658972647, "length_warning": "ok", "vds_id": 400192, "vds_pm": 4.7912489225727981, "vds_lanes": 6, "vds_source": "direct_tiebreak", "vds_distance_mi": 0.0, "vds_n_candidates": 3, "on_ramp_vds_id": 403014, "off_ramp_vds_id": null }, "geometry": { "type": "LineString", "coordinates": [ [ -122.175583097161734, 37.717821097176376 ], [ -122.1732947, 37.7155445 ], [ -122.1727789, 37.7150228 ], [ -122.1725699, 37.7148136 ], [ -122.1723612, 37.7146074 ], [ -122.1721475, 37.7144044 ], [ -122.1719293, 37.7142029 ], [ -122.1717073, 37.7140048 ], [ -122.1714817, 37.7138098 ], [ -122.171246, 37.7136134 ], [ -122.1710168, 37.713429 ], [ -122.1707788, 37.7132418 ], [ -122.170539303841906, 37.713058002948394 ] ] } },
{ "type": "Feature", "properties": { "pm_start": 5.0295, "pm_end": 5.261141, "length": 0.231641, "lanes": 5, "on_ramp": false, "off_ramp": true, "on_ramp_name": null, "off_ramp_name": null, "caltrans_pm_start": 23.100000658972647, "caltrans_pm_end": 22.899999520528908, "length_warning": "ok", "vds_id": 400192, "vds_pm": 4.7912489225727981, "vds_lanes": 6, "vds_source": "nearest_upstream", "vds_distance_mi": -0.3540715774272023, "vds_n_candidates": 0, "on_ramp_vds_id": null, "off_ramp_vds_id": null }, "geometry": { "type": "LineString", "coordinates": [ [ -122.170539303841906, 37.713058002948394 ], [ -122.1705393, 37.713058 ], [ -122.1702904, 37.7128747 ], [ -122.1700358, 37.7126936 ], [ -122.1697924, 37.7125244 ], [ -122.1673581, 37.7108432 ], [ -122.167358098926769, 37.71084319926004 ] ] } },
{ "type": "Feature", "properties": { "pm_start": 5.261141, "pm_end": 5.495573, "length": 0.234432, "lanes": 5, "on_ramp": false, "off_ramp": false, "on_ramp_name": null, "off_ramp_name": null, "caltrans_pm_start": 22.899999520528908, "caltrans_pm_end": 22.600000151106034, "length_warning": "ok", "vds_id": 400942, "vds_pm": 5.4225512398526226, "vds_lanes": 5, "vds_source": "direct", "vds_distance_mi": 0.0, "vds_n_candidates": 1, "on_ramp_vds_id": null, "off_ramp_vds_id": null }, "geometry": { "type": "LineString", "coordinates": [ [ -122.167358098926769, 37.71084319926004 ], [ -122.1663933, 37.710178 ], [ -122.1658879, 37.7098352 ], [ -122.1656327, 37.7096631 ], [ -122.1653778, 37.7094916 ], [ -122.1651227, 37.7093207 ], [ -122.1648669, 37.7091487 ], [ -122.1646116, 37.7089745 ], [ -122.164363, 37.7088025 ], [ -122.1641109, 37.7086268 ], [ -122.164110896868266, 37.708626797810538 ] ] } },
{ "type": "Feature", "properties": { "pm_start": 5.495573, "pm_end": 6.990631, "length": 1.495058, "lanes": 5, "on_ramp": true, "off_ramp": true, "on_ramp_name": null, "off_ramp_name": null, "caltrans_pm_start": 22.600000151106034, "caltrans_pm_end": 21.100000327548013, "length_warning": "too_long", "vds_id": 401068, "vds_pm": 6.0125732062219051, "vds_lanes": 5, "vds_source": "direct_tiebreak", "vds_distance_mi": 0.0, "vds_n_candidates": 2, "on_ramp_vds_id": 418464, "off_ramp_vds_id": null }, "geometry": { "type": "LineString", "coordinates": [ [ -122.164110896868266, 37.708626797810538 ], [ -122.1636097, 37.7082764 ], [ -122.163108, 37.7079272 ], [ -122.1626078, 37.7075804 ], [ -122.1623565, 37.7074069 ], [ -122.1601456, 37.7058811 ], [ -122.1563758, 37.7032772 ], [ -122.1519481, 37.7002171 ], [ -122.1504754, 37.6991988 ], [ -122.149202, 37.6983199 ], [ -122.1488647, 37.6980866 ], [ -122.1466459, 37.6965536 ], [ -122.1444633, 37.6950607 ], [ -122.1435017, 37.6944029 ], [ -122.143501698908807, 37.694402899271978 ] ] } },
{ "type": "Feature", "properties": { "pm_start": 6.990631, "pm_end": 7.140333, "length": 0.149702, "lanes": 4, "on_ramp": false, "off_ramp": false, "on_ramp_name": null, "off_ramp_name": null, "caltrans_pm_start": 21.100000327548013, "caltrans_pm_end": 20.999999894539727, "length_warning": "too_short", "vds_id": 401068, "vds_pm": 6.0125732062219051, "vds_lanes": 5, "vds_source": "nearest_upstream", "vds_distance_mi": -1.0529087937780943, "vds_n_candidates": 0, "on_ramp_vds_id": null, "off_ramp_vds_id": null }, "geometry": { "type": "LineString", "coordinates": [ [ -122.143501698908807, 37.694402899271978 ], [ -122.1433073, 37.6942732 ], [ -122.141459, 37.6929602 ], [ -122.141458998512633, 37.692960198976309 ] ] } },
{ "type": "Feature", "properties": { "pm_start": 7.140333, "pm_end": 7.549293, "length": 0.40896, "lanes": 3, "on_ramp": false, "off_ramp": false, "on_ramp_name": null, "off_ramp_name": null, "caltrans_pm_start": 20.999999894539727, "caltrans_pm_end": 20.600000670548749, "length_warning": "ok", "vds_id": 400225, "vds_pm": 7.4917918685412657, "vds_lanes": 4, "vds_source": "direct", "vds_distance_mi": 0.0, "vds_n_candidates": 1, "on_ramp_vds_id": null, "off_ramp_vds_id": null }, "geometry": { "type": "LineString", "coordinates": [ [ -122.141458998512633, 37.692960198976309 ], [ -122.1401945, 37.6920899 ], [ -122.1368954, 37.6898135 ], [ -122.135824504081612, 37.689067402843676 ] ] } },
{ "type": "Feature", "properties": { "pm_start": 7.549293, "pm_end": 7.591032, "length": 0.041739000000000637, "lanes": 4, "on_ramp": true, "off_ramp": true, "on_ramp_name": null, "off_ramp_name": null, "caltrans_pm_start": 20.600000670548749, "caltrans_pm_end": 20.499999898254689, "length_warning": "too_short", "vds_id": 400225, "vds_pm": 7.4917918685412657, "vds_lanes": 4, "vds_source": "nearest_upstream", "vds_distance_mi": -0.078370631458734685, "vds_n_candidates": 0, "on_ramp_vds_id": 403009, "off_ramp_vds_id": null }, "geometry": { "type": "LineString", "coordinates": [ [ -122.135824504081612, 37.689067402843676 ], [ -122.1358245, 37.6890674 ], [ -122.1352529, 37.688667 ], [ -122.135252898429641, 37.688666998922407 ] ] } },
{ "type": "Feature", "properties": { "pm_start": 7.591032, "pm_end": 8.038542, "length": 0.44751, "lanes": 3, "on_ramp": false, "off_ramp": false, "on_ramp_name": null, "off_ramp_name": null, "caltrans_pm_start": 20.499999898254689, "caltrans_pm_end": 20.099999965431799, "length_warning": "ok", "vds_id": 401072, "vds_pm": 7.8161795782241672, "vds_lanes": 4, "vds_source": "direct", "vds_distance_mi": 0.0, "vds_n_candidates": 1, "on_ramp_vds_id": null, "off_ramp_vds_id": null }, "geometry": { "type": "LineString", "coordinates": [ [ -122.135252898429641, 37.688666998922407 ], [ -122.1339995, 37.6878069 ], [ -122.1331979, 37.6872484 ], [ -122.1324883, 37.6867652 ], [ -122.1322282, 37.6865826 ], [ -122.1311903, 37.6858613 ], [ -122.1307102, 37.6855185 ], [ -122.1301549, 37.6851272 ], [ -122.1297447, 37.6848526 ], [ -122.1294535, 37.6846489 ], [ -122.1292079, 37.6844693 ], [ -122.1291085, 37.6843893 ], [ -122.129108495229403, 37.684389296553938 ] ] } },
{ "type": "Feature", "properties": { "pm_start": 8.038542, "pm_end": 8.208438, "length": 0.169896, "lanes": 5, "on_ramp": true, "off_ramp": false, "on_ramp_name": null, "off_ramp_name": null, "caltrans_pm_start": 20.099999965431799, "caltrans_pm_end": 19.899999378786834, "length_warning": "too_short", "vds_id": 400486, "vds_pm": 8.1749957583630035, "vds_lanes": 6, "vds_source": "direct", "vds_distance_mi": 0.0, "vds_n_candidates": 1, "on_ramp_vds_id": null, "off_ramp_vds_id": null }, "geometry": { "type": "LineString", "coordinates": [ [ -122.129108495229403, 37.684389296553938 ], [ -122.1284692, 37.6839275 ], [ -122.1267868, 37.6827553 ], [ -122.126786796606112, 37.68275529767881 ] ] } },
{ "type": "Feature", "properties": { "pm_start": 8.208438, "pm_end": 9.583847, "length": 1.375409, "lanes": 5, "on_ramp": true, "off_ramp": true, "on_ramp_name": null, "off_ramp_name": null, "caltrans_pm_start": 19.899999378786834, "caltrans_pm_end": 18.600000009823884, "length_warning": "too_long", "vds_id": 400312, "vds_pm": 8.7742860880431568, "vds_lanes": 6, "vds_source": "direct_tiebreak", "vds_distance_mi": 0.0, "vds_n_candidates": 4, "on_ramp_vds_id": 403007, "off_ramp_vds_id": null }, "geometry": { "type": "LineString", "coordinates": [ [ -122.126786796606112, 37.68275529767881 ], [ -122.1242187, 37.6809989 ], [ -122.1209402, 37.6787299 ], [ -122.1202585, 37.6782594 ], [ -122.1198079, 37.6779494 ], [ -122.1193988, 37.6776798 ], [ -122.1185336, 37.677131 ], [ -122.1183305, 37.677004 ], [ -122.1178499, 37.6766937 ], [ -122.1174381, 37.6764231 ], [ -122.1164864, 37.6757239 ], [ -122.1159373, 37.6752939 ], [ -122.1149713, 37.6745925 ], [ -122.1136254, 37.673641 ], [ -122.1132432, 37.6733809 ], [ -122.1128892, 37.6731261 ], [ -122.1125431, 37.672849 ], [ -122.1122011, 37.6725561 ], [ -122.1118739, 37.6722493 ], [ -122.1115654, 37.6719414 ], [ -122.1112892, 37.6716336 ], [ -122.1109955, 37.6712928 ], [ -122.1107031, 37.670915 ], [ -122.110467, 37.6705885 ], [ -122.1102163, 37.6702111 ], [ -122.1096752, 37.6693293 ], [ -122.1092963, 37.6687134 ], [ -122.109296297449248, 37.668713395937324 ] ] } },
{ "type": "Feature", "properties": { "pm_start": 9.583847, "pm_end": 9.964613, "length": 0.380766, "lanes": 4, "on_ramp": false, "off_ramp": false, "on_ramp_name": null, "off_ramp_name": null, "caltrans_pm_start": 18.600000009823884, "caltrans_pm_end": 18.200000502450479, "length_warning": "ok", "vds_id": 400670, "vds_pm": 9.8913321610598732, "vds_lanes": 5, "vds_source": "direct", "vds_distance_mi": 0.0, "vds_n_candidates": 1, "on_ramp_vds_id": null, "off_ramp_vds_id": null }, "geometry": { "type": "LineString", "coordinates": [ [ -122.109296297449248, 37.668713395937324 ], [ -122.1086903, 37.6677482 ], [ -122.1078874, 37.6664765 ], [ -122.107656, 37.666105 ], [ -122.1072417, 37.6654132 ], [ -122.1066852, 37.6644644 ], [ -122.1062425, 37.6637614 ], [ -122.106242497834018, 37.663761396529019 ] ] } },
{ "type": "Feature", "properties": { "pm_start": 9.964613, "pm_end": 10.172089, "length": 0.207476, "lanes": 4, "on_ramp": true, "off_ramp": true, "on_ramp_name": null, "off_ramp_name": null, "caltrans_pm_start": 18.200000502450479, "caltrans_pm_end": 18.00000003467715, "length_warning": "ok", "vds_id": 400463, "vds_pm": 10.150412157953166, "vds_lanes": 5, "vds_source": "direct", "vds_distance_mi": 0.0, "vds_n_candidates": 1, "on_ramp_vds_id": 403004, "off_ramp_vds_id": null }, "geometry": { "type": "LineString", "coordinates": [ [ -122.106242497834018, 37.663761396529019 ], [ -122.1054342, 37.6624661 ], [ -122.104543900297173, 37.661076500463835 ] ] } },
{ "type": "Feature", "properties": { "pm_start": 10.172089, "pm_end": 10.865258, "length": 0.693169, "lanes": 4, "on_ramp": false, "off_ramp": false, "on_ramp_name": null, "off_ramp_name": null, "caltrans_pm_start": 18.00000003467715, "caltrans_pm_end": 17.299999009805479, "length_warning": "ok", "vds_id": 401475, "vds_pm": 10.660129101010622, "vds_lanes": 5, "vds_source": "direct_tiebreak", "vds_distance_mi": 0.0, "vds_n_candidates": 2, "on_ramp_vds_id": null, "off_ramp_vds_id": null }, "geometry": { "type": "LineString", "coordinates": [ [ -122.104543900297173, 37.661076500463835 ], [ -122.1045439, 37.6610765 ], [ -122.1015131, 37.6561844 ], [ -122.1003436, 37.6542985 ], [ -122.0989801, 37.6520629 ], [ -122.098980098328184, 37.652062897260215 ] ] } },
{ "type": "Feature", "properties": { "pm_start": 10.865258, "pm_end": 11.137705, "length": 0.272447, "lanes": 5, "on_ramp": true, "off_ramp": true, "on_ramp_name": null, "off_ramp_name": null, "caltrans_pm_start": 17.299999009805479, "caltrans_pm_end": 16.999999809904121, "length_warning": "ok", "vds_id": 408141, "vds_pm": 10.869778191546269, "vds_lanes": 6, "vds_source": "direct", "vds_distance_mi": 0.0, "vds_n_candidates": 1, "on_ramp_vds_id": 403000, "off_ramp_vds_id": null }, "geometry": { "type": "LineString", "coordinates": [ [ -122.098980098328184, 37.652062897260215 ], [ -122.098407, 37.6511237 ], [ -122.0978264, 37.6501906 ], [ -122.0972899, 37.6493706 ], [ -122.0966984, 37.6485597 ], [ -122.096698398043074, 37.648559697726498 ] ] } },
{ "type": "Feature", "properties": { "pm_start": 11.137705, "pm_end": 11.154578, "length": 0.016873, "lanes": 3, "on_ramp": false, "off_ramp": false, "on_ramp_name": null, "off_ramp_name": null, "caltrans_pm_start": 16.999999809904121, "caltrans_pm_end": 16.983126809904121, "length_warning": "too_short", "vds_id": 408141, "vds_pm": 10.869778191546269, "vds_lanes": 6, "vds_source": "nearest_upstream", "vds_distance_mi": -0.2763633084537318, "vds_n_candidates": 0, "on_ramp_vds_id": null, "off_ramp_vds_id": null }, "geometry": { "type": "LineString", "coordinates": [ [ -122.096698398043074, 37.648559697726498 ], [ -122.096524700448285, 37.648357900520807 ] ] } },
{ "type": "Feature", "properties": { "pm_start": 11.154578, "pm_end": 11.559932, "length": 0.405354, "lanes": 4, "on_ramp": false, "off_ramp": false, "on_ramp_name": null, "off_ramp_name": null, "caltrans_pm_start": 16.983126809904121, "caltrans_pm_end": 16.600000458178268, "length_warning": "ok", "vds_id": 400427, "vds_pm": 11.441634715569805, "vds_lanes": 4, "vds_source": "direct", "vds_distance_mi": 0.0, "vds_n_candidates": 1, "on_ramp_vds_id": null, "off_ramp_vds_id": null }, "geometry": { "type": "LineString", "coordinates": [ [ -122.096524700448285, 37.648357900520807 ], [ -122.0965247, 37.6483579 ], [ -122.0952163, 37.6465408 ], [ -122.0949412, 37.6461425 ], [ -122.0942641, 37.6452538 ], [ -122.0936687, 37.6444192 ], [ -122.092882800714179, 37.643249801062673 ] ] } },
{ "type": "Feature", "properties": { "pm_start": 11.559932, "pm_end": 11.73033, "length": 0.170398, "lanes": 5, "on_ramp": true, "off_ramp": false, "on_ramp_name": null, "off_ramp_name": null, "caltrans_pm_start": 16.600000458178268, "caltrans_pm_end": 16.40000015151082, "length_warning": "too_short", "vds_id": 417676, "vds_pm": 11.580815077403619, "vds_lanes": 5, "vds_source": "direct", "vds_distance_mi": 0.0, "vds_n_candidates": 1, "on_ramp_vds_id": 417677, "off_ramp_vds_id": null }, "geometry": { "type": "LineString", "coordinates": [ [ -122.092882800714179, 37.643249801062673 ], [ -122.0928828, 37.6432498 ], [ -122.092341, 37.6425119 ], [ -122.091351704026707, 37.641102305737419 ] ] } }
]
}
