{
"type": "FeatureCollection",
"name": "mainline",
"crs": { "type": "name", "properties": { "name": "urn:ogc:def:crs:OGC:1.3:CRS84" } },
"features": [
{ "type": "Feature", "properties": { "u": 241328971, "v": 678963606, "pm_start": 0.0, "pm_end": 0.67486250009779425, "lanes": 4 }, "geometry": { "type": "LineString", "coordinates": [ [ -122.2244149, 37.7718965 ], [ -122.2240009, 37.7717151 ], [ -122.2237492, 37.7715832 ], [ -122.2235462, 37.7714586 ], [ -122.2232645, 37.771283 ], [ -122.2230433, 37.7711298 ], [ -122.2227921, 37.7709367 ], [ -122.2225685, 37.7707499 ], [ -122.2223698, 37.7705725 ], [ -122.2221752, 37.7703766 ], [ -122.2219733, 37.7701692 ], [ -122.2216702, 37.769821 ], [ -122.2188232, 37.7660287 ], [ -122.2184765, 37.7656148 ], [ -122.2181854, 37.7652808 ], [ -122.2178367, 37.7648944 ], [ -122.2175039, 37.7645355 ], [ -122.2171499, 37.764122 ] ] } },
{ "type": "Feature", "properties": { "u": 678963606, "v": 52984138, "pm_start": 0.67486250009779425, "pm_end": 1.1715555094455321, "lanes": 4 }, "geometry": { "type": "LineString", "coordinates": [ [ -122.2171499, 37.764122 ], [ -122.2151784, 37.7618723 ], [ -122.2148433, 37.7614907 ], [ -122.2146592, 37.7612808 ], [ -122.2139065, 37.760422 ], [ -122.2123539, 37.7585982 ], [ -122.2120087, 37.7581928 ] ] } },
{ "type": "Feature", "properties": { "u": 52984138, "v": 241331864, "pm_start": 1.1715555094455321, "pm_end": 1.8828827184082506, "lanes": 4 }, "geometry": { "type": "LineString", "coordinates": [ [ -122.2120087, 37.7581928 ], [ -122.2107136, 37.7567902 ], [ -122.208285, 37.7540216 ], [ -122.2080796, 37.7537874 ], [ -122.2076918, 37.7533463 ], [ -122.2073471, 37.7529546 ], [ -122.2069772, 37.752534 ], [ -122.2045459, 37.7497568 ] ] } },
{ "type": "Feature", "properties": { "u": 241331864, "v": 241335045, "pm_start": 1.8828827184082506, "pm_end": 2.4053780363112089, "lanes": 4 }, "geometry": { "type": "LineString", "coordinates": [ [ -122.2045459, 37.7497568 ], [ -122.2029003, 37.7478874 ], [ -122.2015954, 37.7464048 ], [ -122.2014502, 37.7462406 ], [ -122.2011862, 37.745939 ], [ -122.1995294, 37.7440213 ], [ -122.1991096, 37.7435353 ] ] } },
{ "type": "Feature", "properties": { "u": 241335045, "v": 241335048, "pm_start": 2.4053780363112089, "pm_end": 2.7165213531975354, "lanes": 4 }, "geometry": { "type": "LineString", "coordinates": [ [ -122.1991096, 37.7435353 ], [ -122.1973963, 37.7416204 ], [ -122.1958655, 37.7398345 ] ] } },
{ "type": "Feature", "properties": { "u": 241335048, "v": 242106766, "pm_start": 2.7165213531975354, "pm_end": 2.9295582745736488, "lanes": 4 }, "geometry": { "type": "LineString", "coordinates": [ [ -122.1958655, 37.7398345 ], [ -122.1946017, 37.7383937 ], [ -122.193665, 37.7372893 ] ] } },
{ "type": "Feature", "properties": { "u": 242106766, "v": 242106767, "pm_start": 2.9295582745736488, "pm_end": 3.1735074432951378, "lanes": 6 }, "geometry": { "type": "LineString", "coordinates": [ [ -122.193665, 37.7372893 ], [ -122.1926326, 37.7361165 ], [ -122.1911025, 37.7343981 ] ] } },
{ "type": "Feature", "properties": { "u": 242106767, "v": 242187653, "pm_start": 3.1735074432951378, "pm_end": 3.4156051072966052, "lanes": 5 }, "geometry": { "type": "LineString", "coordinates": [ [ -122.1911025, 37.7343981 ], [ -122.1898064, 37.7329619 ], [ -122.1885308, 37.7315449 ] ] } },
{ "type": "Feature", "properties": { "u": 242187653, "v": 242187655, "pm_start": 3.4156051072966052, "pm_end": 3.5431147439583706, "lanes": 5 }, "geometry": { "type": "LineString", "coordinates": [ [ -122.1885308, 37.7315449 ], [ -122.1881045, 37.730958 ], [ -122.1872574, 37.7300005 ] ] } },
{ "type": "Feature", "properties": { "u": 242187655, "v": 242414019, "pm_start": 3.5431147439583706, "pm_end": 4.3186439280975097, "lanes": 5 }, "geometry": { "type": "LineString", "coordinates": [ [ -122.1872574, 37.7300005 ], [ -122.1867923, 37.729485 ], [ -122.1856615, 37.7282299 ], [ -122.1836606, 37.7259664 ], [ -122.1832851, 37.7255336 ], [ -122.1828506, 37.7250541 ], [ -122.1825072, 37.7246892 ], [ -122.1821559, 37.7243349 ], [ -122.1818018, 37.723987 ], [ -122.1800379, 37.7221764 ], [ -122.178853, 37.72096 ] ] } },
{ "type": "Feature", "properties": { "u": 242414019, "v": 3374503918, "pm_start": 4.3186439280975097, "pm_end": 4.5083998295458949, "lanes": 5 }, "geometry": { "type": "LineString", "coordinates": [ [ -122.178853, 37.72096 ], [ -122.1783056, 37.7205044 ], [ -122.1778875, 37.720092 ], [ -122.1772629, 37.7194705 ], [ -122.1766341, 37.71885 ] ] } },
{ "type": "Feature", "properties": { "u": 3374503918, "v": 1316702496, "pm_start": 4.5083998295458949, "pm_end": 4.5997977522487172, "lanes": 5 }, "geometry": { "type": "LineString", "coordinates": [ [ -122.1766341, 37.71885 ], [ -122.1763168, 37.7185435 ], [ -122.1755831, 37.7178211 ] ] } },
{ "type": "Feature", "properties": { "u": 1316702496, "v": 242465654, "pm_start": 4.5997977522487172, "pm_end": 5.0295002996884275, "lanes": 6 }, "geometry": { "type": "LineString", "coordinates": [ [ -122.1755831, 37.7178211 ], [ -122.1732947, 37.7155445 ], [ -122.1727789, 37.7150228 ], [ -122.1725699, 37.7148136 ], [ -122.1723612, 37.7146074 ], [ -122.1721475, 37.7144044 ], [ -122.1719293, 37.7142029 ], [ -122.1717073, 37.7140048 ], [ -122.1714817, 37.7138098 ], [ -122.171246, 37.7136134 ], [ -122.1710168, 37.713429 ], [ -122.1707788, 37.7132418 ], [ -122.1705393, 37.713058 ] ] } },
{ "type": "Feature", "properties": { "u": 242465654, "v": 3701155819, "pm_start": 5.0295002996884275, "pm_end": 5.2611409222691643, "lanes": 5 }, "geometry": { "type": "LineString", "coordinates": [ [ -122.1705393, 37.713058 ], [ -122.1702904, 37.7128747 ], [ -122.1700358, 37.7126936 ], [ -122.1697924, 37.7125244 ], [ -122.1673581, 37.7108432 ] ] } },
{ "type": "Feature", "properties": { "u": 3701155819, "v": 6347940589, "pm_start": 5.2611409222691643, "pm_end": 5.4955727718601386, "lanes": 5 }, "geometry": { "type": "LineString", "coordinates": [ [ -122.1673581, 37.7108432 ], [ -122.1663933, 37.710178 ], [ -122.1658879, 37.7098352 ], [ -122.1656327, 37.7096631 ], [ -122.1653778, 37.7094916 ], [ -122.1651227, 37.7093207 ], [ -122.1648669, 37.7091487 ], [ -122.1646116, 37.7089745 ], [ -122.164363, 37.7088025 ], [ -122.1641109, 37.7086268 ] ] } },
{ "type": "Feature", "properties": { "u": 6347940589, "v": 242850841, "pm_start": 5.4955727718601386, "pm_end": 6.9906309214786377, "lanes": 5 }, "geometry": { "type": "LineString", "coordinates": [ [ -122.1641109, 37.7086268 ], [ -122.1636097, 37.7082764 ], [ -122.163108, 37.7079272 ], [ -122.1626078, 37.7075804 ], [ -122.1623565, 37.7074069 ], [ -122.1601456, 37.7058811 ], [ -122.1563758, 37.7032772 ], [ -122.1519481, 37.7002171 ], [ -122.1504754, 37.6991988 ], [ -122.149202, 37.6983199 ], [ -122.1488647, 37.6980866 ], [ -122.1466459, 37.6965536 ], [ -122.1444633, 37.6950607 ], [ -122.1435017, 37.6944029 ] ] } },
{ "type": "Feature", "properties": { "u": 242850841, "v": 13318761074, "pm_start": 6.9906309214786377, "pm_end": 7.1403328921772058, "lanes": 4 }, "geometry": { "type": "LineString", "coordinates": [ [ -122.1435017, 37.6944029 ], [ -122.1433073, 37.6942732 ], [ -122.141459, 37.6929602 ] ] } },
{ "type": "Feature", "properties": { "u": 13318761074, "v": 242851788, "pm_start": 7.1403328921772058, "pm_end": 7.5492932970576163, "lanes": 3 }, "geometry": { "type": "LineString", "coordinates": [ [ -122.141459, 37.6929602 ], [ -122.1401945, 37.6920899 ], [ -122.1368954, 37.6898135 ], [ -122.1358245, 37.6890674 ] ] } },
{ "type": "Feature", "properties": { "u": 242851788, "v": 242856251, "pm_start": 7.5492932970576163, "pm_end": 7.5910318861698434, "lanes": 4 }, "geometry": { "type": "LineString", "coordinates": [ [ -122.1358245, 37.6890674 ], [ -122.1352529, 37.688667 ] ] } },
{ "type": "Feature", "properties": { "u": 242856251, "v": 242856001, "pm_start": 7.5910318861698434, "pm_end": 8.0385416478337195, "lanes": 3 }, "geometry": { "type": "LineString", "coordinates": [ [ -122.1352529, 37.688667 ], [ -122.1339995, 37.6878069 ], [ -122.1331979, 37.6872484 ], [ -122.1324883, 37.6867652 ], [ -122.1322282, 37.6865826 ], [ -122.1311903, 37.6858613 ], [ -122.1307102, 37.6855185 ], [ -122.1301549, 37.6851272 ], [ -122.1297447, 37.6848526 ], [ -122.1294535, 37.6846489 ], [ -122.1292079, 37.6844693 ], [ -122.1291085, 37.6843893 ] ] } },
{ "type": "Feature", "properties": { "u": 242856001, "v": 53005340, "pm_start": 8.0385416478337195, "pm_end": 8.2084377548607801, "lanes": 5 }, "geometry": { "type": "LineString", "coordinates": [ [ -122.1291085, 37.6843893 ], [ -122.1284692, 37.6839275 ], [ -122.1267868, 37.6827553 ] ] } },
{ "type": "Feature", "properties": { "u": 53005340, "v": 13318761006, "pm_start": 8.2084377548607801, "pm_end": 8.8182039113477551, "lanes": 5 }, "geometry": { "type": "LineString", "coordinates": [ [ -122.1267868, 37.6827553 ], [ -122.1242187, 37.6809989 ], [ -122.1209402, 37.6787299 ], [ -122.1202585, 37.6782594 ], [ -122.1198079, 37.6779494 ], [ -122.1193988, 37.6776798 ], [ -122.1185336, 37.677131 ], [ -122.1183305, 37.677004 ] ] } },
{ "type": "Feature", "properties": { "u": 13318761006, "v": 257389219, "pm_start": 8.8182039113477551, "pm_end": 9.5838466863195055, "lanes": 5 }, "geometry": { "type": "LineString", "coordinates": [ [ -122.1183305, 37.677004 ], [ -122.1178499, 37.6766937 ], [ -122.1174381, 37.6764231 ], [ -122.1164864, 37.6757239 ], [ -122.1159373, 37.6752939 ], [ -122.1149713, 37.6745925 ], [ -122.1136254, 37.673641 ], [ -122.1132432, 37.6733809 ], [ -122.1128892, 37.6731261 ], [ -122.1125431, 37.672849 ], [ -122.1122011, 37.6725561 ], [ -122.1118739, 37.6722493 ], [ -122.1115654, 37.6719414 ], [ -122.1112892, 37.6716336 ], [ -122.1109955, 37.6712928 ], [ -122.1107031, 37.670915 ], [ -122.110467, 37.6705885 ], [ -122.1102163, 37.6702111 ], [ -122.1096752, 37.6693293 ], [ -122.1092963, 37.6687134 ] ] } },
{ "type": "Feature", "properties": { "u": 257389219, "v": 13318761005, "pm_start": 9.5838466863195055, "pm_end": 9.8380621856410517, "lanes": 4 }, "geometry": { "type": "LineString", "coordinates": [ [ -122.1092963, 37.6687134 ], [ -122.1086903, 37.6677482 ], [ -122.1078874, 37.6664765 ], [ -122.107656, 37.666105 ], [ -122.1072417, 37.6654132 ] ] } },
{ "type": "Feature", "properties": { "u": 13318761005, "v": 257389670, "pm_start": 9.8380621856410517, "pm_end": 9.9646127328239018, "lanes": 4 }, "geometry": { "type": "LineString", "coordinates": [ [ -122.1072417, 37.6654132 ], [ -122.1066852, 37.6644644 ], [ -122.1062425, 37.6637614 ] ] } },
{ "type": "Feature", "properties": { "u": 257389670, "v": 257389852, "pm_start": 9.9646127328239018, "pm_end": 10.172089035973299, "lanes": 4 }, "geometry": { "type": "LineString", "coordinates": [ [ -122.1062425, 37.6637614 ], [ -122.1054342, 37.6624661 ], [ -122.1045439, 37.6610765 ] ] } },
{ "type": "Feature", "properties": { "u": 257389852, "v": 257389899, "pm_start": 10.172089035973299, "pm_end": 10.865257790946769, "lanes": 4 }, "geometry": { "type": "LineString", "coordinates": [ [ -122.1045439, 37.6610765 ], [ -122.1015131, 37.6561844 ], [ -122.1003436, 37.6542985 ], [ -122.0989801, 37.6520629 ] ] } },
{ "type": "Feature", "properties": { "u": 257389899, "v": 33144662, "pm_start": 10.865257790946769, "pm_end": 11.13770480990412, "lanes": 5 }, "geometry": { "type": "LineString", "coordinates": [ [ -122.0989801, 37.6520629 ], [ -122.098407, 37.6511237 ], [ -122.0978264, 37.6501906 ], [ -122.0972899, 37.6493706 ], [ -122.0966984, 37.6485597 ] ] } },
{ "type": "Feature", "properties": { "u": 33144662, "v": 13318761008, "pm_start": 11.13770480990412, "pm_end": 11.154578043546314, "lanes": 3 }, "geometry": { "type": "LineString", "coordinates": [ [ -122.0966984, 37.6485597 ], [ -122.0965247, 37.6483579 ] ] } },
{ "type": "Feature", "properties": { "u": 13318761008, "v": 1243945808, "pm_start": 11.154578043546314, "pm_end": 11.559932082713898, "lanes": 4 }, "geometry": { "type": "LineString", "coordinates": [ [ -122.0965247, 37.6483579 ], [ -122.0952163, 37.6465408 ], [ -122.0949412, 37.6461425 ], [ -122.0942641, 37.6452538 ], [ -122.0936687, 37.6444192 ], [ -122.0928828, 37.6432498 ] ] } },
{ "type": "Feature", "properties": { "u": 1243945808, "v": 3974818867, "pm_start": 11.559932082713898, "pm_end": 11.730330452841168, "lanes": 5 }, "geometry": { "type": "LineString", "coordinates": [ [ -122.0928828, 37.6432498 ], [ -122.092341, 37.6425119 ], [ -122.0913517, 37.6411023 ] ] } }
]
}
